[
{"city": "Goi\u00e2nia\u00a0/\u00a0GO", "name": "A AMBIENTAL - Cooperativa dos Coletores de Material Recicl\u00e1vel", "district": "Chacara Samambaia", "material": "Pl\u00e1stico, Metal, Papel, Vidro, Longa Vida, Eletr\u00f4nicos", "postal_code": "", "address": "R. Jandai\u00e1, ch16"},
{"city": "Nova Olinda\u00a0/\u00a0CE", "name": "AARNO- Associa\u00e7\u00e3o dos Agentes Ambientais Recicladores de Nova Olinda", "district": "Nova Olinda", "material": "Pl\u00e1stico, Metal, Papel, Vidro, Longa Vida", "postal_code": "63165000", "address": "Rua Vicente Pereira, 141"},
{"city": "Dois Vizinhos\u00a0/\u00a0PR", "name": "ACAMAR -  Assosia\u00e7\u00e3o de Catadores de Material Reciclado", "district": "Centro", "material": "Pl\u00e1stico, Metal, Papel, Pilha, Bateria, Vidro, Longa Vida, L\u00e2mpadas, \u00d3leo, Eletr\u00f4nicos", "postal_code": "85660000", "address": "AV.DEDI BARICHELLO MONTAGER N1279"},
{"city": "Lavras\u00a0/\u00a0MG", "name": "ACAMAR - Associa\u00e7\u00e3o dos Catadores de Materiais Recicl\u00e1veis", "district": "", "material": "Pl\u00e1stico, Metal, Vidro, Madeira", "postal_code": "37200000", "address": "Silvio Modesto de Souza, 540."},
{"city": "Cariacica\u00a0/\u00a0ES", "name": "ACAMARP - Associa\u00e7\u00e3o Beneficente de Catadores de Mat. Recicl\u00e1veis de N", "district": "Nova Rosa da Penha II", "material": "Pl\u00e1stico, Metal, Pneu, Papel, Vidro", "postal_code": "29140000", "address": "Rua Trinta e Cinco, SN"},
{"city": "Curitiba\u00a0/\u00a0PR", "name": "ACAMPA - Ass. dos Catadores de Mat. Recicl\u00e1veis Parceiros do Meio Ambi", "district": "Bairro CIC", "material": "Pl\u00e1stico, Metal, Papel, Vidro, Longa Vida", "postal_code": "81350160", "address": "Av. Pres. Juscelino Kubtscheck de Oliveira, 7161"},
{"city": "Belem\u00a0/\u00a0PA", "name": "A\u00e7\u00e3o Cidadania para Todos", "district": "Aur\u00e1", "material": "Pl\u00e1stico, Metal, Papel", "postal_code": "66077110", "address": "estrada Santana do Aur\u00e1"},
{"city": "Po\u00e7os de Caldas\u00a0/\u00a0MG", "name": "A\u00e7\u00e3o Reciclar Cooperativa de Trabalhadores de materiais reciclaveis", "district": "Jardim Centenario", "material": "Pl\u00e1stico, Metal, Papel, Vidro, Longa Vida", "postal_code": "37701002", "address": "Rua Benedita Azevedo Rodrigues 100"},
{"city": "S\u00e3o Paulo\u00a0/\u00a0SP", "name": "A\u00c7\u00c3OCARIDADE", "district": "liberdade", "material": "Pl\u00e1stico, Metal, Papel", "postal_code": "01512010", "address": "R Oscar Cintra Gordinho, 185 cj 111"},
{"city": "Fernand\u00f3polis\u00a0/\u00a0SP", "name": "ACARF - Ass. Cat. Rec. Fernand\u00f3polis", "district": "Centro", "material": "Pl\u00e1stico, Metal, Papel, Vidro", "postal_code": "", "address": "R. Bahia, 1680"},
{"city": "Alvorada\u00a0/\u00a0RS", "name": "ACATA-Associa\u00e7\u00e3 de Catadores de Alvorada", "district": "Umbu", "material": "Pl\u00e1stico, Metal, Papel, Vidro, L\u00e2mpadas, Madeira", "postal_code": "94810000", "address": "Rua 12 de julho. 538"},
{"city": "Bel\u00e9m\u00a0/\u00a0PA", "name": "ACCSB - Assoc. Catad. Da Coleta Seletiva de Bel\u00e9m", "district": "", "material": "Pl\u00e1stico, Metal, Papel, Vidro", "postal_code": "", "address": "Trav. Padre Eutiquio s/n (entre trav. Quintino Bocaiuva e S\u00e3o Miguel)"},
{"city": "Palmital\u00a0/\u00a0SP", "name": "ACIPAL", "district": "Paran\u00e1", "material": "Pl\u00e1stico, Metal, Pneu, Papel, Pilha, Vidro, Longa Vida, Tubo Dental, L\u00e2mpadas, Borracha", "postal_code": "19970000", "address": "Rua Jos\u00e9 Paulino,13"},
{"city": "Chapec\u00f3\u00a0/\u00a0SC", "name": "ACMARC - Associa\u00e7\u00e3o de Catadores de Chapec\u00f3", "district": "Centro", "material": "Pl\u00e1stico, Metal, Papel", "postal_code": "89801014", "address": "Travessa Ilma Rosa de N~es, 91 D"},
{"city": "Florian\u00f3polis\u00a0/\u00a0SC", "name": "ACMR - Associa\u00e7\u00e3o de Coletores de Material Recicl\u00e1vel do Centro", "district": "", "material": "Pl\u00e1stico, Metal, Papel, Vidro", "postal_code": "", "address": "Rodovia Admar Gonzaga, Km zero"},
{"city": "Guaruj\u00e1\u00a0/\u00a0SP", "name": "Sociedade Amigos do Bairro da Mar\u00e9 Mansa", "district": "Pr. Pernambuco-", "material": "Pl\u00e1stico, Metal, Papel, Vidro, Longa Vida, \u00d3leo, Borracha", "postal_code": "11444540", "address": "Rua 11, nr 79, Mar\u00e9 Mansa"},
{"city": "Fortaleza\u00a0/\u00a0CE", "name": "Sociedade Recicladora Pirambu", "district": "Pirambu", "material": "Pl\u00e1stico, Metal, Papel, Vidro, Longa Vida", "postal_code": "60310-690", "address": "Rua Serafim , 8A"},
{"city": "Passo Fundo\u00a0/\u00a0RS", "name": "SOCREBE", "district": "", "material": "Pl\u00e1stico, Metal, Papel, Bateria, Vidro, Longa Vida", "postal_code": "", "address": "Av Jo\u00e3o Catapan, 1297"},
{"city": "Recanto das Emas\u00a0/\u00a0DF", "name": "Supera\u00e7\u00e3o Cooperativa de Coleta Seletiva e Reciclagem de Res\u00edduos S\u00f3li", "district": "Centro", "material": "Pl\u00e1stico, Metal, Papel, Bateria, Vidro, Tecido, Madeira", "postal_code": "72631210", "address": "Quadra 406 conj j lt 14"},
{"city": "S\u00e3o Paulo\u00a0/\u00a0SP", "name": "Tiquatira", "district": "", "material": "Pl\u00e1stico, Metal, Papel, Vidro", "postal_code": "03077-000", "address": "Av. Elizabete Condessa Rubiana, 2002"},
{"city": "Contagem\u00a0/\u00a0MG", "name": "Trabalhando com Materiais Recicl\u00e1veis por um Mundo Melhor- Tramar", "district": "S\u00e3o Joaquim", "material": "Pl\u00e1stico, Metal, Papel, Vidro, Longa Vida", "postal_code": "", "address": "Rua Turqueza, 709"},
{"city": "Avar\u00e9\u00a0/\u00a0SP", "name": "Uniccop - Cooperativa de Lixo Recicl\u00e1vel de Avar\u00e9 SP", "district": "", "material": "Pl\u00e1stico, Metal, Papel", "postal_code": "", "address": "Av. Presidente Kenedy, 840"},
{"city": "S\u00e3o Paulo\u00a0/\u00a0SP", "name": "Volts Eletr\u00f4nicos", "district": "Jardim Miriam", "material": "Metal, Pilha, Bateria, Eletr\u00f4nicos", "postal_code": "06789000", "address": "Rua Paulo Carvalho"},
{"city": "S\u00e3o Paulo\u00a0/\u00a0SP", "name": "intermedios", "district": "jardim santa maria", "material": "Pl\u00e1stico", "postal_code": "03576040", "address": "rua"},
{"city": "Mogi Gua\u00e7u\u00a0/\u00a0SP", "name": "Jovan comercio Embalagens", "district": "jardim jacyra", "material": "Pl\u00e1stico", "postal_code": "13840125", "address": "rua irineu franco de godoy 196"},
{"city": "Mogi Gua\u00e7u\u00a0/\u00a0SP", "name": "JS Recicle Pl\u00e1sticos Ltda", "district": "Vila Leila", "material": "Pl\u00e1stico", "postal_code": "13840000", "address": "Rua Adelina Sim\u00f5es Signoretti, 99"},
{"city": "Suzano\u00a0/\u00a0SP", "name": "kaes reciclagem comercio de sucatas digitais ltda", "district": "palmeiras", "material": "Pl\u00e1stico, Metal, Bateria, Eletr\u00f4nicos", "postal_code": "08630070", "address": "rua do corrego 05"},
{"city": "Salvador\u00a0/\u00a0BA", "name": "KILOLIXO", "district": "Candeal", "material": "Pl\u00e1stico, Metal, Papel, Vidro", "postal_code": "41830130", "address": "Alameda Anturias, n.\u00ba 148/ 1202"},
{"city": "Itapevi\u00a0/\u00a0SP", "name": "LASBRA - LEGI\u00c3O DE ASSITENCIA SOCIAL BRASILEIRA", "district": "Jardim Dona Elvira", "material": "Pl\u00e1stico, Metal, Pneu, Papel, Bateria, Vidro, Longa Vida, Tubo Dental, L\u00e2mpadas, Tecido, Madeira, Eletr\u00f4nicos, Borracha", "postal_code": "06693220", "address": "Rua Osvaldo Francisco n\u00ba 211A"},
{"city": "S\u00e3o Paulo\u00a0/\u00a0SP", "name": "Leandro alves camasso - ME", "district": "jd marajoara", "material": "Pl\u00e1stico, Papel", "postal_code": "04455250", "address": "Rua"},
{"city": "Mara\u00fa\u00a0/\u00a0BA", "name": "Marau Limpo Reciclagem", "district": "barra grande", "material": "Pl\u00e1stico, Papel, Vidro, Longa Vida", "postal_code": "45520000", "address": "Loteamento Barra dos Tr\u00eas Coqueiros Lote 1, n\u00famero 5"},
{"city": "Cachoeirinha\u00a0/\u00a0RS", "name": "Maria Janar da Silva Santos (cooperativa)", "district": "Distrito Industrial", "material": "Pl\u00e1stico, Papel", "postal_code": "94930590", "address": "Rua Gildo de Freitas, 180"},
{"city": "Betim\u00a0/\u00a0MG", "name": "Metal Puro Ind\u00fastria e Com\u00e9rcio ltda", "district": "Jardim Piemonte", "material": "Pl\u00e1stico", "postal_code": "", "address": "Rua"},
{"city": "Cascavel\u00a0/\u00a0PR", "name": "Millennium Com\u00e9rcio de Aparas Ltda", "district": "Turisparque", "material": "Pl\u00e1stico, Metal, Papel", "postal_code": "85819-250", "address": "Rua Sociologia, 113"},
{"city": "Barroso\u00a0/\u00a0MG", "name": "MLJ Reciclagens", "district": "Ros\u00e1rio", "material": "Pl\u00e1stico, Metal, Papel, Bateria, Vidro, Longa Vida", "postal_code": "03621200", "address": "Rua da Esta\u00e7\u00e3o, s/n"},
{"city": "Bastos\u00a0/\u00a0SP", "name": "Mulher virtuoza reciclgem", "district": "centro", "material": "Pl\u00e1stico, Metal, Longa Vida, \u00d3leo", "postal_code": "1769000", "address": "av gaspar ricardo"},
{"city": "araguaina\u00a0/\u00a0TO", "name": "Natura-Ativa Proteger \u00e9 Viver", "district": "centro", "material": "Pl\u00e1stico, Metal, Pneu, Papel, Vidro, Mat\u00e9ria Org\u00e2nica", "postal_code": "77805030", "address": "Rua Rui Barbosa n 12"},
{"city": "Cotia\u00a0/\u00a0SP", "name": "Nova Cotia Recicla", "district": "", "material": "Pl\u00e1stico, Metal, Papel, Vidro, Longa Vida, Tubo Dental", "postal_code": "06700000", "address": "Rua Nova P\u00e1tria, 120"},
{"city": "S\u00e3o Carlos\u00a0/\u00a0SP", "name": "Ecoativa", "district": "Vila S\u00e3o Jos\u00e9", "material": "Pl\u00e1stico, Metal, Papel", "postal_code": "13572-000", "address": "Rua Peru, 375"},
{"city": "Barra Bonita\u00a0/\u00a0SP", "name": "Ecobarra - Cooperativa dos Catadores de Barra Bonita", "district": "Centro", "material": "Pl\u00e1stico, Metal, Papel, Vidro, Longa Vida, Tubo Dental", "postal_code": "17340000", "address": "Avenida Arthur Balsi, 716"},
{"city": "Campo Grande\u00a0/\u00a0MS", "name": "Ecoplantar", "district": "sao bento", "material": "Pl\u00e1stico, Metal, Papel, Longa Vida", "postal_code": "", "address": "rua manoel cecilio, 780"},
{"city": "S\u00e3o Paulo\u00a0/\u00a0SP", "name": "Esperan\u00e7a", "district": "Pirituba", "material": "Pl\u00e1stico, Metal, Papel, Vidro", "postal_code": "05400-000", "address": "Rua Itamogi, 358"},
{"city": "Lorena\u00a0/\u00a0SP", "name": "Funda\u00e7\u00e3o de Apoio a Pesquisa e Ensino", "district": "Vila Z\u00e9lia", "material": "Pl\u00e1stico, Metal, Pneu, Papel, Pilha, Bateria, Vidro, Longa Vida, Tubo Dental, L\u00e2mpadas, \u00d3leo", "postal_code": "12606001", "address": "Avenida Oswaldo Aranha, 1481"},
{"city": "Manacapur\u00fa\u00a0/\u00a0AM", "name": "Funda\u00e7\u00e2o Reflobosques", "district": "centro", "material": "Pl\u00e1stico, Metal, Pneu, Papel, Vidro, Longa Vida, Tubo Dental, L\u00e2mpadas, Tecido, \u00d3leo, Madeira, Mat\u00e9ria Org\u00e2nica, Borracha", "postal_code": "69400000", "address": "Av.Quintino Bocaiuva 938-B"},
{"city": "Planaltina\u00a0/\u00a0DF", "name": "fundamental- Cooperativa dos Coletores de Res\u00edduos S\u00f3lidos Recicl\u00e1veis", "district": "Buritis IV", "material": "Pl\u00e1stico, Metal, Papel", "postal_code": "73300000", "address": "SRL, Quadra 26 conj  j lt 05"},
{"city": "Viam\u00e3o\u00a0/\u00a0RS", "name": "Grupo Atuante de Mulheres de Itapu\u00e3", "district": "", "material": "Pl\u00e1stico, Metal, Papel, Vidro, Longa Vida", "postal_code": "94750000", "address": "Rua dos Pescadores 360"},
{"city": "Castanheira\u00a0/\u00a0MT", "name": "GUARACI VIEIRA DE BRITO PREF.MUN.CASTANHEIRA MT", "district": "SANTA RITA", "material": "Pl\u00e1stico, Metal, Pneu, Papel, Vidro, Longa Vida, Madeira, Eletr\u00f4nicos, Borracha", "postal_code": "78345000", "address": "AV.CAROLINA REZZIERI N.900"},
{"city": "S\u00e3o Paulo\u00a0/\u00a0SP", "name": "IACE - INSTITUTO DE A\u00c7\u00c3O CULTURAL E ECOL\u00d3GICA", "district": "PIRITUBA", "material": "Pl\u00e1stico, Metal, Papel, Longa Vida, \u00d3leo", "postal_code": "", "address": "AV MUTINGA, 1425"},
{"city": "Duque de Caxias\u00a0/\u00a0RJ", "name": "Instituto Atitude Responsa de Educa\u00e7\u00e3o Ambiental - IAR", "district": "Dr. Laureano", "material": "\u00d3leo", "postal_code": "25000000", "address": "Rua Camurim, 1331"},
{"city": "POTENGI\u00a0/\u00a0CE", "name": "INSTITUTO ATOS (PROJETO ATO VERDE)", "district": "CENTRO", "material": "Pl\u00e1stico, Metal, Papel", "postal_code": "63160000", "address": "RUA MONSENHOR ROCHA, 155"},
{"city": "ARARIPE\u00a0/\u00a0CE", "name": "INSTITUTO ATOS (PROJETO ATO VERDE)", "district": "CENTRO", "material": "Pl\u00e1stico, Metal, Papel", "postal_code": "63170000", "address": "RUA DR. MOACIR DE SOUSA ROCHA, S/N\u00ba"},
{"city": "CAMPOS SALES\u00a0/\u00a0CE", "name": "INSTITUTO ATOS (PROJETO ATO VERDE)", "district": "GUARANI", "material": "Pl\u00e1stico, Metal, Papel", "postal_code": "63150000", "address": "RUA DR. CL\u00d3VIS, 677"},
{"city": "Taubat\u00e9\u00a0/\u00a0SP", "name": "INSTITUTO CIDAD\u00c3O", "district": "Chacara Silvestre", "material": "Pl\u00e1stico, Metal, Pneu, Papel, Pilha, Bateria, Vidro, Longa Vida, Tubo Dental, Tecido, \u00d3leo, Madeira, Mat\u00e9ria Org\u00e2nica, Eletr\u00f4nicos", "postal_code": "12085080", "address": "Rua Isidoro Nogueira Tinoco, 1400"},
{"city": "Palmares\u00a0/\u00a0PE", "name": "Reciclapet - Associa\u00e7\u00e3o de Agentes Ambientais dos Palmares", "district": "Centro", "material": "Pl\u00e1stico, Metal, Papel, Vidro, Longa Vida", "postal_code": "", "address": "Rua Alto da Esta\u00e7\u00e3o, SN"},
{"city": "Arauc\u00e1ria\u00a0/\u00a0PR", "name": "Reciclar Arauc\u00e1ria - Associa\u00e7\u00e3o dos Catadores de Materiais Reciclados", "district": "Tupi", "material": "Pl\u00e1stico, Metal, Papel, Pilha, Bateria, Vidro, Longa Vida", "postal_code": "", "address": "Rua L\u00f3tus, 831"},
{"city": "Aparecida de Goi\u00e2nia\u00a0/\u00a0GO", "name": "Reciclar Reciclagem de Materiais", "district": "Jd Transbrasiliana", "material": "Pl\u00e1stico", "postal_code": "74919416", "address": "BR 153, Q5 Km 11 lt 1/2"},
{"city": "S\u00e3o Paulo\u00a0/\u00a0SP", "name": "Recicl\u00e1zaro", "district": "Butanta", "material": "Pl\u00e1stico, Metal, Papel, Vidro", "postal_code": "05577000", "address": "R. Mariana Belis\u00e1ria Concei\u00e7\u00e3o, 93"},
{"city": "Gravat\u00e1\u00a0/\u00a0PE", "name": "RECICOOP-Cooperativa de Recilagem de Materiais Reaproveit\u00e1veis de Grav", "district": "Arruamento Jardim Jura", "material": "Pl\u00e1stico, Papel", "postal_code": "55641-085", "address": "Rua Primavera, 71"},
{"city": "S\u00e3o Paulo\u00a0/\u00a0SP", "name": "Recifran - Servi\u00e7o Fransciscano de Apoio a Reciclagem", "district": "Glic\u00e9rio", "material": "Pl\u00e1stico, Metal, Papel, Vidro, Longa Vida", "postal_code": "01507-020", "address": "Rua Teixeira Leite, 140"},
{"city": "S\u00e3o Paulo\u00a0/\u00a0SP", "name": "Recifran II", "district": "Glic\u00e9rio", "material": "Pl\u00e1stico, Metal, Papel, Vidro", "postal_code": "", "address": "Rua Junqueira Freire, 176"},
{"city": "Umuarama\u00a0/\u00a0PR", "name": "RECIVALE - Cooperativa Industrial de Reciclagem Vale do Entre Rios Ltd", "district": "Centro", "material": "Pl\u00e1stico, Metal, Papel, Vidro, Longa Vida", "postal_code": "87503460", "address": "Rua Perobal, 4131"},
{"city": "S\u00e3o Leopoldo\u00a0/\u00a0RS", "name": "Recivap Reciclagem de Pl\u00e1sticos", "district": "Centro", "material": "Pl\u00e1stico", "postal_code": "93000000", "address": "Senador Salgado Filho, 662"},
{"city": "Manaus\u00a0/\u00a0AM", "name": "Rede de Catadores e Reciclagem Solid\u00e1ria Eco-Recicla", "district": "Ioreni", "material": "Pl\u00e1stico, Metal, Papel", "postal_code": "", "address": "Av Grande Circular 2, 2350"},
{"city": "Natal\u00a0/\u00a0RN", "name": "Rede Mandacaru RN lixo e Cidadania- educa\u00e7\u00e3o e cultura", "district": "Nsa apresenta\u00e7\u00e3o", "material": "Pl\u00e1stico, Metal, Papel, Bateria, Tecido", "postal_code": "59115050", "address": "rua poeta israel botelho 703 - parque dos coqueiros - natal - rn"},
{"city": "Salvador\u00a0/\u00a0BA", "name": "RENOVE Reciclagem de \u00d3leos Vegetais", "district": "", "material": "\u00d3leo", "postal_code": "", "address": ""},
{"city": "Rio de Janeiro\u00a0/\u00a0RJ", "name": "RIOCOOP - COOPERATIVA DE COLETA SELETIVA E RECICLAGEM DE MATERIAIS", "district": "Bonsucesso", "material": "Pl\u00e1stico, Metal, Papel, Vidro, Longa Vida, Tubo Dental", "postal_code": "21402760", "address": "Rua Dezessete de Fevereiro, 408"},
{"city": "S\u00e3o Paulo\u00a0/\u00a0SP", "name": "S\u00e3o Francisco", "district": "Jardim Vila Carr\u00e3o", "material": "Pl\u00e1stico, Metal, Papel, Bateria, Vidro", "postal_code": "08340-000", "address": "Rua C\u00e2ndido Xavier, S/N"},
{"city": "Americana\u00a0/\u00a0SP", "name": "Sas\u00e1", "district": "Centro", "material": "Pl\u00e1stico, Metal, Papel, Vidro, Longa Vida", "postal_code": "", "address": "Av. Bandeirantes, 2395"},
{"city": "S\u00e3o Paulo\u00a0/\u00a0SP", "name": "Nova Era", "district": "Jaragu\u00e1", "material": "Pl\u00e1stico, Metal, Papel, Vidro, Longa Vida", "postal_code": "05400-000", "address": "Av. Alexil, 48"},
{"city": "S\u00e3o Paulo\u00a0/\u00a0SP", "name": "Nova Esperan\u00e7a", "district": "Vl Jacu\u00ed - S\u00e3o Miguel", "material": "Pl\u00e1stico, Metal, Papel, Vidro, Longa Vida", "postal_code": "", "address": "R. Japichau\u00e1, s/n"},
{"city": "Itarare\u00a0/\u00a0SP", "name": "NOVA ESPERAN\u00c7A - Cooperativa dos Catadores de Materiais Recicl\u00e1veis de", "district": "Ponte Alta", "material": "Pl\u00e1stico, Metal, Pneu, Papel, Vidro, Longa Vida, Tubo Dental, L\u00e2mpadas, Eletr\u00f4nicos, Borracha", "postal_code": "18460000", "address": "Rodovia dos Ma\u00e7ons, s/n"},
{"city": "Nova Prata\u00a0/\u00a0RS", "name": "Novo Tempo Coleta de Materiais para Reciclagem Ltda", "district": "S\u00e3o Crist\u00f3v\u00e3o", "material": "Pl\u00e1stico, Metal, Pneu, Papel, Pilha, Bateria, Vidro, Longa Vida, Tubo Dental, Tinta, L\u00e2mpadas, Tecido, \u00d3leo, Madeira, Eletr\u00f4nicos, Borracha", "postal_code": "95320000", "address": "Avenida Presidente Vargas, 2089"},
{"city": "Carapicuiba\u00a0/\u00a0SP", "name": "Nucleo de Reciclagem cidade Ariston", "district": "Cidade Ariston", "material": "Pl\u00e1stico, Metal, Papel, Vidro", "postal_code": "06396000", "address": "Av Comendador Dante Carrarro, 3330"},
{"city": "S\u00e3o Paulo\u00a0/\u00a0SP", "name": "N\u00facleo de Reciclagem Tiquatira", "district": "penha", "material": "Pl\u00e1stico, Metal, Papel, Vidro, Longa Vida", "postal_code": "03704000", "address": "Rua kampala"},
{"city": "Nova Serrana\u00a0/\u00a0MG", "name": "OLIVEIRA COMERCIO E DISTRIBUI\u00c7\u00c3O LTDA", "district": "JARDINS DO LAGO", "material": "Papel", "postal_code": "35519000", "address": "RUA ANTONIO ARAUJO 745"},
{"city": "Joinville\u00a0/\u00a0SC", "name": "ONG AMBIVERDE", "district": "IRIRU", "material": "Pl\u00e1stico, Papel, Pilha, Bateria, Vidro, Longa Vida, L\u00e2mpadas, \u00d3leo, Eletr\u00f4nicos", "postal_code": "89227160", "address": "SALTO VELOSO 385"},
{"city": "Bras\u00f3polis\u00a0/\u00a0MG", "name": "ONG Grupo Dispersores", "district": "Centro", "material": "Pl\u00e1stico, Metal, Pneu, Papel, Pilha, Bateria, Vidro, Longa Vida, Tubo Dental, L\u00e2mpadas, Tecido, \u00d3leo, Mat\u00e9ria Org\u00e2nica, Eletr\u00f4nicos, Borracha", "postal_code": "37530000", "address": "Rua Silvestre Ferraz, 245"},
{"city": "Itanha\u00e9m\u00a0/\u00a0SP", "name": "ONG Reciclando A Favor da Vida", "district": "Jd. Iber\u00e1", "material": "Pl\u00e1stico, Metal, Papel, Vidro, Longa Vida, Tubo Dental, Tecido, \u00d3leo, Eletr\u00f4nicos", "postal_code": "11740000", "address": "R Papa Jo\u00e3o Paulo II - 82"},
{"city": "Nossa Senhora do Socorro\u00a0/\u00a0SE", "name": "ONG Vidarte", "district": "tai\u00e7oca", "material": "Pl\u00e1stico, Metal, Papel, Bateria, Vidro, Eletr\u00f4nicos", "postal_code": "49160000", "address": "Av coletora A"},
{"city": "S\u00e3o Paulo\u00a0/\u00a0SP", "name": "Oportunidade Solid\u00e1ria", "district": "Jardim Felicidade", "material": "Pl\u00e1stico, Metal, Papel, Bateria, Vidro", "postal_code": "02000-000", "address": "Rua Prata16"},
{"city": "S\u00e3o Paulo\u00a0/\u00a0SP", "name": "OXIGENIO DESENVOLVIMENTO DE POLITICAS PUBLICAS E SOCIAIS", "district": "Jd. Paulista", "material": "\u00d3leo", "postal_code": "01433000", "address": "Esperia, 30"},
{"city": "Uberl\u00e2ndia\u00a0/\u00a0MG", "name": "PAPELCAF COMERCIO DE PAPEL", "district": "MARTA HELENA", "material": "Pl\u00e1stico, Papel, Longa Vida", "postal_code": "38402034", "address": "R MARIA QUITERIA 31"},
{"city": "S\u00e3o Paulo\u00a0/\u00a0SP", "name": "Plast Sul Ind\u00fastria  e Com\u00e9rcio de Artefatos Pl\u00e1sticos Ltda", "district": "V. Liviero", "material": "Pl\u00e1stico", "postal_code": "04185000", "address": "Rua Giuseppe Arcimboldo, 57"},
{"city": "Vilhena\u00a0/\u00a0RO", "name": "COOPRERON - Cooperativa de Reciclagem do Estado de Rond\u00f4nia", "district": "Marcos Freire", "material": "Pl\u00e1stico, Metal, Pneu, Papel, Pilha, Bateria, Vidro, Longa Vida, Tubo Dental, \u00d3leo, Madeira, Mat\u00e9ria Org\u00e2nica, Eletr\u00f4nicos, Borracha", "postal_code": "78995000", "address": "Av. Tancredo Neves, n\u00ba 1.851"},
{"city": "S\u00e3o Luis\u00a0/\u00a0MA", "name": "COOPRESL- Cooperativa de Reciclagem de S\u00e3o Luiz", "district": "Anjo da Guarda", "material": "Pl\u00e1stico, Metal, Pneu, Papel, Pilha, Bateria, Vidro, Longa Vida", "postal_code": "68058-000", "address": "Travessa 29, 50"},
{"city": "Rio de Janeiro\u00a0/\u00a0RJ", "name": "Cooptramar\u00e9 Cooperativa dosTrabalhadores do Complexo da Mar\u00e9", "district": "Centro", "material": "Pl\u00e1stico, Metal, Papel, Vidro, Longa Vida", "postal_code": "", "address": "Av. Rio Branco, 43 18\u00b0 andar"},
{"city": "Igarassu\u00a0/\u00a0PE", "name": "COOPTRASGI- Cooperativa de Trabalho e Presta\u00e7\u00e3o de Servi\u00e7os de Igarass", "district": "Cruz de Rebou\u00e7as", "material": "Pl\u00e1stico, Metal, Papel, Vidro, Longa Vida, Tubo Dental", "postal_code": "53630807", "address": "Rua Cautanga, 30 lote bomfim I"},
{"city": "Macei\u00f3\u00a0/\u00a0AL", "name": "COOPVILA", "district": "Jacarecica", "material": "Pl\u00e1stico, Metal, Papel, Vidro, Longa Vida, \u00d3leo", "postal_code": "57044130", "address": "Rua do Livramento S/N \u2013 Vila Emater II"},
{"city": "Colombo\u00a0/\u00a0PR", "name": "COOPZUMBI - Cooperativa de Catadores Zumbi dos Palmares", "district": "Centro Industrial", "material": "Pl\u00e1stico, Metal, Papel", "postal_code": "", "address": "R. Shirlei Boeira Souto, 35 A-B"},
{"city": "Salto\u00a0/\u00a0SP", "name": "Coorbes - Cooperativa de Reciclagem Boa Esperan\u00e7a de Salto", "district": "Olaria", "material": "Pl\u00e1stico, Metal, Papel, Vidro, Longa Vida, \u00d3leo", "postal_code": "13329600", "address": "Av. tranquillo Gianine, 15"},
{"city": "Ouro Fino\u00a0/\u00a0MG", "name": "COORECICLA - Cooperativa dos Trabalhadores em Coleta de Material Recic", "district": "Varzea", "material": "Pl\u00e1stico, Metal, Papel, Vidro", "postal_code": "37570000", "address": "Rua Caetano Vitor,184"},
{"city": "Pelotas\u00a0/\u00a0RS", "name": "cooreciclo", "district": "centro", "material": "Pl\u00e1stico, Metal, Papel, Bateria, Vidro, Longa Vida, L\u00e2mpadas, Madeira", "postal_code": "96010630", "address": "rua uruguai 2070"},
{"city": "S\u00e3o Bento do Una\u00a0/\u00a0PE", "name": "Coores - Cooperativa de Reciclagem S\u00e3o Bento do Una", "district": "Centro", "material": "Pl\u00e1stico, Metal, Papel, Vidro, Longa Vida", "postal_code": "55370000", "address": "Rua Doutor Jo\u00e3o Valen\u00e7a, 128"},
{"city": "S\u00e3o Paulo\u00a0/\u00a0SP", "name": "COORPEL", "district": "Luz", "material": "Pl\u00e1stico, Metal, Papel, Bateria, Vidro", "postal_code": "01130-000", "address": "Rua 25 de Janeiro, 170"},
{"city": "S\u00e3o Sebasti\u00e3o do Pass\u00e9\u00a0/\u00a0BA", "name": "COOTALIMP - COOPERATIVA DE TRABALHADORES AUT\u00d4NOMOS EM LIMPEZA E MANUTE", "district": "centro", "material": "Pl\u00e1stico, Metal, Papel, Vidro", "postal_code": "43850000", "address": "R. Artur Salustiano, 113"},
{"city": "Rio de Janeiro\u00a0/\u00a0RJ", "name": "COOTRACOM- Cooperativa de Trabalhos Comunit\u00e1rios do Rio de Janeiro", "district": "Mendanha", "material": "Pl\u00e1stico, Papel, Vidro, Longa Vida", "postal_code": "23097-200", "address": "Estrada do Guandu, 1122"},
{"city": "S\u00e3o Paulo\u00a0/\u00a0SP", "name": "Coper Recifavela (Coop. de Catadores Seletivos e Reciclagem da Favela)", "district": "vila prudente", "material": "Pl\u00e1stico, Papel, Vidro", "postal_code": "031260001", "address": "rua"},
{"city": "S\u00e3o Leopoldo\u00a0/\u00a0RS", "name": "Coper Recycle", "district": "Campina", "material": "Pl\u00e1stico, Metal, Papel, Bateria, Vidro, Longa Vida", "postal_code": "93130-370", "address": "Rua Ferrabraz, 418"},
{"city": "Chapec\u00f3\u00a0/\u00a0SC", "name": "Programa Verde Vida", "district": "Maria Goreti", "material": "Pl\u00e1stico, Metal, Papel, Vidro, Longa Vida", "postal_code": "89807201", "address": "R Mal Floriano Peixoto , 2151L"},
{"city": "S\u00e3o Paulo\u00a0/\u00a0SP", "name": "Projeto Boracea", "district": "Bom Retiro", "material": "Pl\u00e1stico, Metal, Papel, Vidro, Longa Vida, Tubo Dental", "postal_code": "01137010", "address": "Rua Norma Piecucini Gianotti,77"},
{"city": "S\u00e3o Paulo\u00a0/\u00a0SP", "name": "Projeto Cara Limpa", "district": "Santo Amaro", "material": "Pl\u00e1stico, Papel, Vidro, Longa Vida, Tubo Dental, Tecido", "postal_code": "03664040", "address": "Travessa Maestro Massaino,112"},
{"city": "Jequi\u00e9\u00a0/\u00a0BA", "name": "Projeto Cidade Limpa", "district": "jequiezinho", "material": "Pl\u00e1stico, Metal, Pneu, Papel, Pilha, Bateria, Vidro, \u00d3leo, Eletr\u00f4nicos", "postal_code": "45200000", "address": "av vav\u00e1 lomanto 40"},
{"city": "Rio de Janeiro\u00a0/\u00a0RJ", "name": "PROJETO S\u00d3CIO - EDUCACIONAL E CULTURAL M\u00c3OS AMIGAS", "district": "RAMOS", "material": "Pl\u00e1stico, Metal, Papel, Longa Vida", "postal_code": "21040090", "address": "RUA SIRIEMA N. 23 -LJ -A"},
{"city": "S\u00e3o Paulo\u00a0/\u00a0SP", "name": "PROJETO VIT\u00d3RIA!", "district": "Parque Vit\u00f3ria", "material": "Pl\u00e1stico, Metal, Papel, Vidro", "postal_code": "02269050", "address": "Rua Candirua\u00e7u, s/n"},
{"city": "Araguaina\u00a0/\u00a0TO", "name": "Rainha da Sucata", "district": "Nova Araguaina", "material": "Pl\u00e1stico, Metal, Papel, Bateria, Vidro, Longa Vida", "postal_code": "", "address": "Rua 01, quadra 04, lote 09"},
{"city": "Marica\u00a0/\u00a0RJ", "name": "RDSCOOP LTDA", "district": "PONTA NEGRA", "material": "Pl\u00e1stico, Metal, Pneu, Papel, Pilha, Bateria, Longa Vida, Tubo Dental, Tinta, L\u00e2mpadas, Tecido, \u00d3leo, Madeira, Mat\u00e9ria Org\u00e2nica, Eletr\u00f4nicos, Borracha", "postal_code": "24900000", "address": "RUA 125 L5 Q 173"},
{"city": "Paty do Alf\u00e9res\u00a0/\u00a0RJ", "name": "Re Viva Paty", "district": "Centro", "material": "Pl\u00e1stico, Metal, Pneu, Papel, Pilha, Bateria, Vidro, Longa Vida, Tubo Dental, Tinta, L\u00e2mpadas, \u00d3leo, Madeira, Mat\u00e9ria Org\u00e2nica, Eletr\u00f4nicos, Borracha", "postal_code": "26950000", "address": "R.Coronel Manoel Bernades n\u00b0 409"},
{"city": "S\u00e3o Paulo\u00a0/\u00a0SP", "name": "Recibrasil Reciclagem Comercial", "district": "Interlagos", "material": "Papel", "postal_code": "04803090", "address": "Rua Fort George, 244"},
{"city": "Leme\u00a0/\u00a0SP", "name": "Recicla Leme", "district": "Vl Joeste", "material": "Pl\u00e1stico, Metal, Papel, Vidro, Longa Vida, \u00d3leo", "postal_code": "13610000", "address": "R. Antonio Delai, 26"},
{"city": "Jequi\u00e9\u00a0/\u00a0BA", "name": "Reciclaa\u00e7\u00e3o(programa de coleta seletiva)", "district": "jequiezinho", "material": "Pl\u00e1stico, Metal, Papel, Bateria, Vidro", "postal_code": "45200000", "address": "av. vav\u00e1 lomanto 40"},
{"city": "S\u00e3o Paulo\u00a0/\u00a0SP", "name": "Recicla\u00e7\u00e3o", "district": "Tremeb\u00e9", "material": "Pl\u00e1stico, Metal, Papel, Bateria, Vidro", "postal_code": "02357-120", "address": "Rua Capit\u00e3o Jos\u00e9 Aguirre de Camargo, 400"},
{"city": "maracas\u00a0/\u00a0BA", "name": "RECICLAMAR  cooperativa dos catadores de materiais reciclaveis de mara", "district": "logoa comprida", "material": "Metal, Pneu, Papel, Pilha, Bateria, Longa Vida, Tubo Dental, \u00d3leo, Eletr\u00f4nicos", "postal_code": "45360000", "address": "estrada do cruzeiro km 05"},
{"city": "S\u00e3o Paulo\u00a0/\u00a0SP", "name": "Reciclando Esperan\u00e7a", "district": "Jardim Elba", "material": "Pl\u00e1stico, Metal, Papel, Vidro", "postal_code": "03077-000", "address": "Rua Cust\u00f3dio Cardoso, 19"},
{"city": "Santiago\u00a0/\u00a0RS", "name": "COOPERS LTDA", "district": "Centro", "material": "Pl\u00e1stico, Metal, Papel, Vidro, Longa Vida, Tubo Dental", "postal_code": "97700000", "address": "Rua Bar\u00e3o do Rio Branco, 628"},
{"city": "ilha solteira\u00a0/\u00a0SP", "name": "Cooperseli", "district": "distrito industrial", "material": "Pl\u00e1stico, Metal, Papel, Vidro, Longa Vida, L\u00e2mpadas, \u00d3leo", "postal_code": "15385000", "address": "marginal da torre de tv"},
{"city": "LINS\u00a0/\u00a0SP", "name": "COOPERSOL", "district": "", "material": "Pl\u00e1stico, Metal, Papel, Vidro, Longa Vida, \u00d3leo", "postal_code": "16400000", "address": "ESTRADA LIN 80"},
{"city": "Belo Horizonte\u00a0/\u00a0MG", "name": "COOPERSOLI- Cooperativa Solid\u00e1ria dos Recicladores e Grupos Produtivos", "district": "Jatob\u00e1 4", "material": "Pl\u00e1stico, Metal, Papel, Vidro, Longa Vida", "postal_code": "30664-750", "address": "Rua Lacyr Maffia, 161"},
{"city": "ITANHA\u00c9M\u00a0/\u00a0SP", "name": "COOPERSOLRECICLANDO", "district": "JD. BOPIRANGA", "material": "Pl\u00e1stico, Metal, Pneu, Papel, Pilha, Bateria, Vidro, Longa Vida, Tubo Dental, L\u00e2mpadas, Tecido, \u00d3leo, Eletr\u00f4nicos", "postal_code": "11740000", "address": "RUA ISABEL MENEZES HANGAI 35"},
{"city": "Nova Odessa\u00a0/\u00a0SP", "name": "Coopersonhos", "district": "Jardim Concei\u00e7\u00e3o", "material": "Pl\u00e1stico, Metal, Papel, Vidro, Longa Vida", "postal_code": "", "address": "R. 06, 102"},
{"city": "SALVADOR\u00a0/\u00a0BA", "name": "COOPERSSF - COOPERATIVA DE RECICLAGEM E SERVI\u00c7OS DO SUB\u00daRBIO FERROVI\u00c1R", "district": "ILHA AMARELA", "material": "Pl\u00e1stico, Metal, Pneu, Papel, Vidro, Longa Vida, Tecido, Mat\u00e9ria Org\u00e2nica", "postal_code": "40715290", "address": "RUA BOA ESPERAN\u00c7A DE ILHA AMARELA N/O 84"},
{"city": "Rio de Janeiro\u00a0/\u00a0RJ", "name": "COOPERSUL - Humait\u00e1", "district": "Humait\u00e1", "material": "Pl\u00e1stico, Metal, Papel, Vidro, Longa Vida", "postal_code": "22471-330", "address": "Rua Frei Veloso, s/n"},
{"city": "S\u00e3o Sebasti\u00e3o\u00a0/\u00a0SP", "name": "COOPERSUSS Coop. Triagem Sucata Uni\u00e3o de S\u00e3o Sebasti\u00e3o", "district": "", "material": "Pl\u00e1stico, Metal, Papel, Vidro, Longa Vida", "postal_code": "", "address": "Av Remo Corr\u00eaa da Silva, 1745"},
{"city": "Ita\u00fana\u00a0/\u00a0MG", "name": "COOPERT - Cooperativa de Reciclagem e Trabalho de Itauna ltda", "district": "Pq. Jardim", "material": "Pl\u00e1stico, Metal, Pneu, Papel, Bateria, Vidro, Madeira, Eletr\u00f4nicos, Borracha", "postal_code": "35608100", "address": "Av. Jo\u00e3o Moureira de Carvalho, 1460"},
{"city": "Caic\u00f3\u00a0/\u00a0RN", "name": "Coopertiva de Reciclagem de Lixo e Derivados do Serid\u00f3", "district": "Centro", "material": "Pl\u00e1stico, Metal, Papel, Vidro, Longa Vida, Tubo Dental", "postal_code": "59300000", "address": "P\u00e7a. Monsenhor Walfredo Gurgel, 67"},
{"city": "S\u00e3o Paulo\u00a0/\u00a0SP", "name": "Cooperuni\u00e3o", "district": "Vila Carmosina", "material": "Pl\u00e1stico, Metal, Papel, Vidro", "postal_code": "02000-000", "address": "Rua S\u00e3o F\u00e9liz do Piau\u00ed, 1221"},
{"city": "S\u00e3o Carlos\u00a0/\u00a0SP", "name": "Coopervida", "district": "Nova Est\u00e2ncia", "material": "Pl\u00e1stico, Metal, Papel", "postal_code": "13572-000", "address": "Rua El Salvador, 65"},
{"city": "Praia Grande\u00a0/\u00a0SP", "name": "Coopervida", "district": "Jd S\u00e3o Miguel", "material": "Pl\u00e1stico, Metal, Papel, Pilha, Vidro, Longa Vida, \u00d3leo, Eletr\u00f4nicos", "postal_code": "", "address": "Av dos Trabalhadores, 2300"},
{"city": "Mogi Mirim\u00a0/\u00a0SP", "name": "COOPERVIDA - Cooperativa de Trabalho Vida Nova de Mogi Mirim", "district": "Mirante", "material": "Pl\u00e1stico, Metal, Papel", "postal_code": "13800165", "address": "Pra\u00e7a Itapira, 125"},
{"city": "Ituiutaba\u00a0/\u00a0MG", "name": "Copercicla - Coop. Catadores Mat. Recicl\u00e1vel de Ituiutaba", "district": "Progresso", "material": "Pl\u00e1stico, Metal, Papel, Vidro", "postal_code": "38300152", "address": "Av 7, 634"},
{"city": "Santa Cec\u00edlia do Sul\u00a0/\u00a0RS", "name": "COPERCICLA - Cooperativa dos Recicladores de Res\u00edduos Org\u00e2nicos e Inor", "district": "Interior", "material": "Pl\u00e1stico, Metal, Papel, Pilha, Bateria, Vidro, Longa Vida, L\u00e2mpadas, \u00d3leo, Mat\u00e9ria Org\u00e2nica", "postal_code": "99952000", "address": "Estrada Geral, S/N"},
{"city": "PERUIBE\u00a0/\u00a0SP", "name": "COPP - CENTRO DE ORIENTA\u00c7\u00c3O PROFISSIONAL E PEDAGOGICO", "district": "JD DOS PRADOS", "material": "Pl\u00e1stico, Metal, Papel, Vidro, Longa Vida, Borracha", "postal_code": "11750000", "address": "AV. TRES, 381"},
{"city": "Alagoinhas\u00a0/\u00a0BA", "name": "CORAL- Cooperativa de catadores e Recicladores de Alagoinhas", "district": "Centro", "material": "Pl\u00e1stico, Metal, Papel", "postal_code": "48010140", "address": "J.J.Seabra s/n\u00ba"},
{"city": "Sorocaba\u00a0/\u00a0SP", "name": "CORESO - Cooperativa de Reciclagem de Sorocaba", "district": "", "material": "Pl\u00e1stico, Metal, Papel, Vidro, Longa Vida", "postal_code": "", "address": "Rua S\u00e3o Bento, 190 sala 64"},
{"city": "Pelotas\u00a0/\u00a0RS", "name": "Correciclo - Cooperativa de Reciclagem", "district": "Fragata", "material": "Pl\u00e1stico, Metal, Papel, Vidro, Longa Vida, Tubo Dental", "postal_code": "96025060", "address": "Rua Clovis Bevilaqua , 107"},
{"city": "Sert\u00e3ozinho\u00a0/\u00a0SP", "name": "CORSERTA - Cooperativa dos Recicladores de Sert\u00e3ozinho", "district": "jd Alvorada", "material": "Pl\u00e1stico, Metal, Papel, Bateria, Vidro, Longa Vida, Tubo Dental, \u00d3leo", "postal_code": "14160000", "address": "Rua Vol. Otto Gomes Martins, 715"},
{"city": "Bras\u00edlia\u00a0/\u00a0DF", "name": "CORTRAP - Cooperativa de Reciclagem Trabalho e Produ\u00e7\u00e3o", "district": "Vila Estrutural", "material": "Pl\u00e1stico, Metal, Papel, Vidro, Longa Vida", "postal_code": "71771140", "address": "QN 14-D, (terreno GDF)"},
{"city": "Mar\u00edlia\u00a0/\u00a0SP", "name": "COTRACIL - Cooperativa de Trabalho Cidade Limpa", "district": "Monsenhor Toffoli", "material": "Pl\u00e1stico, Metal, Papel, Vidro, Longa Vida", "postal_code": "17522140", "address": "Rua Arlindo Jota s/n\u00ba"},
{"city": "Araquari\u00a0/\u00a0SC", "name": "COTRAECO - Cooperativa de Trabalho dos Agentes ecol\u00f3gicos de Araquari", "district": "Porto Grande", "material": "Pl\u00e1stico, Metal, Papel, Pilha, Bateria, Vidro, Longa Vida", "postal_code": "89245000", "address": "Rod. BR 280 km 29 Caixa postal 13"},
{"city": "Guarapari\u00a0/\u00a0ES", "name": "COTRAG - Cooperativa de Trabalho de Reciclagem, Limpeza e Conserva\u00e7\u00e3o", "district": "Centro", "material": "Pl\u00e1stico, Metal, Papel, Longa Vida", "postal_code": "29200-600", "address": "Rua Zuleima Fortes Farias, 133"},
{"city": "Campina Grande\u00a0/\u00a0PB", "name": "COTRAMARE - Cooperativa de Trabalhadores de Materiais Recicl\u00e1veis", "district": "Jardim Quarenta", "material": "Pl\u00e1stico, Metal, Papel, Vidro, Longa Vida, \u00d3leo, Eletr\u00f4nicos", "postal_code": "58107015", "address": "R. Santa Rita, 486"},
{"city": "Suzano\u00a0/\u00a0SP", "name": "Coures - Cooperativa de Suzano", "district": "Vila Urupes", "material": "Pl\u00e1stico, Metal, Pneu, Papel, Pilha, Vidro, Longa Vida, Tubo Dental, Tinta, L\u00e2mpadas, Tecido, \u00d3leo, Madeira, Mat\u00e9ria Org\u00e2nica, Eletr\u00f4nicos, Borracha", "postal_code": "08615190", "address": "Rua Caboclos, n\u00ba490"},
{"city": "Po\u00e1\u00a0/\u00a0SP", "name": "CRUMA - Cooperativa de Reciclagem Unidos pelo Meio Ambiente", "district": "Vila Varela", "material": "Pl\u00e1stico, Metal, Papel, Vidro, Longa Vida", "postal_code": "08558-210", "address": "Rua Osvaldo Teixeira , 151"},
{"city": "S\u00e3o Paulo\u00a0/\u00a0SP", "name": "ECCOPLAS", "district": "MOOCA", "material": "Pl\u00e1stico", "postal_code": "03164300", "address": "Rua Visconde de Parna\u00edba, 1591 cj. 181-B"},
{"city": "Santo Ant\u00f4nio do Aracangu\u00e1\u00a0/\u00a0SP", "name": "COOPERECICLASAA", "district": "", "material": "Pl\u00e1stico, Metal, Papel, Vidro, Longa Vida", "postal_code": "", "address": "R. Pio Prado, 259"},
{"city": "Barueri\u00a0/\u00a0SP", "name": "Coopereco", "district": "Aldeia de Barueri", "material": "Pl\u00e1stico, Metal, Papel, Vidro, Longa Vida", "postal_code": "06440030", "address": "Av Guilherme Rohn, 608"},
{"city": "Gravat\u00e1\u00a0/\u00a0PE", "name": "Coopereg-Cooperativa de Reciclagem Gravat\u00e1", "district": "Novo Gravat\u00e1", "material": "Papel", "postal_code": "55644000", "address": "Av. C\u00edcero Batista de Oliveira,2346-B"},
{"city": "S\u00e3o Leopoldo\u00a0/\u00a0RS", "name": "COOPERES\u00cdDUOS", "district": "Vila Santa Marta", "material": "Pl\u00e1stico, Metal, Papel, Bateria, Longa Vida", "postal_code": "93046-680", "address": "Rua Dois, 80"},
{"city": "Porto alegre\u00a0/\u00a0RS", "name": "cooperetiva ambiental e distribui\u00e7\u00e3o de servi\u00e7os comunitarios", "district": "navegantes", "material": "Pl\u00e1stico, Metal, Papel, Vidro, Longa Vida", "postal_code": "90250610", "address": "diretriz 600,numero 113"},
{"city": "Itaja\u00ed\u00a0/\u00a0SC", "name": "COOPERFOZ - Cooperativa dos Coletores de Material Recicl\u00e1vel da Foz do", "district": "Bombeiros", "material": "Pl\u00e1stico, Metal, Papel, Bateria, Vidro, Longa Vida", "postal_code": "88301-240", "address": "Av. Doutor Reinaldo Schmithausen, 239"},
{"city": "Rio de Janeiro\u00a0/\u00a0RJ", "name": "COOPERGRAMACHO", "district": "Monte Castelo", "material": "Pl\u00e1stico, Metal, Papel, Pilha, Bateria, Vidro, Longa Vida", "postal_code": "21660-355", "address": "Av . Tocantins s/n"},
{"city": "Americana\u00a0/\u00a0SP", "name": "Coopergramado", "district": "Jd. Basanelli", "material": "Pl\u00e1stico, Metal, Papel, Vidro, Longa Vida", "postal_code": "", "address": "Rua Mon. Senhor Bruno Nardini, 1131"},
{"city": "Itapema\u00a0/\u00a0SC", "name": "COOPERITAPEMA", "district": "294", "material": "Pl\u00e1stico, Metal, Papel, Pilha, Bateria, Vidro, Longa Vida, Tubo Dental, \u00d3leo, Eletr\u00f4nicos", "postal_code": "88220000", "address": "RUA 466"},
{"city": "Jequi\u00e9\u00a0/\u00a0BA", "name": "COOPERJE - Cooperativa de Catadores Recicla Jequi\u00e9", "district": "Vila Sui\u00e7a", "material": "Pl\u00e1stico, Metal, Pneu, Papel, Pilha, Vidro, Longa Vida, Tubo Dental, L\u00e2mpadas, Eletr\u00f4nicos, Borracha", "postal_code": "45206120", "address": "BR 116, KM 6"},
{"city": "S\u00e3o Jos\u00e9 do Rio Preto\u00a0/\u00a0SP", "name": "Cooperlagos", "district": "Pq Industrial", "material": "Pl\u00e1stico, Metal, Papel, Longa Vida, Tinta, \u00d3leo, Eletr\u00f4nicos", "postal_code": "", "address": "Av Cenobelino de Barros Serra"},
{"city": "XINGUARA\u00a0/\u00a0PA", "name": "cooperlimpa", "district": "MARAJOARA   I", "material": "Pl\u00e1stico, Metal, Pneu, Papel, Pilha, Bateria, Vidro, Longa Vida, L\u00e2mpadas, Tecido, Madeira, Eletr\u00f4nicos, Borracha", "postal_code": "68555000", "address": "RUA BAR\u00c3O DO RIO BRANCO, 914"},
{"city": "Bebedouro\u00a0/\u00a0SP", "name": "COOPERLIMPO - COOPERATIVA DOS COLETORES DE MATERIAIS RECICLAVEIS DE BE", "district": "SUMAR\u00c9", "material": "Pl\u00e1stico, Metal, Pneu, Papel, Bateria, Vidro, Longa Vida, Tubo Dental, \u00d3leo, Madeira, Eletr\u00f4nicos, Borracha", "postal_code": "14702008", "address": "AV. MARGINAL, 1820 - PARQUE DE EXPOSI\u00c7\u00d5ES FECCIB NOVA"},
{"city": "Paul\u00ednia\u00a0/\u00a0SP", "name": "COOPERL\u00cdNIA AMBIENTAL DO BRASIL", "district": "Jd Calegari", "material": "Pl\u00e1stico, Metal, Papel, Vidro, Longa Vida, Madeira", "postal_code": "1314000", "address": "Rua Maria das Dores Leal de Queiroz, 398 - fundos - Jd. Calegari"},
{"city": "Americana\u00a0/\u00a0SP", "name": "COOPERL\u00cdRIOS", "district": "Jd. dos L\u00edrios", "material": "Pl\u00e1stico, Metal, Papel, Vidro, Longa Vida", "postal_code": "", "address": "Rua Pica-Pau, 563"},
{"city": "Presidente Prudente\u00a0/\u00a0SP", "name": "COOPERLIX - Cooperativa de Trabalhadores de Produtos Recicl\u00e1veis de Pr", "district": "Distrito Industrial", "material": "Pl\u00e1stico, Metal, Papel, Vidro, Longa Vida, \u00d3leo", "postal_code": "", "address": "Travessa Tr\u00eas, S/N"},
{"city": "Presidente Prudente\u00a0/\u00a0SP", "name": "COOPERLIX-Cooperativa dos Trabalhadores de Produtos Reciclaveis de Pre", "district": "Distrito Industrial", "material": "Pl\u00e1stico, Metal, Papel, Vidro, Longa Vida, \u00d3leo, Borracha", "postal_code": "", "address": "Rua Mariano Arenales Benito, s/n\u00ba"},
{"city": "orlandia\u00a0/\u00a0SP", "name": "cooperlol", "district": "jardim boa vista", "material": "Pl\u00e1stico, Metal, Papel, Bateria, Vidro, Longa Vida, \u00d3leo, Eletr\u00f4nicos", "postal_code": "14620000", "address": "avenida h 338"},
{"city": "S\u00e3o paulo\u00a0/\u00a0SP", "name": "COOPERLSTE-Central de Produ\u00e7\u00e3o Coleta Triagem e Beneficiamento de Mate", "district": "Jd. 9 de Julho", "material": "Pl\u00e1stico, Metal, Papel, Pilha, Bateria, Vidro, Longa Vida, Tubo Dental, Tinta, \u00d3leo, Eletr\u00f4nicos, Borracha", "postal_code": "03951000", "address": "Estrada da Fazenda do Carmo, 450"},
{"city": "Mau\u00e1\u00a0/\u00a0SP", "name": "COOPERMA Cooperativa Autonoma de Mau\u00e1", "district": "Vila Carlina, Polo Industrial de Sert\u00e3ozinho", "material": "Pl\u00e1stico, Metal, Papel, Vidro, Longa Vida", "postal_code": "19370-826", "address": "Rua Edson Erasmo da Silva, 45"},
{"city": "Embu das Artes\u00a0/\u00a0SP", "name": "COOPERMAPE - Cooperativa de Reciclagem de Materia Prima de Embu", "district": "Chapada", "material": "Pl\u00e1stico, Metal, Papel, Vidro, Longa Vida, Tubo Dental", "postal_code": "06835520", "address": "Estrada da Cooperativa, 795"},
{"city": "S\u00e3o Jo\u00e3o da Boa Vista\u00a0/\u00a0SP", "name": "Coopermax-Cooperativa depresta\u00e7\u00e3o de Servi\u00e7os e Produ\u00e7\u00e3o de Materiais", "district": "Distrito Industrial 2", "material": "Pl\u00e1stico, Papel, Vidro, Longa Vida", "postal_code": "18877767", "address": "Rua Adorvando Jos\u00e9 Valim 365"},
{"city": "S\u00e3o Paulo\u00a0/\u00a0SP", "name": "COOPERMITI - Cooperativa de Res\u00edduos S\u00f3lidos Eletro-Eletr\u00f4nicos", "district": "Barra Funda", "material": "Eletr\u00f4nicos", "postal_code": "01153010", "address": "Rua Dr. S\u00e9rgio Meira, 268 / 280"},
{"city": "Osasco\u00a0/\u00a0SP", "name": "COOPERMUNDI - Cooperativa de catadores preservando o mundo", "district": "Jd. Iguassu", "material": "Pl\u00e1stico, Metal, Papel, Vidro, Longa Vida, \u00d3leo", "postal_code": "06160385", "address": "R. Alfredo Benicasa, s/n\u00b0"},
{"city": "Osasco\u00a0/\u00a0SP", "name": "COOPERNATUZ - Cooperativa de catadores cooperando com a natureza", "district": "Parque Industrial Anhanguera", "material": "Pl\u00e1stico, Metal, Papel, Vidro, Longa Vida", "postal_code": "06276045", "address": "R. Henkel, 80"},
{"city": "S\u00e3o Paulo\u00a0/\u00a0SP", "name": "COOPERNATUZ - Cooperativa de catadores preservando a natureza", "district": "Jd.Industrial Anhanguera", "material": "Pl\u00e1stico, Metal, Papel, Vidro, Longa Vida, \u00d3leo", "postal_code": "06276045", "address": "R. Henkel, 80"},
{"city": "Rio de Janeiro\u00a0/\u00a0RJ", "name": "Coopernorte - Sampaio", "district": "Sampaio", "material": "Pl\u00e1stico, Metal, Papel, Vidro, Longa Vida", "postal_code": "20950-004", "address": "Av. Marechal Rondon, 2204"},
{"city": "Salvador\u00a0/\u00a0BA", "name": "Cooperpaz-Cooperativa de catadores de reciclagem de res\u00edduos s\u00f3lidos e", "district": "da Paz", "material": "Pl\u00e1stico, Metal, Pneu, Papel, Longa Vida, \u00d3leo, Madeira, Borracha", "postal_code": "41515235", "address": "Quinta travessa da Felicidade, n\u00famero 1."},
{"city": "S\u00e3o Paulo\u00a0/\u00a0SP", "name": "CooperPenha Ambiental", "district": "Vila Silvia", "material": "Pl\u00e1stico, Metal, Papel, Pilha, Bateria, Vidro, Longa Vida, \u00d3leo", "postal_code": "03820290", "address": "R. Lagoa de Dentro, 170"},
{"city": "Morro do Chapeu\u00a0/\u00a0BA", "name": "Cooperr", "district": "s\u00e3o vicente", "material": "Pl\u00e1stico, Metal, Pneu, Papel, Bateria, Vidro, Mat\u00e9ria Org\u00e2nica", "postal_code": "44850000", "address": "jos\u00e9 marcelino s/n"},
{"city": "Votuporanga\u00a0/\u00a0SP", "name": "Coopervinte-Cooperativa de Catadores de Materiais Recicl\u00e1veis de Votup", "district": "S\u00e3o Jo\u00e3o", "material": "Pl\u00e1stico, Metal, Papel, Pilha, Bateria, Vidro, Tubo Dental, \u00d3leo, Eletr\u00f4nicos", "postal_code": "15501213", "address": "Thomas Paes da Cunha Filho"},
{"city": "VOTUPORANGA\u00a0/\u00a0SP", "name": "COOPERVINTE-COOPERATIVA DE CATADORES DE RECICL\u00c1VEIS DE VOTUPORANGA", "district": "S\u00c3O JO\u00c3O", "material": "Pl\u00e1stico, Metal, Pneu, Papel, Pilha, Bateria, Vidro, Longa Vida, Tubo Dental, L\u00e2mpadas, Tecido, \u00d3leo, Eletr\u00f4nicos, Borracha", "postal_code": "15500000", "address": "RUA THOMAS PAES DA CUNHA FILHO SEM N\u00daMERO"},
{"city": "Jaragu\u00e1 do Sul\u00a0/\u00a0SC", "name": "Coopervit", "district": "Agua Verde", "material": "Pl\u00e1stico, Metal, Papel, Pilha, Bateria, Vidro, Longa Vida, Tubo Dental, L\u00e2mpadas, Tecido, Eletr\u00f4nicos", "postal_code": "89254630", "address": "Giardini Luiz Lenzi 96"},
{"city": "Rio Claro\u00a0/\u00a0SP", "name": "COOPERVIVA - Cooperativa de Rio Claro", "district": "Vila Martins", "material": "Pl\u00e1stico, Metal, Papel, Vidro, Longa Vida", "postal_code": "13502440", "address": "Rua 3-A, esq. Av. 42-A, s/n\u00ba"},
{"city": "Votorantim\u00a0/\u00a0SP", "name": "Coopervot", "district": "", "material": "Pl\u00e1stico, Metal, Papel, Vidro", "postal_code": "", "address": "Av. Jaziel Ribeiro, 1.041"},
{"city": "Barueri\u00a0/\u00a0SP", "name": "COOPERYARA", "district": "", "material": "Pl\u00e1stico, Metal, Papel, Vidro, Longa Vida, Tubo Dental", "postal_code": "06453034", "address": "Estrada Cicero Borges de Moraes, s/n"},
{"city": "Vit\u00f3ria\u00a0/\u00a0ES", "name": "COOPETEC", "district": "", "material": "Pl\u00e1stico, Metal, Papel, Bateria, Vidro, Longa Vida", "postal_code": "", "address": "Av Marechal Campos, 310,  3\u00b0andar"},
{"city": "Rio de Janeiro\u00a0/\u00a0RJ", "name": "COOPEVAPE - Iraj\u00e1", "district": "Iraj\u00e1", "material": "Pl\u00e1stico, Metal, Papel, Pilha, Bateria, Vidro, Longa Vida", "postal_code": "21235-110", "address": "Av. Monsenhor F\u00e9lix, 512"},
{"city": "Garanhus\u00a0/\u00a0PE", "name": "COOPMA Cooperativa de Meio Ambiente", "district": "", "material": "Pl\u00e1stico, Papel", "postal_code": "55290000", "address": "Rua Napole\u00e3o Galv\u00e3o, 605"},
{"city": "Cama\u00e7ari\u00a0/\u00a0BA", "name": "COOPMARC- Cooperativa de Materiais Recicl\u00e1veis de Cama\u00e7ari e Presta\u00e7\u00e3o", "district": "Espa\u00e7o Alfa", "material": "Pl\u00e1stico, Metal, Papel, Vidro, Longa Vida", "postal_code": "42800-970", "address": "Rua Princesa Isabel s/n"},
{"city": "Arapongas\u00a0/\u00a0PR", "name": "Coopreara- Cooperativa dos Recicladores de Arapongas", "district": "Parque Industrial 4", "material": "Pl\u00e1stico, Metal, Papel, Vidro, Longa Vida", "postal_code": "86706-019", "address": "Rua Anu Coroca, 80"},
{"city": "Goi\u00e2nia\u00a0/\u00a0GO", "name": "COOPREC - Cooperativa de Reciclagem", "district": "Jd Conquista", "material": "Pl\u00e1stico, Papel, Vidro, Longa Vida, Tubo Dental, Madeira", "postal_code": "", "address": "Travessa  Xingu, s/n"},
{"city": "Guarulhos\u00a0/\u00a0SP", "name": "COOPRECICL\u00c1VEL - Cooperativa de Catadores de Materiais Recicl\u00e1veis de", "district": "Jd S. Geraldo   Tabo\u00e3o  (Aeroporto)", "material": "Pl\u00e1stico, Metal, Papel, Bateria, Vidro, Longa Vida, Tubo Dental, \u00d3leo, Madeira, Eletr\u00f4nicos", "postal_code": "07231000", "address": "R. Estrela dOeste, 700"},
{"city": "Len\u00e7\u00f3is Paulista\u00a0/\u00a0SP", "name": "COOPRELP - Cooperativa de Reciclagem de Len\u00e7\u00f3is Paulista", "district": "Distrito Industrial II", "material": "Pl\u00e1stico, Metal, Papel, Bateria, Vidro, Longa Vida, \u00d3leo, Madeira, Mat\u00e9ria Org\u00e2nica, Eletr\u00f4nicos", "postal_code": "18682970", "address": "Rodovia Juliano Lorenzetti, Km 8,6"},
{"city": "Cear\u00e1\u00a0/\u00a0CE", "name": "Coopremarce", "district": "Centro", "material": "Pl\u00e1stico, Metal, Papel, Vidro, Longa Vida, Tubo Dental", "postal_code": "60415170", "address": "Rua Bartolomeu de Gusm\u00e3o, 1041"},
{"city": "Rio de Janeiro\u00a0/\u00a0RJ", "name": "Cooperativa Recicladores Ambientais Transformando", "district": "Caju", "material": "Pl\u00e1stico, Papel, Vidro", "postal_code": "20930390", "address": "Rua Peter Lund 38 Bloco A Loja H"},
{"city": "Bragan\u00e7a Paulista\u00a0/\u00a0SP", "name": "Cooperativa Recicle Bragan\u00e7a", "district": "", "material": "Pl\u00e1stico, Metal, Papel, Vidro, Longa Vida", "postal_code": "12908851", "address": "Av. S\u00e3o Louren\u00e7o, 430"},
{"city": "Santa B\u00e1rbara dOeste\u00a0/\u00a0SP", "name": "Cooperativa Reciclopl\u00e1stica", "district": "", "material": "Pl\u00e1stico, Papel", "postal_code": "13453520", "address": "Av. Amadeu Tortelli, 359"},
{"city": "Campinas\u00a0/\u00a0SP", "name": "Cooperativa Remodela", "district": "Vila Mimosa", "material": "\u00d3leo", "postal_code": "", "address": "R. Ana Beatriz  , 901"},
{"city": "Campinas\u00a0/\u00a0SP", "name": "Cooperativa Santa Genebra", "district": "Santa Genebra", "material": "Pl\u00e1stico, Metal, Pneu, Papel, Pilha, Bateria, Vidro, Longa Vida, L\u00e2mpadas, \u00d3leo, Madeira, Eletr\u00f4nicos, Borracha", "postal_code": "", "address": "R. Est\u00e1cio de S\u00e1, 577"},
{"city": "Campinas\u00a0/\u00a0SP", "name": "Cooperativa Santo Expedito", "district": "Vila Presidente Castelo Branco", "material": "Pl\u00e1stico, Metal, Papel, Pilha, Bateria, Vidro, Longa Vida, Madeira", "postal_code": "", "address": "R. Bas\u00edlio da Gama, 101"},
{"city": "Campinas\u00a0/\u00a0SP", "name": "Cooperativa S\u00e3o Bernardo", "district": "Pq. It\u00e1lia", "material": "Pl\u00e1stico, Metal, Papel, Bateria, Vidro, Longa Vida", "postal_code": "", "address": "Av. Faria Lima, 630"},
{"city": "Americana\u00a0/\u00a0SP", "name": "Cooperativa S\u00e3o Domingos", "district": "Jd. Basanelli.", "material": "Pl\u00e1stico, Metal, Papel, Vidro, Longa Vida", "postal_code": "", "address": "Rua Mon Senhor Bruno Nardini, 1115"},
{"city": "Arapiraca\u00a0/\u00a0AL", "name": "Cooperativa S\u00e3o Vicente", "district": "Canafistura", "material": "Pl\u00e1stico, Metal, Papel, Vidro, Tecido", "postal_code": "57300000", "address": "Rua Santa Isabel, s/n"},
{"city": "S\u00e3o Paulo\u00a0/\u00a0SP", "name": "Cooperativa Sem Fronteiras", "district": "Jardim Modelo", "material": "Pl\u00e1stico, Metal, Papel, Bateria, Vidro", "postal_code": "02237000", "address": "Rua General Jer\u00f4nimo Furtado, 572"},
{"city": "Cama\u00e7ari\u00a0/\u00a0BA", "name": "Cooperativa Trabalhadores em Reciclagem Res\u00edduos S\u00f3lidos Renascer & Re", "district": "Alto da Cruz", "material": "Pl\u00e1stico, Metal, Papel, Vidro", "postal_code": "42800000", "address": "Travessa S\u00e3o Jos\u00e9,s/n"},
{"city": "Bahia\u00a0/\u00a0BA", "name": "cooperativa uniao", "district": "nazare", "material": "Pl\u00e1stico, Metal, Papel, Vidro, Longa Vida, Tubo Dental, Mat\u00e9ria Org\u00e2nica, Eletr\u00f4nicos", "postal_code": "41330030", "address": "rua do gravata 20"},
{"city": "S\u00e3o Paulo\u00a0/\u00a0SP", "name": "Cooperativa Uni\u00e3o Ambiental e Artesanal MOFARREJ", "district": "Vila Leopoldina", "material": "Pl\u00e1stico, Metal, Papel, Vidro, Longa Vida, Tecido", "postal_code": "", "address": "R. Dr. Gast\u00e3o Vidigal, 1070/1010 (em baixo do viaduto)"},
{"city": "Esp\u00edrito Santo\u00a0/\u00a0ES", "name": "Cooperativa Unim\u00e3os", "district": "Nossa Sr de Aparecida", "material": "Pl\u00e1stico, Metal, Papel, Vidro", "postal_code": "25050510", "address": "Rua Rosa Barbosa Dias, s/n"},
{"city": "Boa Vista\u00a0/\u00a0RO", "name": "Cooperativa Unirenda", "district": "Nova Cidade", "material": "Pl\u00e1stico, Metal, Papel, Vidro, Madeira, Mat\u00e9ria Org\u00e2nica", "postal_code": "69000000", "address": "BR 174 , Rua N 14"},
{"city": "Cachoeiro de Itapemirim\u00a0/\u00a0ES", "name": "Cooperativa Unirm\u00e3os", "district": "Alto Boa Vista", "material": "Pl\u00e1stico, Metal, Papel, Vidro, Longa Vida, Tubo Dental", "postal_code": "29310600", "address": "Rua Rosa Dias Barbosa, 4"},
{"city": "Rio de Janeiro\u00a0/\u00a0RJ", "name": "Cooperativa Vale da Safira", "district": "Vila Alian\u00e7a", "material": "Pl\u00e1stico, Metal, Papel, Longa Vida", "postal_code": "21842-340", "address": "Av. do Corretor, 23"},
{"city": "Nova Igua\u00e7u\u00a0/\u00a0RJ", "name": "Cooperativa Vitoria dos coletores de materiais reaproveitaveis da cida", "district": "Centro", "material": "Pl\u00e1stico, Papel, Longa Vida, \u00d3leo", "postal_code": "26215200", "address": "R TELES BITTENCOURT   192"},
{"city": "Araraquara\u00a0/\u00a0SP", "name": "Cooperatriva Acacia de Catadores", "district": "Jd. Pinheiros", "material": "Pl\u00e1stico, Metal, Papel, Vidro, Longa Vida, \u00d3leo", "postal_code": "148000000", "address": "Av. Gerv\u00e1sio Brito Francisco, 750"},
{"city": "Guaruj\u00e1\u00a0/\u00a0SP", "name": "Cooperben", "district": "Vila Sao Miguel", "material": "Pl\u00e1stico, Metal, Papel, Vidro, Longa Vida", "postal_code": "11400000", "address": "Rua Santo Antonio 136"},
{"city": "BORBOREMA\u00a0/\u00a0SP", "name": "COOPERBO - COOP. TRAB. REC. RES. SOLIDOS BORBOREMA", "district": "CORGUINHO", "material": "Pl\u00e1stico, Metal, Pneu, Papel, Pilha, Bateria, Vidro, Longa Vida, Tubo Dental, L\u00e2mpadas, Tecido, \u00d3leo, Madeira, Eletr\u00f4nicos, Borracha", "postal_code": "14955000", "address": "RODOVIA BBR 157, KM 2,5"},
{"city": "S\u00e3o Paulo\u00a0/\u00a0SP", "name": "Coopercaps", "district": "Vila da Paz", "material": "Pl\u00e1stico, Metal, Papel, Bateria, Vidro", "postal_code": "04777000", "address": "Av. Jo\u00e3o Paulo da Silva, 48"},
{"city": "SARANDI\u00a0/\u00a0PR", "name": "COOPERCENTRAL", "district": "JARDIM INDEPENDENCIA", "material": "Pl\u00e1stico, Metal, Papel, Vidro, Longa Vida", "postal_code": "87114050", "address": "RUA JOSE BONIFACIO"},
{"city": "S\u00e3o Vicente\u00a0/\u00a0SP", "name": "COOPERCIAL- Cooperativa de Trabalho Cidade Alta", "district": "Joquei Club", "material": "Pl\u00e1stico, Metal, Pneu, Papel, Vidro, Longa Vida", "postal_code": "11365140", "address": "Av. Sambaiatu, 116"},
{"city": "S\u00e3o Paulo\u00a0/\u00a0SP", "name": "COOPERCICLA", "district": "Jardim Marilu", "material": "Pl\u00e1stico, Metal, Papel, Vidro, Longa Vida, Tubo Dental", "postal_code": "02989100", "address": "Rua Jo\u00e3o Batista Dias, 97"},
{"city": "Maring\u00e1\u00a0/\u00a0PR", "name": "COOPERCICLA Cooperativa de Coleta Seletiva", "district": "Zona 7", "material": "Pl\u00e1stico, Metal, Papel, Vidro, Longa Vida", "postal_code": "87020-050", "address": "Av. Gua\u00edra , 184"},
{"city": "Caetit\u00e9\u00a0/\u00a0BA", "name": "coopercicli cooperativa de coleta seletiva e reciclagem da cidade de c", "district": "ovidio teixeira", "material": "Pl\u00e1stico, Metal, Papel, Vidro", "postal_code": "47400000", "address": "rodovia caetit\u00e9/ mania\u00e7u- sn"},
{"city": "CAJAMAR\u00a0/\u00a0SP", "name": "COOPERCON", "district": "PQ VITORIA", "material": "Pl\u00e1stico, Metal, Papel, Vidro, Longa Vida, \u00d3leo", "postal_code": "07050000", "address": "RUA COROADOS,155"},
{"city": "S\u00e3o Paulo\u00a0/\u00a0SP", "name": "COOPERCOS- Cooperativa Peruense de Reiclagem e Coleta Seletiva", "district": "Perus", "material": "Pl\u00e1stico, Metal, Papel, Bateria, Vidro, Longa Vida", "postal_code": "03000-000", "address": "Rua Mojero, 1795"},
{"city": "S\u00e3o Paulo\u00a0/\u00a0SP", "name": "COOPERE", "district": "Bom Retiro", "material": "Pl\u00e1stico, Metal, Papel, Vidro, Longa Vida", "postal_code": "01108000", "address": "Av. do Estado, 300"},
{"city": "Salvador\u00a0/\u00a0BA", "name": "Cooperativa de servi\u00e7os reciclagem meio ambiente e promo\u00e7ao da cidadan", "district": "alto de coutos  vista al\u00eagre", "material": "Pl\u00e1stico, Metal, Papel", "postal_code": "40750274", "address": "rua da paz lot 41 casa 60"},
{"city": "Atibaia\u00a0/\u00a0SP", "name": "cooperativa de trab col lixo sao jose", "district": "caetetuba", "material": "Pl\u00e1stico, Metal, Papel, Bateria, Vidro, Longa Vida, Madeira", "postal_code": "12940514", "address": "av.geronimo de camargo s/n"},
{"city": "Cangu\u00e7u\u00a0/\u00a0RS", "name": "Cooperativa de Trabalhadores em Reciclagem de Lixo de Cangu\u00e7u LTDA", "district": "1\u00ba Distro - Serro das Tropas", "material": "Pl\u00e1stico, Metal, Papel", "postal_code": "", "address": "BR 392 entre os Km 120 e 121 / Serro das Tropas 1\u00ba Distrito"},
{"city": "Tapejara\u00a0/\u00a0RS", "name": "Cooperativa de Trabalhadores Tapejara", "district": "Centro", "material": "Pl\u00e1stico, Metal, Papel, Vidro, Longa Vida, Tubo Dental", "postal_code": "95600000", "address": "Av. 7 de Setembro, 1130"},
{"city": "Rio de Janeiro\u00a0/\u00a0RJ", "name": "Cooperativa de Trabalho Comunit\u00e1rio - COOTRACOM", "district": "Campo Grande", "material": "Pl\u00e1stico, Metal, Papel, Vidro, Longa Vida, Tubo Dental", "postal_code": "23097200", "address": "Estrada do Guando,1122"},
{"city": "Itapecerica da Serra\u00a0/\u00a0SP", "name": "Cooperativa de Trabalho dos Recicladores de Itapecerica Serra", "district": "Potuver\u00e1", "material": "Papel", "postal_code": "06881100", "address": "Estrada balthazar Manoel"},
{"city": "Orl\u00e2ndia\u00a0/\u00a0SP", "name": "Cooperativa de Trabalho dos Recicladores de Lixo de Orl\u00e2ndia", "district": "Centro", "material": "Pl\u00e1stico, Metal, Papel, Vidro, Longa Vida", "postal_code": "14620000", "address": "Avenida H, 348"},
{"city": "Pen\u00e1polis\u00a0/\u00a0SP", "name": "COOPERATIVA DE TRABALHO DOS RECICLADORES DE LIXO DE PEN\u00c1POLIS - CORPE", "district": "LAJEADO", "material": "Pl\u00e1stico, Metal, Papel, Pilha, Bateria, Vidro, Longa Vida, Tubo Dental, Tecido, \u00d3leo, Eletr\u00f4nicos, Borracha", "postal_code": "16300000", "address": "ESTRADA MUNICIPAL EL\u00cdDIO AUR\u00c9LIO FERREIRA 4050"},
{"city": "Tup\u00e3\u00a0/\u00a0SP", "name": "Cooperativa de Trabalho dos Recicladores de Tup\u00e3", "district": "Parque Industrial I", "material": "Pl\u00e1stico, Metal, Papel, Vidro, Longa Vida", "postal_code": "17600000", "address": "R. Jos\u00e9 de Mello n\u00ba 10"},
{"city": "S\u00e3o Paulo\u00a0/\u00a0SP", "name": "COOPERATIVA DE TRABALHO EM COLETA SELETIVA GAIA - COOPERGAIA", "district": "JARDIM MITSUTANI", "material": "Pl\u00e1stico, Metal, Papel, Bateria, Vidro, Longa Vida, Tubo Dental, \u00d3leo, Eletr\u00f4nicos", "postal_code": "05791280", "address": "RUA VITORIANO DE OLIVEIRA, 1000"},
{"city": "S\u00e3o Paulo\u00a0/\u00a0SP", "name": "Cooperativa de Triagem Itaim Paulista", "district": "Vila Cru\u00e7a", "material": "Pl\u00e1stico, Metal, Papel, Pilha, Bateria, Vidro, Longa Vida", "postal_code": "08032-010", "address": "Rua Cembira, 1100"},
{"city": "S\u00e3o Paulo\u00a0/\u00a0SP", "name": "Cooperativa de Triagem S\u00e3o Mateus", "district": "S\u00e3o Mateus", "material": "Pl\u00e1stico, Metal, Papel, Pilha, Bateria, Vidro, Longa Vida, Borracha", "postal_code": "08300000", "address": "Rua Estrada da Fazenda do Carmo, 450"},
{"city": "Campinas\u00a0/\u00a0SP", "name": "Cooperativa Dom Bosco", "district": "Pq. S\u00e3o Quirino", "material": "Pl\u00e1stico, Metal, Papel, Vidro, Longa Vida, \u00d3leo", "postal_code": "", "address": "R.Herculano Gracioli, 965"},
{"city": "Foz do Igua\u00e7u\u00a0/\u00a0PR", "name": "Cooperativa dos agentes ambientais de Foz do Iguacu", "district": "Centro", "material": "Pl\u00e1stico, Metal, Papel, Vidro, Longa Vida, Tubo Dental", "postal_code": "85890000", "address": "Rua a Angela  Aparecida de Andrade,  3021"},
{"city": "Tabo\u00e3o da serra\u00a0/\u00a0SP", "name": "Cooperativa dos Agentes Ambientais de Tabo\u00e3o da Serra - Cooperzagati", "district": "Pq Industrial das Oliveiras", "material": "Pl\u00e1stico, Metal, Papel, Vidro, \u00d3leo", "postal_code": "06765440", "address": "R. Aurea Tavares, s/n"},
{"city": "s\u00e3o paulo\u00a0/\u00a0SP", "name": "Cooperativa de reciclagem - Coopervila", "district": "parque vila maria", "material": "Pl\u00e1stico, Metal, Papel, Bateria, Vidro, Longa Vida, \u00d3leo", "postal_code": "02169030", "address": "rua ernesto augusto lopes, 100a"},
{"city": "Campinas\u00a0/\u00a0SP", "name": "Cooperativa de Reciclagem Bar\u00e3o Legal", "district": "", "material": "Pl\u00e1stico, Metal, Papel, Vidro, Longa Vida", "postal_code": "13085101", "address": "Rua Rodrigo Ribeiro de Melo, 121"},
{"city": "S\u00e3o Paulo\u00a0/\u00a0SP", "name": "Cooperativa de Reciclagem CRESCER", "district": "Pirituba", "material": "Pl\u00e1stico, Metal, Papel, Vidro, Longa Vida, Eletr\u00f4nicos", "postal_code": "05133000", "address": "Rua Joaquim de Oliveira Freitas, 325"},
{"city": "Limeira\u00a0/\u00a0SP", "name": "Cooperativa de Reciclagem de Limeira", "district": "Jardim  Aeroporto", "material": "Pl\u00e1stico, Papel, Vidro, Longa Vida", "postal_code": "13484-000", "address": "Rua Antonio Luna, 1323"},
{"city": "Formosa\u00a0/\u00a0GO", "name": "cooperativa de reciclagem de lixo de presta\u00e7\u00e3o de servi\u00e7os em geral e", "district": "Formosinha", "material": "Pl\u00e1stico, Metal, Papel, Bateria, Vidro, Tubo Dental, Eletr\u00f4nicos", "postal_code": "73300000", "address": "RUA 22 QD  100 LTS  1 e 2"},
{"city": "Caic\u00f3\u00a0/\u00a0RN", "name": "Cooperativa de Reciclagem de Lixo e derivados do Serid\u00f3", "district": "Centro", "material": "Pl\u00e1stico, Metal, Pneu, Papel, Vidro, Longa Vida, Tubo Dental, Mat\u00e9ria Org\u00e2nica, Borracha", "postal_code": "59300000", "address": "Pra\u00e7a Monsenhor Walfredo Gurgel, 67"},
{"city": "S\u00e3o Luis\u00a0/\u00a0MA", "name": "Cooperativa de Reciclagem de S\u00e3o Luis", "district": "Anjo de Guarda", "material": "Pl\u00e1stico, Metal, Pneu, Papel, Vidro, Longa Vida, L\u00e2mpadas, Borracha", "postal_code": "65058000", "address": "Travessa 29, 50"},
{"city": "Lages\u00a0/\u00a0SC", "name": "Cooperativa de Reciclagem Planalto Serrano", "district": "", "material": "Pl\u00e1stico, Metal, Papel, Pilha, Bateria, Vidro, Longa Vida", "postal_code": "88525-440", "address": "Rua Bruno Luersen, 550"},
{"city": "S\u00e3o Paulo\u00a0/\u00a0SP", "name": "Cooperativa de Reciclagem PLANETA VERDE", "district": "Campo Belo", "material": "Pl\u00e1stico, Metal, Papel, Vidro, Longa Vida, Tubo Dental", "postal_code": "04001300", "address": "Rua Als\u00e1cia,410"},
{"city": "TATU\u00cd\u00a0/\u00a0SP", "name": "Cooperativa de Reciclagem Renascer", "district": "Boqueir\u00e3o", "material": "Pl\u00e1stico, Metal, Pneu, Papel, Vidro, Longa Vida, Tecido, \u00d3leo, Madeira, Eletr\u00f4nicos", "postal_code": "18270000", "address": "R. Teofilo andrade Gama, 1.153"},
{"city": "Resende\u00a0/\u00a0RJ", "name": "Cooperativa de Reciclagem Rezende", "district": "Morada da Colina", "material": "Pl\u00e1stico, Metal, Papel, Vidro, Longa Vida, Tubo Dental", "postal_code": "27523000", "address": "Rua Prof. Darcy Ribeiro, s/n"},
{"city": "Tramanda\u00ed\u00a0/\u00a0RS", "name": "Cooperativa de Reciclagem Tramanda\u00ed", "district": "", "material": "Pl\u00e1stico, Metal, Papel, Vidro, Longa Vida, Tubo Dental", "postal_code": "95590000", "address": "Rua da Fazenda Teixeira, s/n"},
{"city": "Carapicu\u00edba\u00a0/\u00a0SP", "name": "Cooperativa de Reciclagem Veloso", "district": "", "material": "Pl\u00e1stico, Metal, Papel, Vidro", "postal_code": "06335020", "address": "Rua Jatoba, 576"},
{"city": "CUIABA\u00a0/\u00a0MT", "name": "COOPERATIVA DE RECUPERA\u00c7\u00c3O DE RES\u00cdDUOS S\u00d3LIDOS DE MATO GROSSO", "district": "JARDIM IT\u00c1LIA", "material": "Pl\u00e1stico, Metal, Pneu, Papel, Pilha, Bateria, Vidro, Longa Vida, Tubo Dental, Tinta, L\u00e2mpadas, Eletr\u00f4nicos, Borracha", "postal_code": "78060746", "address": "AVENIDA ARQUIMEDES PEREIRA LIMA 1501"},
{"city": "Ribeir\u00e3o Pires\u00a0/\u00a0SP", "name": "Cooperativa de Ribeir\u00e3o Pires \u2013 Cooperpires", "district": "", "material": "Pl\u00e1stico, Metal, Papel, Vidro, Longa Vida", "postal_code": "", "address": "R. Miguel Prisco, 200"},
{"city": "Catanduva\u00a0/\u00a0SP", "name": "Cooperativa Luxo do Lixo", "district": "Vila Nova", "material": "Pl\u00e1stico, Metal, Papel, Bateria, Vidro, Longa Vida", "postal_code": "15800-000", "address": "Rua S\u00e3o Paulo, 777"},
{"city": "Goi\u00e2nia\u00a0/\u00a0GO", "name": "Cooperativa Meio Ambiente Saud\u00e1vel - COOPERMAS", "district": "Conjunto Vera Cruz I", "material": "Pl\u00e1stico, Metal, Papel, Vidro, Longa Vida", "postal_code": "", "address": "Av Senador Canedo, 31"},
{"city": "Nova Igua\u00e7u\u00a0/\u00a0RJ", "name": "Cooperativa Mista de Coleta Seletiva Aproveitamento de Res\u00edduos S\u00f3lido", "district": "Centro", "material": "Pl\u00e1stico, Metal, Papel", "postal_code": "26220030", "address": "Rua Coronel Francisco Soares, 872"},
{"city": "Passo Fundo\u00a0/\u00a0RS", "name": "Cooperativa Mista de Produ\u00e7\u00e3o e Trabalho dos Empreendedores Populares", "district": "Don\u00e1ria", "material": "Pl\u00e1stico, Metal, Papel, Bateria, Vidro, Longa Vida, Tubo Dental, Eletr\u00f4nicos", "postal_code": "99036070", "address": "Av.Domingos Gomes, s/n"},
{"city": "Abaetetuba\u00a0/\u00a0PA", "name": "Cooperativa Mista dos Catadores de Lixo Recicl\u00e1vel do Munic\u00edpio de Aba", "district": "Bosque", "material": "Pl\u00e1stico, Metal, Papel, Madeira, Mat\u00e9ria Org\u00e2nica", "postal_code": "68440000", "address": "End."},
{"city": "Conc\u00f3rdia\u00a0/\u00a0SC", "name": "Cooperativa Multi-Trabalhos Colibri", "district": "", "material": "Pl\u00e1stico, Metal, Papel, Vidro, Longa Vida", "postal_code": "89700-000", "address": "Linha Vit\u00f3ria, s/n"},
{"city": "Guaruj\u00e1\u00a0/\u00a0SP", "name": "Cooperativa Mundo Novo", "district": "Centro", "material": "Pl\u00e1stico, Metal, Pneu, Papel, Pilha, Bateria, Vidro, Longa Vida", "postal_code": "11461090", "address": "Av. S\u00e3o Jo\u00e3o, 50"},
{"city": "Campinas\u00a0/\u00a0SP", "name": "Cooperativa N. Sra. Aparecida", "district": "Jardim Baroneza", "material": "Pl\u00e1stico, Metal, Papel, Pilha, Bateria, Vidro, Longa Vida, Tubo Dental, L\u00e2mpadas, \u00d3leo, Eletr\u00f4nicos", "postal_code": "13082000", "address": "Rua Serra Dourada, 165"},
{"city": "Rio de Janeiro\u00a0/\u00a0RJ", "name": "Cooperativa Popular Amigos do Meio Ambiente Ltda.", "district": "Maria da Gra\u00e7a", "material": "Pl\u00e1stico, Metal, Pneu, Papel, Vidro, Longa Vida, Tubo Dental, \u00d3leo, Eletr\u00f4nicos", "postal_code": "20785220", "address": "Rua Miguel \u00c2ngelo, 385"},
{"city": "Rio de Janeiro\u00a0/\u00a0RJ", "name": "Cooperativa Projeto ATOS", "district": "Santissimo", "material": "Pl\u00e1stico, Metal, Papel, Vidro, Tubo Dental, Tecido", "postal_code": "23097200", "address": "Rua Ivan Pessoa, 341"},
{"city": "Taubat\u00e9\u00a0/\u00a0SP", "name": "Cooperativa Re-Si-Clando de Taubat\u00e9", "district": "Vila Marli", "material": "Pl\u00e1stico, Metal, Papel, Vidro", "postal_code": "12060640", "address": "R. Monsenhor Miguel Martins, 117"},
{"city": "cajati\u00a0/\u00a0SP", "name": "cooperativa recicla cajati", "district": "barro branco", "material": "Pl\u00e1stico, Metal, Pneu, Papel, Pilha, Vidro, Longa Vida, L\u00e2mpadas, \u00d3leo, Eletr\u00f4nicos", "postal_code": "119500000", "address": "estrada barro branco s/n"},
{"city": "Jaguaqura\u00a0/\u00a0BA", "name": "Cooperativa Recicla Jaguaquara", "district": "Fazenda Toca da On\u00e7a", "material": "Pl\u00e1stico, Metal, Papel, Vidro", "postal_code": "45345000", "address": "Aterro Sanit\u00e1rio Mun. de Jaguaquara"},
{"city": "Tr\u00eas Rios\u00a0/\u00a0RJ", "name": "Cooperativa Recicla Tres Rios", "district": "Centro", "material": "Pl\u00e1stico, Metal, Papel, Pilha, Bateria, Vidro, Longa Vida", "postal_code": "25803010", "address": "Rua Pref. Walter Franklin , 13 loja 1"},
{"city": "Piracicaba\u00a0/\u00a0SP", "name": "Cooperativa Reciclador Solid\u00e1rio", "district": "Distrito Industria Unileste", "material": "Pl\u00e1stico, Metal, Papel, Vidro, Longa Vida, Tubo Dental", "postal_code": "19290000", "address": "Rua Eugenio Losso 955"},
{"city": "Amparo\u00a0/\u00a0SP", "name": "Cooperativa Coopertiva For\u00e7a Uni\u00e3o", "district": "Centro", "material": "Pl\u00e1stico, Metal, Papel, Vidro, Longa Vida, Tubo Dental", "postal_code": "13905509", "address": "Rua Sidney Corsi, 560"},
{"city": "Rio de Janeiro\u00a0/\u00a0RJ", "name": "Cooperativa COOPGuanabara", "district": "Bonsucesso", "material": "Pl\u00e1stico, Metal, Papel, Vidro, Longa Vida, Tubo Dental", "postal_code": "20931001", "address": "Rua Flavio Farnezio,168"},
{"city": "Santa Maria\u00a0/\u00a0RS", "name": "Cooperativa COOTTRUL LTDA", "district": "S\u00e3o Jos\u00e9", "material": "Pl\u00e1stico, Metal, Papel, Pilha, Vidro, Longa Vida", "postal_code": "97095-000", "address": "Av. Jo\u00e3o Luiz Pozzobon, 2145/304"},
{"city": "Guajara-mirim\u00a0/\u00a0RO", "name": "cooperativa curumim", "district": "prospero", "material": "Pl\u00e1stico, Metal, Pneu, Papel", "postal_code": "76850000", "address": "av;princesa isabel n\u00ba 4874"},
{"city": "MARECHAL CANDIDO RONDON\u00a0/\u00a0PR", "name": "COOPERATIVA DE AGENTES AMBIENTAIS (COOPERAGIR)", "district": "CENTRO", "material": "Pl\u00e1stico, Metal, Papel, Vidro, Tubo Dental, \u00d3leo", "postal_code": "85960000", "address": "RUA D. J\u00d5AO VI"},
{"city": "MARECHAL CANDIDO RONDON\u00a0/\u00a0PR", "name": "COOPERATIVA DE AGENTES AMBIENTAIS (COOPERAGIR)", "district": "centro", "material": "Pl\u00e1stico, Metal, Papel, Vidro, Longa Vida, Tubo Dental", "postal_code": "85960000", "address": "RUA D. J\u00d5AO VI - 1151"},
{"city": "Botucatu\u00a0/\u00a0SP", "name": "cooperativa de agentes ambientais de botucatu", "district": "", "material": "Pl\u00e1stico, Metal, Papel, Vidro, Longa Vida, \u00d3leo, Madeira, Eletr\u00f4nicos", "postal_code": "18600000", "address": "rodovia eduardo zucari km 2"},
{"city": "Ribeir\u00e3o  Preto\u00a0/\u00a0SP", "name": "COOPERATIVA DE AGENTES AMBIENTAIS MAOS DADAS", "district": "JD. BRANCA SALES", "material": "Pl\u00e1stico, Metal, Papel, Vidro, \u00d3leo", "postal_code": "14031734", "address": "RUA JORGE TEIXEIRA DE ANDRADE, 200"},
{"city": "S\u00e3o Paulo\u00a0/\u00a0SP", "name": "COOPERATIVA DE CATADORES (AS) SELETIVOS (AS) DO PARQUE COCAIA DE S\u00c3O P", "district": "JARDIM CH\u00c1CARA DO SOL - GRAJA\u00da", "material": "Pl\u00e1stico, Metal, Papel, Pilha, Bateria, Vidro, Longa Vida, Tubo Dental, Tecido, \u00d3leo, Eletr\u00f4nicos, Borracha", "postal_code": "04855515", "address": "ESTRADA DO SCHMIDT, 2999"},
{"city": "Aparecida\u00a0/\u00a0SP", "name": "Cooperativa de Catadores de Aparecida", "district": "Santa Terezinha", "material": "Pl\u00e1stico, Metal, Papel, Vidro", "postal_code": "", "address": "R. Chico Palma, 07"},
{"city": "IPATINGA\u00a0/\u00a0MG", "name": "Cooperativa de Catadores de Materiais Reciclaveis da regi\u00e3o metropolit", "district": "VENEZA", "material": "Pl\u00e1stico, Metal, Pneu, Papel, Vidro, Longa Vida", "postal_code": "35164290", "address": "RUA TEREZINA 516"},
{"city": "Rio Branco\u00a0/\u00a0AC", "name": "Cooperativa de Catadores de Materiais Recicl\u00e1veis e Reut. do Acre", "district": "", "material": "Pl\u00e1stico, Metal, Papel, Vidro", "postal_code": "", "address": "Distrito Industrial Zona C Lote 1"},
{"city": "Nova Friburgo\u00a0/\u00a0RJ", "name": "Cooperativa de Catadores de Nova Friburgo", "district": "C\u00f3rrego Dantas", "material": "Pl\u00e1stico, Metal, Papel, Vidro", "postal_code": "28630230", "address": "RJ 130 KM 63"},
{"city": "Recife\u00a0/\u00a0PE", "name": "Cooperativa de Catadores Profissionais do Recife - PRORECIFE", "district": "Imbiribeira", "material": "Pl\u00e1stico, Metal, Papel, Vidro", "postal_code": "51170620", "address": "Rua Antonio Cardoso da Fonte, 483"},
{"city": "Vit\u00f3ria da Conquista\u00a0/\u00a0BA", "name": "Cooperativa de Catadores Recicla Conquista", "district": "Morada dos Passos II", "material": "Pl\u00e1stico, Metal, Papel, Vidro, Longa Vida", "postal_code": "45000000", "address": "Av. Juracy Magalh\u00e3es, 2790"},
{"city": "S\u00e3o Jos\u00e9 do Rio Preto\u00a0/\u00a0SP", "name": "Cooperativa de Coleta Seletiva, Beneficiamento e Transforma\u00e7\u00e3o de Mate", "district": "Distrito Industrial", "material": "Pl\u00e1stico, Metal, Papel, Vidro, Longa Vida, Tubo Dental, \u00d3leo, Eletr\u00f4nicos", "postal_code": "15030000", "address": "Av. Cenobelino de Barros Serra 884"},
{"city": "Lauro de Freitas\u00a0/\u00a0BA", "name": "Cooperativa de Coleta Seletiva, Reciclagem Amigos do Planeta", "district": "Port\u00e3o", "material": "Pl\u00e1stico, Metal, Papel, Vidro, Longa Vida, \u00d3leo", "postal_code": "42700000", "address": "Lot. Solar Uni\u00e3o, 23"},
{"city": "Itapira\u00a0/\u00a0SP", "name": "Cooperativa de Itapira", "district": "Penha do Rio do Peixe", "material": "Pl\u00e1stico, Metal, Papel, Vidro, Longa Vida", "postal_code": "13971-035", "address": "Rua Hermes Osorio de Oliveira, 249"},
{"city": "taubat\u00e9\u00a0/\u00a0SP", "name": "Cooperativa de materiais reaproveitaveis de taubat\u00e9", "district": "cecap III", "material": "Pl\u00e1stico, Metal, Papel, Bateria, Vidro, Longa Vida, Madeira, Eletr\u00f4nicos", "postal_code": "12043000", "address": "paulo wagner de barros santos  n-189"},
{"city": "Jacare\u00ed\u00a0/\u00a0SP", "name": "Cooperativa de Catadores de Recicl\u00e1veis Jacare\u00ed Recicla", "district": "Cidade Salvador", "material": "Pl\u00e1stico, Metal, Papel, Vidro, Longa Vida, \u00d3leo, Eletr\u00f4nicos", "postal_code": "", "address": "R. Bom Jesus, 1090"},
{"city": "Itabuna\u00a0/\u00a0BA", "name": "Cooperativa de Catadores Itair\u00f3", "district": "Centro", "material": "Pl\u00e1stico, Metal, Papel, Vidro, Longa Vida, Tubo Dental, Tecido", "postal_code": "45700000", "address": "Av.Itabuna,33"},
{"city": "Franca\u00a0/\u00a0SP", "name": "Cooperativa de Materiais Recicl\u00e1veis de Franca", "district": "Centro", "material": "Pl\u00e1stico, Metal, Papel, Vidro, Longa Vida", "postal_code": "14401-000", "address": "Av. Champagnat, 1750"},
{"city": "Itapeva\u00a0/\u00a0SP", "name": "Cooperativa de Materiais Recicl\u00e1veis de Itapeva", "district": "Barrac\u00e3o", "material": "Pl\u00e1stico, Metal, Papel, Vidro, Longa Vida, Tubo Dental", "postal_code": "18401050", "address": "Rua Franciso Lima n\u00b0 180"},
{"city": "S\u00e3o Jos\u00e9 dos Campos\u00a0/\u00a0SP", "name": "COOPERATIVA DE MATERIAIS RECICL\u00c1VEIS S\u00c3O VICENTE", "district": "CAJURU", "material": "Pl\u00e1stico, Metal, Papel, Bateria, Vidro, Longa Vida", "postal_code": "12200100", "address": "ESTRADA DO CAJURU, 191"},
{"city": "Pirapora\u00a0/\u00a0MG", "name": "Cooperativa de Produ\u00e7\u00e3o Artesanal COOPRARTE", "district": "N. Sra. Aparecida", "material": "Pl\u00e1stico, Metal, Papel, Longa Vida", "postal_code": "39270000", "address": "Rua Bernardino Barbosa, 22"},
{"city": "S\u00e3o Paulo\u00a0/\u00a0SP", "name": "Cooperativa de producao coleta triagem", "district": "ITAQUERA", "material": "Pl\u00e1stico, Metal, Papel, Vidro, Longa Vida, \u00d3leo", "postal_code": "08295030", "address": "rua sao felix do piaui, 1221"},
{"city": "S\u00e3o Paulo\u00a0/\u00a0SP", "name": "COOPERATIVA DE PRODU\u00c7\u00c3O DOS TRABALHADORES EM MATERIAS DE S\u00c3O PAULO - C", "district": "PINHEIROS", "material": "Pl\u00e1stico, Metal, Pneu, Papel, Vidro, Longa Vida, \u00d3leo, Eletr\u00f4nicos", "postal_code": "05428010", "address": "RUA SUMIDOURO, 580"},
{"city": "Rio de Janeiro\u00a0/\u00a0RJ", "name": "COOPERATIVA DE RECICLADORES AMBIENTAIS TRANSFORMANDO", "district": "CAJU", "material": "Pl\u00e1stico, Metal, Papel, Vidro, Longa Vida", "postal_code": "20930390", "address": "RUA PETER LUND, 38 BLOCO"},
{"city": "Itupeva\u00a0/\u00a0SP", "name": "COOPERATIVA DE RECICLADORES DE ITUPEVA", "district": "Guacuri", "material": "Pl\u00e1stico, Metal, Papel, Vidro, Longa Vida, \u00d3leo", "postal_code": "13295000", "address": "estrada da servid\u00e3o da Fazenda Fenix-s/n\u00ba"},
{"city": "Jaguariuna\u00a0/\u00a0SP", "name": "Cooperativa de Recicladores de Jaguariuna", "district": "Guedes", "material": "Pl\u00e1stico, Metal, Papel, Pilha, Bateria, Vidro, Longa Vida, Tubo Dental, L\u00e2mpadas, Madeira, Eletr\u00f4nicos", "postal_code": "13820000", "address": "Av. Pacifico Moneda, 1051"},
{"city": "Bel\u00e9m\u00a0/\u00a0PA", "name": "COOPERATIVA DOS CATADORES DE MATERIAIS RECICL\u00c1VEIS - CONCAVES", "district": "Terra Firme", "material": "Pl\u00e1stico, Metal, Pneu, Papel, Vidro, Longa Vida, Madeira, Borracha", "postal_code": "66077110", "address": "Passagem Bras\u00edlia, 125"},
{"city": "S\u00e3o Bento do Sul\u00a0/\u00a0SC", "name": "Cooperativa dos Catadores de Material Recicl\u00e1vel de S\u00e3o Bento do Sul", "district": "Brasilia", "material": "Pl\u00e1stico, Metal, Papel, Bateria, Vidro, Longa Vida, \u00d3leo, Eletr\u00f4nicos", "postal_code": "89280328", "address": "Rua In\u00eas Muller Pscheidt, 96"},
{"city": "Petrolina\u00a0/\u00a0PE", "name": "Cooperativa dos Catadores de Petrolina - Renascer", "district": "Don Avelar", "material": "Pl\u00e1stico, Metal, Papel, Vidro, Longa Vida, Tubo Dental", "postal_code": "56300000", "address": "Av. do Sentimento, 320"},
{"city": "TRINDADE\u00a0/\u00a0GO", "name": "Cooperativa dos Catadores de Residuos Solidos - COOPERSOL", "district": "Setor Cristina I", "material": "Pl\u00e1stico, Metal, Papel, Bateria, Vidro, Tubo Dental", "postal_code": "75380000", "address": "Rua 07 de Setembro- \u00c1rea 14 n\u00ba 48"},
{"city": "Arax\u00e1\u00a0/\u00a0MG", "name": "Cooperativa dos produtores de materiais reciclaveis de araxa ltda", "district": "Vila silveria", "material": "Pl\u00e1stico, Metal, Papel, Vidro, Longa Vida, Tubo Dental, \u00d3leo", "postal_code": "38183970", "address": "Rua Argeu Alves da costa n\u00ba60"},
{"city": "Uberl\u00e2ndia\u00a0/\u00a0MG", "name": "COOPERATIVA DOS RECICLADORES DE UBERLANDIA", "district": "JARDIM IPANEMA", "material": "Pl\u00e1stico, Metal, Papel, Bateria, Vidro, Longa Vida, Tinta, \u00d3leo, Eletr\u00f4nicos", "postal_code": "38406280", "address": "AV. SIDERAL, 1889"},
{"city": "Ubatuba\u00a0/\u00a0SP", "name": "Cooperativa dos Trabalhadores da Deposi\u00e7\u00e3o Coleta e Reciclagem de Lixo", "district": "Centro", "material": "Pl\u00e1stico, Metal, Pneu, Papel, Pilha, Bateria, Vidro, Longa Vida", "postal_code": "11680000", "address": "Hans Staden 908/05"},
{"city": "Birigui\u00a0/\u00a0SP", "name": "Cooperativa dos Trabalhadores de Birigui", "district": "Recanto Verde", "material": "Pl\u00e1stico, Metal, Papel, Bateria, Vidro, Longa Vida", "postal_code": "16200-000", "address": "Av. Antonio da Silva Nunes, 2726"},
{"city": "Carapicuiba\u00a0/\u00a0SP", "name": "Cooperativa dos Trabalhadores de Coleta Seletiva de Lixo de Carapicuib", "district": "Vila Municipal", "material": "Pl\u00e1stico, Metal, Papel, Vidro", "postal_code": "06328180", "address": "R. Saara, 300"},
{"city": "Ouro Fino\u00a0/\u00a0MG", "name": "COOPERATIVA DOS TRABALHADORES EM COLETA DE MATERIAL RECICL\u00c1VEL - COORE", "district": "DA VARZEA", "material": "Pl\u00e1stico, Metal, Papel, Vidro, Longa Vida, Tubo Dental", "postal_code": "37570000", "address": "CAETANO VITOR, 184"},
{"city": "Juquitiba\u00a0/\u00a0SP", "name": "COOPERATIVA DOS TRABALHADORES EM RECICLAGEM DE JUQUITIBA", "district": "CENTRO", "material": "Pl\u00e1stico, Metal, Papel, Bateria, Vidro, Longa Vida, \u00d3leo, Eletr\u00f4nicos", "postal_code": "06950000", "address": "AV. DA SAUDADE - N 70.000"},
{"city": "Santo \u00c2ngelo\u00a0/\u00a0RS", "name": "Cooperativa Ecos do Verde-RS", "district": "Oliveira", "material": "Pl\u00e1stico, Metal, Papel, Vidro, Longa Vida", "postal_code": "98801-240", "address": "Rua S\u00e3o Jo\u00e3o, 764"},
{"city": "S\u00e3o Jos\u00e9 dos Campos\u00a0/\u00a0SP", "name": "Cooperativa Futura de S\u00e3o Jos\u00e9 dos Campos", "district": "Jardim Imperial", "material": "Pl\u00e1stico, Metal, Papel, Vidro, Longa Vida", "postal_code": "12000000", "address": "Rua Julio Baranov, 110"},
{"city": "Campinas\u00a0/\u00a0SP", "name": "Cooperativa Havil\u00e1", "district": "Vila Boa Vista", "material": "Pl\u00e1stico, Metal, Pneu, Papel, Pilha, Bateria, Vidro, Longa Vida, Tubo Dental, Tecido, \u00d3leo, Madeira, Borracha", "postal_code": "", "address": "R. Cambar\u00e1s, 670"},
{"city": "S\u00e3o Paulo\u00a0/\u00a0SP", "name": "Cooperativa Lixo Porqu\u00ea", "district": "Vila Maria", "material": "Pl\u00e1stico, Metal, Papel, Bateria, Vidro", "postal_code": "04777-020", "address": "Av. Robert Kennedy, 6050"},
{"city": "Guaratinguet\u00e1\u00a0/\u00a0SP", "name": "Cooperativa Amigos do Lixo Guaratingueta", "district": "Pedregulho", "material": "Pl\u00e1stico, Metal, Papel, Pilha, Bateria, Vidro, Longa Vida", "postal_code": "12515-160", "address": "Rua Afonso Giannico, 700"},
{"city": "Nossa Senhora Aparecida\u00a0/\u00a0SP", "name": "Cooperativa Anjos da Limpeza", "district": "Nossa Senhora do Perpetuo Socorro", "material": "Pl\u00e1stico, Metal, Papel, Vidro, Longa Vida, Tubo Dental", "postal_code": "12570000", "address": "Rua Clementina de Castro, 01"},
{"city": "Aparecida\u00a0/\u00a0SP", "name": "Cooperativa Anjos da Limpeza", "district": "Perpetuo Socorro", "material": "Pl\u00e1stico, Metal, Papel, Vidro", "postal_code": "", "address": "R. Clementino de Castro, 01"},
{"city": "Campinas\u00a0/\u00a0SP", "name": "Cooperativa Antonio da Costa Santos", "district": "Centro", "material": "Pl\u00e1stico, Metal, Papel, Vidro, Longa Vida", "postal_code": "13150-000", "address": "Av. Dois, s/n"},
{"city": "Campinas\u00a0/\u00a0SP", "name": "Cooperativa Ant\u00f4nio da Costa Santos", "district": "Sat\u00e9lite Iris 2", "material": "Pl\u00e1stico, Metal, Papel, Pilha, Bateria, Vidro, Longa Vida, L\u00e2mpadas, Eletr\u00f4nicos", "postal_code": "", "address": "Av. dois, s/n"},
{"city": "Bar\u00e3o Geraldo\u00a0/\u00a0SP", "name": "Cooperativa Bar\u00e3o Geraldo", "district": "Real Parque", "material": "Pl\u00e1stico, Metal, Papel, Vidro, Longa Vida, \u00d3leo, Eletr\u00f4nicos", "postal_code": "13082780", "address": "R. Rodrigo Ribeiro de Melo, 121"},
{"city": "Rio de Janeiro\u00a0/\u00a0RJ", "name": "Cooperativa Beija Flor", "district": "Penha Circular", "material": "Pl\u00e1stico, Metal, Papel, Vidro, Longa Vida, Tubo Dental", "postal_code": "21011020", "address": "Rua da Batata,  990"},
{"city": "Porto Alegre\u00a0/\u00a0RS", "name": "Cooperativa Brasileira de Ajuda M\u00fatua de Amigos de Bairros Ltda.- COOB", "district": "Centro", "material": "Pl\u00e1stico", "postal_code": "90020023", "address": "Av. Borges de Medeiros, 549/ 201"},
{"city": "S\u00e3o Paulo\u00a0/\u00a0SP", "name": "Cooperativa Caminho Certo", "district": "Vila Nova Curu\u00e7a", "material": "Pl\u00e1stico, Metal, Papel, Bateria, Vidro", "postal_code": "02001000", "address": "Rua Jequirana de Goi\u00e1s, 103"},
{"city": "S\u00e3o Paulo\u00a0/\u00a0SP", "name": "Cooperativa Cantareira Viva", "district": "Vila Albertina", "material": "Pl\u00e1stico, Metal, Papel, Bateria, Vidro, Longa Vida, Tubo Dental, Tinta, L\u00e2mpadas, Tecido, \u00d3leo, Mat\u00e9ria Org\u00e2nica, Eletr\u00f4nicos, Borracha", "postal_code": "02357130", "address": "Rua Alagoa da ro\u00e7a, 95"},
{"city": "S\u00e3o Paulo\u00a0/\u00a0SP", "name": "COOPERATIVA CENTRAL TIETE", "district": "Tatuap\u00e9", "material": "Pl\u00e1stico, Metal, Papel, Vidro, Longa Vida, Tubo Dental, \u00d3leo", "postal_code": "03160000", "address": "AV; salin farah maluf , 179"},
{"city": "Santo Andr\u00e9\u00a0/\u00a0SP", "name": "Cooperativa Cidade Limpa", "district": "Pq. Gerassi", "material": "Pl\u00e1stico, Metal, Papel, Vidro, Longa Vida, Tubo Dental", "postal_code": "", "address": "Rua Fernando Costa, s/n"},
{"city": "Rio de Janeiro\u00a0/\u00a0RJ", "name": "Cooperativa Compromisso Ambiental", "district": "Barra da Tijuca", "material": "Pl\u00e1stico, Metal, Vidro, Longa Vida, Tubo Dental", "postal_code": "22280005", "address": "Rua Vitor Civita, 66"},
{"city": "Caraguatatuba\u00a0/\u00a0SP", "name": "Cooperativa Cooper Catatudo", "district": "Caputera", "material": "Pl\u00e1stico, Metal, Papel, Vidro, Longa Vida, Tubo Dental", "postal_code": "11662630", "address": "Rua 3, 121"},
{"city": "Ca\u00e7apava\u00a0/\u00a0SP", "name": "Cooperativa Coopercicle", "district": "Eldorado", "material": "Pl\u00e1stico, Papel, Vidro, Longa Vida, Tubo Dental", "postal_code": "12280000", "address": "Rua Engenheiro Agronomo N. F. Francisco, 20"},
{"city": "I\u00e7ara\u00a0/\u00a0SC", "name": "Cooperalian\u00e7a", "district": "Centro", "material": "Pl\u00e1stico, Papel, Vidro, Longa Vida, Tubo Dental", "postal_code": "88820000", "address": "Rua Ipiranga, 333"},
{"city": "Palmas\u00a0/\u00a0AC", "name": "Cooperan", "district": "", "material": "Eletr\u00f4nicos", "postal_code": "", "address": "Setor eco industrial de Palmas, regi\u00e3o sul"},
{"city": "S\u00e3o Jo\u00e3o de Mereti\u00a0/\u00a0RJ", "name": "CooperAngel", "district": "Jd Metropoles", "material": "Pl\u00e1stico, Metal, Papel, Vidro, Longa Vida, \u00d3leo", "postal_code": "25575089", "address": "R. Telefonica, 100"},
{"city": "Hortol\u00e2ndia\u00a0/\u00a0SP", "name": "COOPERAR - Cooperativa de Reciclagem Unidos Para Vender", "district": "Jd Rosol\u00e9m", "material": "Pl\u00e1stico, Metal, Papel, Longa Vida", "postal_code": "13185793", "address": "Rua Emma Frederici , 736"},
{"city": "Ararangu\u00e1\u00a0/\u00a0SC", "name": "COOPERAR - Cooperativa de Trabalho e Produ\u00e7\u00e3o dos Recicladores de Arar", "district": "Lago\u00e3o", "material": "Pl\u00e1stico, Metal, Papel, Vidro, Longa Vida, L\u00e2mpadas, Eletr\u00f4nicos", "postal_code": "88900000", "address": "Rodovia Municipal ARA 234, N\u00ba 515"},
{"city": "Arax\u00e1\u00a0/\u00a0MG", "name": "COOPERARE - Cooperativa dos Produtores de Materiais Recicl\u00e1veis de Ara", "district": "Fertiza", "material": "Pl\u00e1stico, Metal, Papel, Vidro, Longa Vida, Tecido, \u00d3leo", "postal_code": "38184200", "address": "Av. Jos\u00e9 Ananias de Aguiar, 1330"},
{"city": "Ararangu\u00e1\u00a0/\u00a0SC", "name": "COOPERATIVA", "district": "LAGO\u00c3O", "material": "Pl\u00e1stico, Metal, Papel, Vidro, Longa Vida, Tubo Dental", "postal_code": "88900000", "address": "Rod Municipal ARA234, 595, Lago\u00e3o"},
{"city": "Marechal Candido Rondon\u00a0/\u00a0PR", "name": "Cooperativa  de Agentes Ambientais (COOPERAGIR)", "district": "Centro", "material": "Pneu, Bateria, Tinta, L\u00e2mpadas, Borracha", "postal_code": "85960000", "address": "Rua Dom Jo\u00e3o V"},
{"city": "Rio de Janeiro\u00a0/\u00a0RJ", "name": "Cooperativa - COOPAMA", "district": "Maria da Gra\u00e7a", "material": "Pl\u00e1stico, Metal, Papel, Vidro, Longa Vida, Tubo Dental", "postal_code": "22471330", "address": "Rua Miguel Angelo, 385"},
{"city": "Bras\u00edlia\u00a0/\u00a0DF", "name": "Cooperativa 100 Dimens\u00e3o", "district": "Riacho Fundo II", "material": "Pl\u00e1stico, Metal, Papel, Vidro, Longa Vida, Borracha", "postal_code": "71771140", "address": "QN 14-D, Conjunto 3, Casa 2"},
{"city": "Sumar\u00e9\u00a0/\u00a0SP", "name": "Cooperativa Alian\u00e7a de Coleta e Manuseio de Recicl\u00e1veis S\u00e3o Judas Tade", "district": "Cond. Coronel", "material": "Pl\u00e1stico, Metal, Papel, Vidro, Longa Vida", "postal_code": "13180370", "address": "Rua S\u00e3o Sim\u00e3o, 536, Mat\u00e3o"},
{"city": "S\u00e3o Paulo\u00a0/\u00a0SP", "name": "Cooperativa Amantes da Natureza e recicla sampa", "district": "furnas", "material": "Pl\u00e1stico, Papel, Vidro, Longa Vida", "postal_code": "02352000", "address": "rua uschikik  kamya ,1055"},
{"city": "Barra Mansa\u00a0/\u00a0RJ", "name": "Cooperativa Ambiental", "district": "Saudade", "material": "Pl\u00e1stico, Metal, Papel, Vidro, Longa Vida, Tubo Dental", "postal_code": "25050510", "address": "Av. Homero Leite, 254"},
{"city": "Pelotas\u00a0/\u00a0RS", "name": "COOPERATIVA AMBIENTAL DE PRESTA\u00c7\u00c3O DE SERVI\u00c7OS E A\u00c7\u00c3O SOCIAL -COOPERBR", "district": "CENTRO", "material": "Pl\u00e1stico, Metal, Papel, Vidro", "postal_code": "96010150", "address": "RUA LOBO DA COSTA, 1274"},
{"city": "Cap\u00e3o Bonito\u00a0/\u00a0SP", "name": "Cooperativa Amiga dos Catadores de Materiais Recicl\u00e1veis", "district": "Guanabara", "material": "Pl\u00e1stico, Metal, Papel, Vidro, Longa Vida", "postal_code": "18300000", "address": "Rua Francisco Barreto n\u00ba 1364"},
{"city": "S\u00e3o Paulo\u00a0/\u00a0SP", "name": "Coop. Granja Julieta", "district": "Santo Amaro", "material": "Pl\u00e1stico, Metal, Papel, Vidro, Longa Vida", "postal_code": "", "address": "R. Carmo do Rio Verde, 553"},
{"city": "S\u00e3o Paulo\u00a0/\u00a0SP", "name": "COOPAMARE", "district": "Pinheiros", "material": "Pl\u00e1stico, Metal, Papel, Vidro, Longa Vida", "postal_code": "05410030", "address": "Rua Galeno de Almeida, 659"},
{"city": "NITEROI\u00a0/\u00a0RJ", "name": "COOPCANIT (COOPERATIVA DE CATADORES DE NITEROI )", "district": "CENTRO", "material": "Pl\u00e1stico, Metal, Papel, Pilha, Bateria, Vidro, Longa Vida, \u00d3leo, Eletr\u00f4nicos", "postal_code": "24210050", "address": "RUA PADRE ANCHIETA N\u00b072"},
{"city": "Mesquita\u00a0/\u00a0RJ", "name": "COOPCARMO - Reciclagem Comunit\u00e1ria Nossa Senhora do Carmo", "district": "Jacutinga", "material": "Pl\u00e1stico, Metal, Papel, Longa Vida", "postal_code": "26230180", "address": "Rua Guarani, 405"},
{"city": "Barra Mansa\u00a0/\u00a0RJ", "name": "COOPCAT - COOPERATIVA MISTA DOS CATADORES DE MATERIAIS RECICL\u00c1VEIS DE", "district": "Ano Bom", "material": "Pl\u00e1stico, Metal, Papel, Vidro, Longa Vida, Eletr\u00f4nicos", "postal_code": "27325002", "address": "Av. Presidente Kennedy - n\u00b0 3.050"},
{"city": "Diadema\u00a0/\u00a0SP", "name": "COOPCENT - ABC", "district": "", "material": "Pl\u00e1stico, Metal, Papel, Vidro, Longa Vida, Tecido, Eletr\u00f4nicos", "postal_code": "", "address": "R. Caracas, 35"},
{"city": "Salvador\u00a0/\u00a0BA", "name": "Coopcicla", "district": "Sete Portas", "material": "Pl\u00e1stico, Metal, Papel, Bateria, Vidro", "postal_code": "40300756", "address": "Ru Conego Pereira"},
{"city": "Santo Andr\u00e9\u00a0/\u00a0SP", "name": "COOPCICLA Cooperativa de Reciclagem de Santo Andr\u00e9", "district": "Pq. Gerassi", "material": "Pl\u00e1stico, Metal, Papel, Vidro, Longa Vida, Tubo Dental, Madeira", "postal_code": "09111660", "address": "Rua Fernando Costa, s/n"},
{"city": "Cubat\u00e3o\u00a0/\u00a0SP", "name": "coopcolre coop.trab.prof.serv.col.lixo recic.estado  de SP.", "district": "vila couto", "material": "Pl\u00e1stico, Papel, Bateria, Vidro, Longa Vida", "postal_code": "11500310", "address": "rua fernando costa, s/n"},
{"city": "Belo Horizonte\u00a0/\u00a0MG", "name": "COOPEMAR Oeste", "district": "Vale do Jatob\u00e1", "material": "Pl\u00e1stico, Metal, Papel, Vidro, Longa Vida", "postal_code": "30664000", "address": "Av. Solferina Ricci Pace, 1250"},
{"city": "Ouro Branco do Sul\u00a0/\u00a0MA", "name": "Cooper Branco. Cooperativa dos trabalhadores da Reciclagem de Ouro Bra", "district": "Ouro Branco", "material": "Pl\u00e1stico, Metal, Pneu, Papel, Pilha, Bateria, Vidro, Longa Vida, Tubo Dental, L\u00e2mpadas, Tecido, \u00d3leo, Mat\u00e9ria Org\u00e2nica, Eletr\u00f4nicos, Borracha", "postal_code": "", "address": "rua das andorinhas,q 18, l 13"},
{"city": "Goi\u00e2nia\u00a0/\u00a0GO", "name": "COOPER-RAMA - Cooperativa \"Reciclamos e Amamos o Meio Ambiente\"", "district": "Jd Curitiba III", "material": "Pl\u00e1stico, Metal, Papel, Vidro, Longa Vida", "postal_code": "", "address": "Rua JC 66 Qd.145 Lt.18"},
{"city": "S\u00e3o Paulo\u00a0/\u00a0SP", "name": "Cooperaacs- Cooperativa de Arte Alternativa e Coleta Seletiva", "district": "Bel\u00e9m", "material": "Pl\u00e1stico, Metal, Papel, Vidro, Longa Vida, Tubo Dental", "postal_code": "03175010", "address": "Rua Serra de Jair\u00e9 ,597"},
{"city": "S\u00e3o Paulo\u00a0/\u00a0SP", "name": "COOPERACAO - Vl. Leopoldina", "district": "Vila Leopoldina", "material": "Pl\u00e1stico, Metal, Papel, Pilha, Vidro, Longa Vida, Tubo Dental, Tecido, \u00d3leo, Madeira, Eletr\u00f4nicos", "postal_code": "05400000", "address": "Rua Froben, 101"},
{"city": "Cascavel\u00a0/\u00a0PR", "name": "COOPERAGE- Cooperativa de Agentes Ecol\u00f3gicos", "district": "Country", "material": "Pl\u00e1stico, Metal, Pneu, Papel, Vidro, Longa Vida", "postal_code": "85813-100", "address": "Rua Manaus, 1524"},
{"city": "Sapucaia do Sul\u00a0/\u00a0RS", "name": "BRASMERKO", "district": "Dihel", "material": "Metal", "postal_code": "93214030", "address": "Rua Bage, 103"},
{"city": "S\u00e3o Paulo\u00a0/\u00a0SP", "name": "C P C T B DE MAT. RECICL\u00c1VEIS MIGUEL YUNES", "district": "DISTRITO USINA PIRATININGA", "material": "Pl\u00e1stico, Metal, Papel, Pilha, Bateria, Vidro, Longa Vida, Tubo Dental, Eletr\u00f4nicos", "postal_code": "0444000", "address": "AV. MIGUEL YUNES, 347"},
{"city": "Lauro de Freitas\u00a0/\u00a0BA", "name": "CAEC - Lauro de Fretias", "district": "Caji", "material": "Pl\u00e1stico, Metal, Papel, Vidro, Longa Vida, Tubo Dental", "postal_code": "42700000", "address": "Rua Dr. Gerino de Souza Filho, s/n"},
{"city": "Salvador\u00a0/\u00a0BA", "name": "CAEC- Cooperativa de Catadores Agentes Ecol\u00f3gicos de Canabrava", "district": "", "material": "Pl\u00e1stico, Metal, Papel", "postal_code": "41253-070", "address": "Rua da Maurit\u00e2nia, s/n"},
{"city": "Manaus\u00a0/\u00a0AM", "name": "CALMA \u2013 Catadores Associados para Limpeza do Meio Ambiente", "district": "Gl\u00f3ria", "material": "Pl\u00e1stico, Metal, Papel, Vidro", "postal_code": "", "address": "Rua 1\u00ba de Julho, 216"},
{"city": "Salvador\u00a0/\u00a0BA", "name": "CAMAPET Cooperativa de coleta Seletiva, Processamento de Pl\u00e1stico e Pr", "district": "Baixa do fiscal", "material": "Pl\u00e1stico, Metal, Papel, Vidro", "postal_code": "40411560", "address": "Rua Luiz Maria s/n Armaz\u00e9m I do Galp\u00e3o da Leste"},
{"city": "Salvador\u00a0/\u00a0BA", "name": "CANORE", "district": "Santa Cruz", "material": "Pl\u00e1stico, Metal, Pneu, Papel, Pilha, Bateria, Vidro, Longa Vida, Tubo Dental, L\u00e2mpadas, \u00d3leo, Eletr\u00f4nicos, Borracha", "postal_code": "", "address": "Av. Nova Rep\u00fablica, 489"},
{"city": "Aracaju\u00a0/\u00a0SE", "name": "CARE - Cooperativa dos Agentes Aut\u00f4nomos de Reciclagem de Aracaju", "district": "bairro Santa Maria", "material": "Pl\u00e1stico, Metal, Papel, Vidro", "postal_code": "49037000", "address": "Rua A5, n\u00ba 150"},
{"city": "Curitiba\u00a0/\u00a0PR", "name": "CATAMARE - COOPERATIVA DE CATADORES DE MATERIAIS RECICL\u00c1VEIS CURITIBA", "district": "Rebou\u00e7as", "material": "Pl\u00e1stico, Metal, Papel, Vidro, Longa Vida", "postal_code": "80215010", "address": "R. Reinaldo Machado, 33"},
{"city": "Porto Velho\u00a0/\u00a0RO", "name": "CATANORTE - Cooperativa de Reciclagem de Catadores e Catadoras de Mate", "district": "Vila Princesa", "material": "Pl\u00e1stico, Papel", "postal_code": "76808695", "address": "Estrada da Rema, s/n\u00ba, km 11 da BR-364"},
{"city": "Manaus\u00a0/\u00a0AM", "name": "CDI AMAZ\u00d4NIA", "district": "Parque 10", "material": "Pl\u00e1stico, Metal, Pilha, Eletr\u00f4nicos", "postal_code": "69054702", "address": "Rua B n. 01 Shangri-la I"},
{"city": "Brasilia\u00a0/\u00a0DF", "name": "CENTCOOP \u2013 Central das Cooperativas de mat. recicl. do DF", "district": "", "material": "Pl\u00e1stico, Metal, Papel, Vidro", "postal_code": "70392900", "address": "SDS Ven\u00e2ncio II sala 511"},
{"city": "S\u00e3o Paulo\u00a0/\u00a0SP", "name": "Central de Triagem Nova Conquista", "district": "Itaim Paulista", "material": "Pl\u00e1stico, Metal, Papel, Vidro, Longa Vida, Tubo Dental, Mat\u00e9ria Org\u00e2nica", "postal_code": "08032010", "address": "Rua Cembira,1100"},
{"city": "S\u00e3o Bernardo do Campo\u00a0/\u00a0SP", "name": "Centro Comunit\u00e1rio Beneficiente e Cultura N. Sra. Aparecida", "district": "", "material": "Pl\u00e1stico, Metal, Papel, Vidro, Longa Vida", "postal_code": "09693-200", "address": "Av. Alvaro Alvim, 615"},
{"city": "Salvador\u00a0/\u00a0BA", "name": "Centro de Apoio Social aos Adolescentes e Idosos da Bahia", "district": "Santo Inacio-Mata Escura", "material": "Pl\u00e1stico, Pneu, Papel, Longa Vida, Borracha", "postal_code": "41219600", "address": "Avenida Cardeal Dom Avelar Brand\u00e3o Vilela n\u00ba 1049"},
{"city": "S\u00e3o Paulo\u00a0/\u00a0SP", "name": "ASSOCIA\u00c7\u00c3O DE TRANSFORMA\u00c7\u00c3O SOCIAL CRISTO JESUS", "district": "ERMELINO MATARAZZO", "material": "Pl\u00e1stico, Metal, Pneu, Papel, Vidro, Longa Vida, Eletr\u00f4nicos", "postal_code": "03804010", "address": "RUA RUBENS GALV\u00c3O DE FRAN\u00c7A,345"},
{"city": "Colatina\u00a0/\u00a0ES", "name": "Associa\u00e7\u00e3o dos Agentes Ambientais  de Colatina - ARECICOL", "district": "Marista", "material": "Pl\u00e1stico, Metal, Papel, Vidro, Longa Vida, Tubo Dental", "postal_code": "29707130", "address": "Rua Benjamim Costa, 105"},
{"city": "Dourados\u00a0/\u00a0MS", "name": "Associa\u00e7\u00e3o dos Agentes Ecol\u00f3gicos de Dourados-AGECOLD", "district": "Vila Sulmat", "material": "Pl\u00e1stico, Metal, Papel, Vidro, Longa Vida", "postal_code": "79810120", "address": "RUA PEDRO RIGOTTI,1461"},
{"city": "Bras\u00edlia\u00a0/\u00a0DF", "name": "Associa\u00e7\u00e3o dos Artes\u00e3os do Meio Ambiente", "district": "Asa Norte", "material": "Pl\u00e1stico, Metal, Papel, Vidro, Longa Vida, Tubo Dental", "postal_code": "71680370", "address": "SCLN 302 bolco E loja 3"},
{"city": "Gravata\u00ed\u00a0/\u00a0RS", "name": "Associa\u00e7\u00e3o dos Carroceiros e Catadores de Material Recicl\u00e1vel", "district": "Estrada Henrique Closs", "material": "Pl\u00e1stico, Metal, Papel, Vidro, Tubo Dental", "postal_code": "94710070", "address": "Rua Pedro Vaz de Caminha , 125"},
{"city": "PAINS\u00a0/\u00a0MG", "name": "ASSOCIA\u00c7\u00c3O DOS CATADORES AMIGOS DE PAINS - ACAP", "district": "CENTRO", "material": "Pl\u00e1stico, Metal, Papel, Vidro, Tubo Dental, \u00d3leo, Madeira", "postal_code": "35582000", "address": "RUA JOS\u00c9 VELOSO, 22"},
{"city": "S\u00e3o Jos\u00e9 do Vale do Rio Preto\u00a0/\u00a0RJ", "name": "Associa\u00e7\u00e3o dos Catadores das Pedras Brancas", "district": "Pedras Brancas", "material": "Pl\u00e1stico, Metal, Pneu, Papel, Pilha, Vidro, Longa Vida, L\u00e2mpadas, Mat\u00e9ria Org\u00e2nica, Borracha", "postal_code": "25780000", "address": "Rua Waldomiro de Souza, 27, Pedras brancas"},
{"city": "Aruj\u00e1\u00a0/\u00a0SP", "name": "Associa\u00e7\u00e3o dos Catadores de Aruj\u00e1 e Regi\u00e3o - \"CORA A\u00e7\u00e3o e Cidadania\"", "district": "CENTRO RESIDENCIAL", "material": "Pl\u00e1stico, Metal, Papel, Vidro, Longa Vida, Tubo Dental, \u00d3leo, Eletr\u00f4nicos, Borracha", "postal_code": "07400000", "address": "RUA ANA MARIA MOREIRA CORONADO, N\u00ba 80"},
{"city": "Luiz Antonio\u00a0/\u00a0SP", "name": "Associa\u00e7\u00e3o dos Catadores de Luiz Antonio", "district": "Jd Santa Sofia", "material": "Pl\u00e1stico, Metal, Pneu, Papel, Pilha, Bateria, Vidro, Longa Vida, Tubo Dental, Tinta, L\u00e2mpadas, \u00d3leo, Eletr\u00f4nicos, Borracha", "postal_code": "14210000", "address": "Rua Rio Grande do Norte-240"},
{"city": "Curitiba\u00a0/\u00a0PR", "name": "Associa\u00e7\u00e3o dos Catadores de Mat. Rec. Natureza Livre", "district": "Uberaba", "material": "Pl\u00e1stico, Metal, Papel, Vidro, Longa Vida", "postal_code": "81580000", "address": "Av. Senador Salgado Filho, 7403/7482"},
{"city": "Curitiba\u00a0/\u00a0PR", "name": "Associa\u00e7\u00e3o dos Catadores de Mat. Recicl. MUTIR\u00c3O", "district": "Bairro Novo", "material": "Pl\u00e1stico, Metal, Papel, Vidro, Longa Vida", "postal_code": "81920710", "address": "R. Ana Biscaia de Andrade, 92"},
{"city": "Curitiba\u00a0/\u00a0PR", "name": "Associa\u00e7\u00e3o dos Catadores de Mat. Recicl\u00e1veis NOVO Amanhecer", "district": "CIC", "material": "Pl\u00e1stico, Metal, Papel, Vidro, Longa Vida", "postal_code": "81350080", "address": "R. Luiz Valenza, 163"},
{"city": "Curitiba\u00a0/\u00a0PR", "name": "Associa\u00e7\u00e3o dos Catadores de Mat. Recicl\u00e1veis Sociedade Barrac\u00e3o", "district": "Boquier\u00e3o", "material": "Pl\u00e1stico, Metal, Papel, Vidro, Longa Vida", "postal_code": "81650120", "address": "R. O Brasil Para Cristo, 751"},
{"city": "Curitiba\u00a0/\u00a0PR", "name": "Associa\u00e7\u00e3o dos Catadores de Materiais Recicl\u00e1veis \u00c1gua Nascente", "district": "Boqueir\u00e3o - Vila Pantanal", "material": "Pl\u00e1stico, Metal, Papel, Vidro, Longa Vida", "postal_code": "", "address": "R. Maestro Carlos Frank, 704"},
{"city": "Curitiba\u00a0/\u00a0PR", "name": "Associa\u00e7\u00e3o dos Catadores de Materiais Recicl\u00e1veis Amigos da Natureza", "district": "Pinheirinho", "material": "Pl\u00e1stico, Metal, Papel, Vidro, Longa Vida", "postal_code": "", "address": "R. Durval Jungles, 242"},
{"city": "Canoas\u00a0/\u00a0RS", "name": "COOARLAS", "district": "Parque S\u00e3o Jos\u00e9", "material": "Pl\u00e1stico, Metal, Papel, Vidro, Longa Vida", "postal_code": "92000000", "address": "Rua Bela Vista, 14"},
{"city": "Feira de Santana\u00a0/\u00a0BA", "name": "COOBAFS - Cooperativa dos Badameiros de Feira de Santana", "district": "", "material": "Pl\u00e1stico, Metal, Papel, Vidro", "postal_code": "44100000", "address": "Av. Jo\u00e3o Durval Carneiro, 3311A"},
{"city": "Oieras\u00a0/\u00a0PI", "name": "Coocarel - Cooperativa dos Catadores e recicladores de lixo de Oeiras", "district": "Centro", "material": "Pl\u00e1stico, Metal, Papel, Vidro, Longa Vida", "postal_code": "64500000", "address": "Avenida Abdias Neves, 408"},
{"city": "Assis\u00a0/\u00a0SP", "name": "Coocassis - Cooperativa de catadores de materiais reciclaveis de Assis", "district": "parque universitario", "material": "Pl\u00e1stico, Metal, Papel, Bateria, Vidro, Longa Vida, \u00d3leo, Eletr\u00f4nicos", "postal_code": "19806700", "address": "av mario de vito 594"},
{"city": "Cora\u00e7\u00e3o de Maria\u00a0/\u00a0BA", "name": "Cooempo - Cooperativa de Empreendedores Populares", "district": "centro", "material": "Pl\u00e1stico, Metal, Papel, Vidro", "postal_code": "", "address": "Pra Dr. Araujo Pinho, 14"},
{"city": "S\u00e3o Carlos\u00a0/\u00a0SP", "name": "Cooletiva", "district": "Centro", "material": "Pl\u00e1stico, Metal, Papel", "postal_code": "13572-000", "address": "Rua Jucelino Kubitchek, SN"},
{"city": "Ribeir\u00e3o das Neves\u00a0/\u00a0MG", "name": "Coomarrin", "district": "Status", "material": "Pl\u00e1stico, Metal, Papel, Vidro", "postal_code": "", "address": "R. Jo\u00e3o Lelis Nogueira Filho"},
{"city": "ABAETETUBA\u00a0/\u00a0PA", "name": "COOMCLIMA - COOP. DE CATADORES DE MAT. RECICL\u00c1VEL DE ABAETETUBA", "district": "ZONA RURAL", "material": "Pl\u00e1stico, Metal, Papel, \u00d3leo, Mat\u00e9ria Org\u00e2nica", "postal_code": "68440000", "address": "ROD. DR. JO\u00c3O MIRANDA KM 11"},
{"city": "PARAUAPEBAS\u00a0/\u00a0PA", "name": "COOMTRESP", "district": "", "material": "Pl\u00e1stico, Metal, Pneu, Papel, Pilha, Bateria, Vidro, Longa Vida, Tubo Dental, L\u00e2mpadas, Tecido, Eletr\u00f4nicos, Borracha", "postal_code": "68515000", "address": ""},
{"city": "Mesquita\u00a0/\u00a0RJ", "name": "COOMUB - Cooperativa Popular de Reciclagem e Servi\u00e7os Mulheres da Baix", "district": "Rocha Sobrinho", "material": "Pl\u00e1stico, Metal, Papel, Vidro, Longa Vida", "postal_code": "26572481", "address": "R. Coelho da Rocha, 2500"},
{"city": "Bahia\u00a0/\u00a0BA", "name": "COOP - Catadores de Material Reciclaveis de Barreiras e Regi\u00e3o Oeste", "district": "Barreiras", "material": "Pl\u00e1stico, Metal, Papel, Vidro, Longa Vida, Tubo Dental", "postal_code": "47805250", "address": "Rua das Varzeas, 497"},
{"city": "Guarulhos\u00a0/\u00a0SP", "name": "Coop - Recicl\u00e1vel", "district": "Jardim Novo Portugal", "material": "Pl\u00e1stico, Metal, Papel, Vidro, Longa Vida", "postal_code": "07160670", "address": "Rua Benfica, 15 casa 2"},
{"city": "Barreiras\u00a0/\u00a0BA", "name": "Coop Catadores de Material Reciclavel de Barreiras e Regi\u00e3o Oeste", "district": "Centro", "material": "Pl\u00e1stico, Metal, Papel, Vidro, Longa Vida, Tubo Dental", "postal_code": "47805250", "address": "Rua das Varzeas, 497"},
{"city": "Rio de Janeiro\u00a0/\u00a0RJ", "name": "coop novo rio", "district": "parque tiete", "material": "Pl\u00e1stico, Metal, Pneu, Papel, Pilha, Bateria, Vidro, Longa Vida, Tubo Dental, \u00d3leo, Eletr\u00f4nicos, Borracha", "postal_code": "25581060", "address": "rua iguaba lote 10 quadra 02"},
{"city": "Salvador\u00a0/\u00a0BA", "name": "Coop. de Reciclagem e Servi\u00e7os do Sub\u00farbio |Ferrovi\u00e1rio", "district": "Ilha Amarela", "material": "Pl\u00e1stico, Metal, Papel, Vidro, Longa Vida", "postal_code": "40715290", "address": "Rua Boa Esperanca de Ilha Amarela 84"},
{"city": "Viam\u00e3o\u00a0/\u00a0RS", "name": "Associa\u00e7\u00e3o dos recicladores de Viam\u00e3o", "district": "Meandanha, parada 56", "material": "Pl\u00e1stico, Metal, Pneu, Papel, Longa Vida, \u00d3leo, Madeira, Borracha", "postal_code": "94410500", "address": "Av.Meandanha, 70."},
{"city": "Vi\u00e7osa\u00a0/\u00a0MG", "name": "Associa\u00e7\u00e3o dos Trabalhadores da Usina de Triagem e Reciclagem", "district": "Vi\u00e7osa/Coimbra", "material": "Pl\u00e1stico, Metal, Pneu, Papel, Pilha, Bateria, Vidro, Longa Vida, Tubo Dental, Tinta, L\u00e2mpadas, Tecido, Madeira, Eletr\u00f4nicos, Borracha", "postal_code": "35570000", "address": "BR 120Km, 06"},
{"city": "Manaus\u00a0/\u00a0AM", "name": "ASSOCIA\u00c7\u00c3O DOS TRABALHADORES DESEMPREGADOS E EXCLUIDOS DO ESTADO DO AM", "district": "Pq. DAS LARANJEIRAS - III ETAPA", "material": "Papel, Bateria, Vidro, Longa Vida, Eletr\u00f4nicos", "postal_code": "69058581", "address": "R. BARAO DO RIO BRANCO, 02"},
{"city": "Joinville\u00a0/\u00a0SC", "name": "Associa\u00e7\u00e3o Ecol\u00f3gica dos Catadores e Recicladores de Joinville", "district": "Aventureiro", "material": "Pl\u00e1stico, Metal, Papel, Vidro, Longa Vida, Tubo Dental", "postal_code": "89225795", "address": "Avenida Miguel Alves Castanha, 359"},
{"city": "Viam\u00e3o\u00a0/\u00a0RS", "name": "Associa\u00e7\u00e3o Ecol\u00f3gica Passo  Dorneles", "district": "Vila Augusta Maneguini", "material": "Pl\u00e1stico, Metal, Papel, Vidro, Longa Vida", "postal_code": "94510-020", "address": "Rua Osvaldo de Godoy Gomes, 436"},
{"city": "Mesquita\u00a0/\u00a0RJ", "name": "Associa\u00e7\u00e3o Esperan\u00e7a de Trabalhadores Coletores de Recicl\u00e1veis de Mesq", "district": "Santo Elias", "material": "Pl\u00e1stico, Metal, Papel, Longa Vida, \u00d3leo", "postal_code": "26560543", "address": "Rua Josefina 489"},
{"city": "Severinia\u00a0/\u00a0SP", "name": "Associacao Grupo Amigos Voluntarios de Severinia", "district": "Cohab 04", "material": "Pilha", "postal_code": "14735000", "address": "Rua Joao Molina Romero 76"},
{"city": "Porto Alegre\u00a0/\u00a0RS", "name": "Associa\u00e7\u00e3o MDM", "district": "Centro", "material": "Pl\u00e1stico, Metal, Papel, Pilha, Bateria, Vidro, Longa Vida, Tubo Dental, L\u00e2mpadas, Tecido, Madeira, Eletr\u00f4nicos", "postal_code": "90810240", "address": "Rua Padre Cacique, 1391"},
{"city": "Recife\u00a0/\u00a0PE", "name": "associa\u00e7\u00e3o meio ambiente preservar e educar", "district": "PO\u00c7O", "material": "Pl\u00e1stico, Metal, Papel, Vidro, Longa Vida, Tubo Dental", "postal_code": "52061020", "address": "Rua Eng. Oscar Ferreira,338 - Po\u00e7o."},
{"city": "S\u00e3o Caetano do Sul\u00a0/\u00a0SP", "name": "Associa\u00e7\u00e3o Politeuo", "district": "Santa Paula", "material": "Pl\u00e1stico, Metal, Papel, Vidro, Eletr\u00f4nicos", "postal_code": "09541100", "address": "Rua S\u00e3o Paulo, 1479"},
{"city": "S\u00e3o Bernardo do Campo\u00a0/\u00a0SP", "name": "Associa\u00e7\u00e3o Raio de Luz", "district": "Vivaldi", "material": "Pl\u00e1stico, Metal, Papel, Bateria, Vidro, Longa Vida", "postal_code": "09632-050", "address": "Rua Guilherme de Almeida , 150"},
{"city": "S\u00e3o Bernardo do Campo\u00a0/\u00a0SP", "name": "Associa\u00e7\u00e3o Refazendo", "district": "Bairro Assun\u00e7\u00e3o", "material": "Pl\u00e1stico, Metal, Papel, Vidro", "postal_code": "", "address": "Rua Batu\u00edra, 256"},
{"city": "Porto Alegre\u00a0/\u00a0RS", "name": "Associa\u00e7\u00e3o S\u00e3o Pedro Cidad\u00e3o", "district": "Partenon", "material": "Pl\u00e1stico, Metal, Papel, Vidro, Longa Vida", "postal_code": "90650-001", "address": "Rua Bento Gon\u00e7alves , 2440"},
{"city": "Arauc\u00e1ria\u00a0/\u00a0PR", "name": "Associa\u00e7\u00e3o de Materiais Recicl\u00e1veis Verde Vida", "district": "Esta\u00e7\u00e3o", "material": "Pl\u00e1stico, Metal, Papel", "postal_code": "83705250", "address": "Rua Ot\u00e1vio Munhores Santiago, 295"},
{"city": "Goiania\u00a0/\u00a0GO", "name": "Associa\u00e7\u00e3o de Material Recicl\u00e1vel Beija Flor", "district": "setor crim\u00e9ia oeste", "material": "Pl\u00e1stico, Metal, Papel, Bateria, Vidro, Longa Vida, Tubo Dental, L\u00e2mpadas, \u00d3leo", "postal_code": "74563230", "address": "Rua J\u00f5ao Luiz de Almeida qd 05 lot 11/12"},
{"city": "Porto Alegre\u00a0/\u00a0RS", "name": "Associa\u00e7\u00e3o de Mulheres Papeleiras", "district": "", "material": "Pl\u00e1stico, Metal, Papel, Vidro, Longa Vida", "postal_code": "90030-040", "address": "Rua Coronel Vicente, 444/30"},
{"city": "Caxias do Sul\u00a0/\u00a0RS", "name": "Associa\u00e7\u00e3o de Recicladores Arca", "district": "Consola\u00e7\u00e3o", "material": "Pl\u00e1stico, Metal, Papel, Vidro, Longa Vida, Tubo Dental", "postal_code": "95095440", "address": "Rua Valter Carlos Afonso, 591"},
{"city": "Bento Gon\u00e7alves\u00a0/\u00a0RS", "name": "Associa\u00e7\u00e3o de Recicladores Chico Mendes", "district": "", "material": "Pl\u00e1stico, Metal, Papel, Vidro", "postal_code": "95700-000", "address": "Rua Jos\u00e9 Pozzamai, 34"},
{"city": "Caxias do Sul\u00a0/\u00a0RS", "name": "Associa\u00e7\u00e3o de Recicladores Consola\u00e7\u00e3o", "district": "Consola\u00e7\u00e3o", "material": "Pl\u00e1stico, Metal, Papel, Vidro, Longa Vida, Tubo Dental", "postal_code": "95095440", "address": "Rua Ernesto Schimit, 251"},
{"city": "Charqueadas\u00a0/\u00a0RS", "name": "ASSOCIA\u00c7\u00c3O DE RECICLADORES DE CHARQUEADAS", "district": "Distrito Industrial", "material": "Pl\u00e1stico, Metal, Papel, Longa Vida", "postal_code": "", "address": "Rua Projetada S/N"},
{"city": "Tr\u00eas Pontas\u00a0/\u00a0MG", "name": "Associa\u00e7\u00e3o Trespontana de Catadores de Materiais Recicl\u00e1veis - ATREMAR", "district": "", "material": "Pl\u00e1stico, Metal, Papel, Vidro, Longa Vida", "postal_code": "", "address": "Av. Pref. Nilson Vilela, 1188"},
{"city": "Campo Largo\u00a0/\u00a0PR", "name": "Associa\u00e7\u00e3o Unidos da Reciclagem - ASSUR", "district": "Bom Jesus", "material": "Pl\u00e1stico, Metal, Papel, Vidro", "postal_code": "", "address": "Rodovia BR 277 Km 25 n.\u00ba 608"},
{"city": "Bento Gon\u00e7alves\u00a0/\u00a0RS", "name": "Associa\u00e7\u00e3o de Recicladores Jardim Gl\u00f3ria", "district": "Gl\u00f3ria", "material": "Pl\u00e1stico, Metal, Papel, Vidro, Longa Vida", "postal_code": "95700-000", "address": "Rua Jos\u00e9 de Gaspari, 90"},
{"city": "Palmeira\u00a0/\u00a0PR", "name": "Associa\u00e7\u00e3o de Recicladores Nossa Senhora do Rocio", "district": "Rocio II", "material": "Pl\u00e1stico, Metal, Papel, Vidro", "postal_code": "84130000", "address": "Rua Nair Alves Ramos, s/n"},
{"city": "Caxias do Sul\u00a0/\u00a0RS", "name": "Associa\u00e7\u00e3o de Recicladores Nova Manh\u00e3", "district": "Desvio Rizzo", "material": "Metal, Papel, Vidro, Longa Vida, Tubo Dental, Madeira", "postal_code": "95110440", "address": "Rua das Rosas, 1485"},
{"city": "Caxias do Sul\u00a0/\u00a0RS", "name": "Associa\u00e7\u00e3o de Recicladores Reolon", "district": "Reolon", "material": "Pl\u00e1stico, Metal, Papel, Vidro, Longa Vida, Tubo Dental", "postal_code": "95032300", "address": "Travess\u00e3o Thompsom Flores, 330"},
{"city": "Caxias do Sul\u00a0/\u00a0RS", "name": "Associa\u00e7\u00e3o de Recicladores Serrano", "district": "Serrano", "material": "Pl\u00e1stico, Metal, Papel, Vidro, Longa Vida", "postal_code": "95041-000", "address": "Travess\u00e3o Leopoldina, 1303"},
{"city": "Uni\u00e3o da Vit\u00f3ria\u00a0/\u00a0PR", "name": "Associa\u00e7\u00e3o de Reciclagem", "district": "", "material": "Pl\u00e1stico, Metal, Papel, Bateria, Vidro, Longa Vida", "postal_code": "84600-000", "address": "Rua das Orqu\u00eddeas, 110"},
{"city": "petrolandia\u00a0/\u00a0PE", "name": "Associa\u00e7\u00e3o de Reciclagem Biologica", "district": "qd 08", "material": "Pl\u00e1stico, Pneu, Papel, Vidro", "postal_code": "56460000", "address": "AV SABINO COSTA 400"},
{"city": "Porto Alegre\u00a0/\u00a0RS", "name": "Associa\u00e7\u00e3o de Reciclagem Ecol\u00f4gica  Rubem Berta", "district": "", "material": "Pl\u00e1stico, Papel, Vidro, Longa Vida", "postal_code": "91250330", "address": "Estrada Ant\u00f4nio Severino, 1317, Rubem Berta"},
{"city": "Recife\u00a0/\u00a0PE", "name": "Centro de Articulacao Retome sua Vida", "district": "Boa Vista", "material": "Pl\u00e1stico, Metal, Papel, Vidro", "postal_code": "50070550", "address": "Rua dos Coelhos 317 (sede)"},
{"city": "campo largo\u00a0/\u00a0PR", "name": "centro de integra\u00e7ao ao menor", "district": "aguas claras", "material": "Pl\u00e1stico, Metal, Papel", "postal_code": "83602160", "address": "r jose de paiva vidal 2800"},
{"city": "Londrina\u00a0/\u00a0PR", "name": "CEPEVE Central de Pesagem e Vendas das ONG\u00b4s de Londrina", "district": "Vila Brasil", "material": "Pl\u00e1stico, Metal, Papel, Vidro, Longa Vida", "postal_code": "86010-000", "address": "Rua Paraguai, 709"},
{"city": "Afogados da Ingazeira\u00a0/\u00a0PE", "name": "CERALPA", "district": "Barra", "material": "Pl\u00e1stico, Metal, Papel, Bateria, Vidro", "postal_code": "", "address": "PE 320 s/m km 1"},
{"city": "Foz do Igua\u00e7u\u00a0/\u00a0PR", "name": "COAAFI -Centro de Triagem do Porto Belo", "district": "Aterro Sanit\u00e1rio Porto Belo", "material": "Pl\u00e1stico, Metal, Papel, Vidro, Longa Vida, \u00d3leo", "postal_code": "85867500", "address": "R. Angela Aparecida de Andrade , 271"},
{"city": "Queimados\u00a0/\u00a0RJ", "name": "COARE-QM Cooperativa de Coleta Seletiva Aproveitamento de Residuos S\u00f3o", "district": "Vila Camarim", "material": "Pl\u00e1stico, Metal, Pneu, Papel, Vidro, Longa Vida, Tubo Dental, \u00d3leo, Madeira, Mat\u00e9ria Org\u00e2nica, Borracha", "postal_code": "26385020", "address": "Av. Plinio Giosa, n\u00ba 300"},
{"city": "Nova Esperan\u00e7a\u00a0/\u00a0PR", "name": "Cocamare", "district": "vila gar\u00e7a", "material": "Pl\u00e1stico, Metal, Papel, Vidro, Longa Vida", "postal_code": "87600000", "address": "rua doutor murici -306"},
{"city": "Apucarana\u00a0/\u00a0PR", "name": "COCAP - Cooperativa de Catadores de Materiais Recicl\u00e1veis de Apucarana", "district": "Barra Funda", "material": "Pl\u00e1stico, Metal, Papel, Bateria, Longa Vida", "postal_code": "86800580", "address": "Travessa Palmeiras, 111"},
{"city": "Santos\u00a0/\u00a0SP", "name": "COLLIS - Cooperartiva do Lixo Limpo Santista", "district": "Jardim", "material": "Pl\u00e1stico, Metal, Papel, Vidro, Longa Vida", "postal_code": "11080-680", "address": "Av. Alvaro Guimar\u00e3es, 83"},
{"city": "Itu\u00a0/\u00a0SP", "name": "COMAREI - Cooperativa de Materiais Recicl\u00e1veis de Itu", "district": "Jd. S\u00e3o Judas Tadeu", "material": "Pl\u00e1stico, Metal, Papel, Vidro, Longa Vida, Tubo Dental, L\u00e2mpadas, \u00d3leo, Madeira, Eletr\u00f4nicos", "postal_code": "13300000", "address": "R.Astro Sintra, 80"},
{"city": "S\u00e3o Vicente\u00a0/\u00a0SP", "name": "Comares Cooperativa de Catadores de S\u00e3o Vicente", "district": "Vila S\u00e3o Jorge", "material": "Pl\u00e1stico, Metal, Pneu, Papel, Pilha, Bateria, Vidro, Longa Vida, Eletr\u00f4nicos, Borracha", "postal_code": "11380220", "address": "Av Divis\u00f3ria n\u00ba.358"},
{"city": "Belo Horizonte\u00a0/\u00a0MG", "name": "COMARP (Comunidade Associada para Reciclagem na Pampulha)", "district": "S\u00e3o Francisco", "material": "Pl\u00e1stico, Metal, Papel, Vidro, Longa Vida", "postal_code": "", "address": "R. Caldas da Rainha, 2083"},
{"city": "Rio de janeiro\u00a0/\u00a0RJ", "name": "comitra", "district": "Bangu", "material": "Pl\u00e1stico, Papel, \u00d3leo", "postal_code": "21854002", "address": "Guandu do Sena 5540"},
{"city": "Rio de janeiro\u00a0/\u00a0RJ", "name": "Comitra", "district": "Bangu", "material": "Pl\u00e1stico, Metal, Pneu, Papel, Pilha, Bateria, Vidro, Longa Vida, Tubo Dental, Tinta, \u00d3leo, Madeira, Eletr\u00f4nicos, Borracha", "postal_code": "21854002", "address": "estrada guandu do sena,5540 casa 3"},
{"city": "Petr\u00f3polis\u00a0/\u00a0RJ", "name": "Comunidade Esperan\u00e7a Sociedade e Reciclagem", "district": "Centro", "material": "Pl\u00e1stico, Papel, Vidro, Longa Vida, Tubo Dental", "postal_code": "25615002", "address": "Rua Casimiro de Abreu, 272"},
{"city": "Salvador\u00a0/\u00a0BA", "name": "Associa\u00e7\u00e3o Comunit\u00e1ria Tenda de Olorum", "district": "Massaranduba", "material": "Pl\u00e1stico, Papel", "postal_code": "40035-070", "address": "Rua Lopes Trov\u00e3o, 111 c"},
{"city": "Porto Alegre\u00a0/\u00a0RS", "name": "Associa\u00e7\u00e3o Crist\u00f3v\u00e3o Colombo", "district": "Floresta", "material": "Pl\u00e1stico, Metal, Pneu, Papel, Longa Vida, L\u00e2mpadas, Mat\u00e9ria Org\u00e2nica", "postal_code": "90220060", "address": "Rua C\u00e2ncio Gomes, 786"},
{"city": "Palmeiras\u00a0/\u00a0BA", "name": "Associa\u00e7\u00e3o cultural e socioambientalvelhochico", "district": "campos de s\u00e3o jo\u00e3o", "material": "Pl\u00e1stico, Metal, Papel", "postal_code": "", "address": "vl de campos de s\u00e3o jo\u00e3o 20"},
{"city": "Paula Freitas\u00a0/\u00a0PR", "name": "Associa\u00e7\u00e3o de Agentes Ecol\u00f3gicos Recicladores ECOSUL", "district": "Centro", "material": "Pl\u00e1stico, Metal, Papel, Pilha, Bateria, Vidro, Longa Vida", "postal_code": "84630-000", "address": "Rua Padre Justino Pacionista, 569"},
{"city": "Santos\u00a0/\u00a0SP", "name": "Associa\u00e7\u00e3o de Carrinheiros de Santos", "district": "Paquet\u00e1", "material": "Metal, Papel, Vidro", "postal_code": "11013-152", "address": "Rua Amador Buento,4466"},
{"city": "Ananindeua\u00a0/\u00a0PA", "name": "Associa\u00e7\u00e3o de Catadores Aguas Lindas", "district": "\u00c1guas Lindas", "material": "Pl\u00e1stico, Metal, Papel", "postal_code": "67118120", "address": "Rua Benedito 51"},
{"city": "Guarapari\u00a0/\u00a0ES", "name": "Associa\u00e7\u00e3o de Catadores de Materiais de Guarapari  - ASCAMARGE", "district": "Marista", "material": "Pl\u00e1stico, Metal, Papel, Vidro, Longa Vida, Tubo Dental", "postal_code": "29707130", "address": "Rua 11 s/n"},
{"city": "Nova Esperan\u00e7a\u00a0/\u00a0PR", "name": "Associa\u00e7\u00e3o de Catadores de Materiais Recicl\u00e1veis", "district": "Centro", "material": "Pl\u00e1stico, Metal, Pneu, Papel, Vidro, Longa Vida", "postal_code": "87600-000", "address": "Rua Dr. Murici, s/n"},
{"city": "Iju\u00ed\u00a0/\u00a0RS", "name": "Associa\u00e7\u00e3o de Catadores de Materiais Reciclaveis de Iju\u00ed", "district": "luiz Fogliato", "material": "Pl\u00e1stico, Metal, Papel", "postal_code": "98700000", "address": "Rua Afranioi Peixoto ; N\u00ba294"},
{"city": "Porci\u00fancula\u00a0/\u00a0RJ", "name": "Associa\u00e7\u00e3o de Catadores de Materiais Recicl\u00e1veis de Porci\u00fancula", "district": "", "material": "Pl\u00e1stico, Metal, Papel, Vidro", "postal_code": "", "address": "Estrada da Barra, Km4"},
{"city": "Pouso Alegre\u00a0/\u00a0MG", "name": "Associa\u00e7\u00e3o de Catadores de Materiais Recicl\u00e1veis de Pouso Alegre", "district": "Morumbi", "material": "Pl\u00e1stico, Pneu, Papel, Pilha, Vidro, Longa Vida, L\u00e2mpadas", "postal_code": "37550000", "address": "Rua Jos\u00e9 Nunes Maia, 140"},
{"city": "Nova Friburgo\u00a0/\u00a0RJ", "name": "Associa\u00e7\u00e3o de Catadores de Nova Friburgo", "district": "Centro", "material": "Pl\u00e1stico, Metal, Papel, Vidro, Longa Vida", "postal_code": "28613-001", "address": "Av. Alberto Braune, 113"},
{"city": "Rio Grande\u00a0/\u00a0RS", "name": "Associa\u00e7\u00e3o de Catadores e Separadores de Lixo de Rio Grande", "district": "Centro", "material": "Pl\u00e1stico, Metal, Papel, Vidro, Longa Vida, Tubo Dental, Madeira", "postal_code": "96202600", "address": "Rua Lino Neves, 790"},
{"city": "Recife\u00a0/\u00a0PE", "name": "Associa\u00e7\u00e3o de Catadores o verde \u00e9 a nossa vida", "district": "Imbiribeira", "material": "Pl\u00e1stico, Metal, Pneu, Papel, Vidro, Longa Vida, Tubo Dental, \u00d3leo, Madeira, Borracha", "postal_code": "51160400", "address": "Rua Alameda das Hort\u00eansias"},
{"city": "Paracatu\u00a0/\u00a0MG", "name": "Associa\u00e7\u00e3o de Catadores Paracatu Recicla", "district": "", "material": "Pl\u00e1stico, Metal, Papel, Bateria, Vidro, Longa Vida", "postal_code": "", "address": "Rua Manoel Caetano, 323"},
{"city": "Belo Horizonte\u00a0/\u00a0MG", "name": "ASMARE - Associa\u00e7\u00e3o dos Catadores de Papel, Papel\u00e3o e Material Reaprov", "district": "", "material": "Pl\u00e1stico, Metal, Papel, Bateria, Vidro, Longa Vida", "postal_code": "30110-140", "address": "Av Contorno, 10555"},
{"city": "Araruama\u00a0/\u00a0RJ", "name": "ASPERGILUS", "district": "Centro", "material": "Papel", "postal_code": "28970-000", "address": "Av. Nilo Pe\u00e7anha, 384"},
{"city": "Caruaru\u00a0/\u00a0PE", "name": "ASPROMA - Associa\u00e7\u00e3o dos Protetores do Meio Ambiente", "district": "Kennedy", "material": "Pl\u00e1stico, Papel, Vidro, Longa Vida", "postal_code": "55036-525", "address": "Rua Dom Augusto Carvalho, s/n - Vila Diocesana"},
{"city": "PORTO VELHO\u00a0/\u00a0RO", "name": "ASPROVEL", "district": "TIRADENTES", "material": "Pl\u00e1stico", "postal_code": "78919290", "address": "RUA OSVALDO MOURA N7775"},
{"city": "S\u00e3o Jos\u00e9 do Rio Pardo\u00a0/\u00a0SP", "name": "Ass. Catadores S\u00e3o Jos\u00e9 Recicla", "district": "", "material": "Pl\u00e1stico, Metal, Papel, Vidro, Longa Vida", "postal_code": "", "address": "Sitio Brejinho, km350"},
{"city": "Brasil\u00e2ndia\u00a0/\u00a0MS", "name": "ASSOBRA- Associa\u00e7\u00e3o Brasilandense de Agentes Ambientais", "district": "", "material": "Pl\u00e1stico, Metal, Papel, Bateria, Vidro, Longa Vida", "postal_code": "79670000", "address": "Av. S\u00e3o Jos\u00e9, 145 J.A"},
{"city": "Esp\u00edrito Santo do Pinhal\u00a0/\u00a0SP", "name": "Assoc. Catad. Mater. Rec. Esp\u00edrito Santo do Pinhal", "district": "Distrito Industrial", "material": "Pl\u00e1stico, Metal, Papel, Vidro", "postal_code": "", "address": "Rodovia SP 342 km 199"},
{"city": "Serra Talhada\u00a0/\u00a0PE", "name": "Assoc. Comunit\u00e1ria Desenv. Ambiental e Social Serra Talhada - ACDASST", "district": "Jos\u00e9 Tom\u00e9 Souza", "material": "Pl\u00e1stico, Metal, Papel, Vidro", "postal_code": "56909520", "address": "R. In\u00e1cio Jos\u00e9 Felipe, s/n Q5 lote21a"},
{"city": "Almirante Tamandar\u00e9\u00a0/\u00a0PR", "name": "Assoc. Reciclar e Limpar", "district": "Pq S\u00e3o Jorge", "material": "Pl\u00e1stico, Metal, Papel, Vidro, Longa Vida, Borracha", "postal_code": "", "address": "Av. Antonio Johnson, 93"},
{"city": "Porto Alegre\u00a0/\u00a0RS", "name": "Assoc. Triadores RECICLANDO PELA VIDA", "district": "Floresta", "material": "Pl\u00e1stico, Metal, Papel, Vidro, Longa Vida", "postal_code": "90220340", "address": "R Dr Julio Olszewsky, 01"},
{"city": "Manaus\u00a0/\u00a0AM", "name": "Associa\u00e7\u00e3o ALIAN\u00c7A", "district": "", "material": "Pl\u00e1stico, Metal, Papel", "postal_code": "69005330", "address": "Rua Frei Jose dos Inocentes, n.\u00ba 403"},
{"city": "Uberl\u00e2ndia\u00a0/\u00a0MG", "name": "Associa\u00e7\u00e3o amigos do corrego bons olhos", "district": "cidade jardim", "material": "Pl\u00e1stico, Metal, Papel, Vidro, Longa Vida, Tubo Dental, L\u00e2mpadas", "postal_code": "38412174", "address": "rua dos miosotis 62"},
{"city": "J\u00falio de Castilhos\u00a0/\u00a0RS", "name": "Associa\u00e7\u00e3o Castilhense de Sele\u00e7\u00e3o de Materiais", "district": "", "material": "Pl\u00e1stico, Metal, Papel, Vidro, Longa Vida, Tubo Dental", "postal_code": "98130000", "address": "BR 158 km 3"},
{"city": "Ilhabela\u00a0/\u00a0SP", "name": "Associa\u00e7\u00e3o Centro de Triagem de Materais Recicl\u00e1veis", "district": "", "material": "Pl\u00e1stico, Papel, Vidro, Longa Vida, Tubo Dental", "postal_code": "11650000", "address": "Rua Pedro Vieira s/n\u00ba"},
{"city": "Porto Alegre\u00a0/\u00a0RS", "name": "Associa\u00e7\u00e3o Comunit\u00e1ria do Campo da Tuca", "district": "Partenon", "material": "Pl\u00e1stico, Metal, Papel, Vidro, Longa Vida", "postal_code": "91793-360", "address": "Rua D, 200"},
{"city": "S\u00e3o Bernardo do Campo\u00a0/\u00a0SP", "name": "Associa\u00e7\u00e3o Verdade e Luz", "district": "Assun\u00e7\u00e3o", "material": "Pl\u00e1stico, Metal, Pneu, Papel, Bateria, Vidro, Longa Vida", "postal_code": "09831-650", "address": "Rua Francisco Vicentainer,438"},
{"city": "Caxias do Sul\u00a0/\u00a0RS", "name": "Associa\u00e7\u00e3o Vida Nova", "district": "F\u00e1tima", "material": "Pl\u00e1stico, Metal, Papel, Vidro, Longa Vida, Tubo Dental", "postal_code": "95043290", "address": "Rua Giacomo Zatti, 1738"},
{"city": "S\u00e3o Paulo\u00a0/\u00a0SP", "name": "Associa\u00e7\u00e3o Vira Lata", "district": "Jaragu\u00e1", "material": "Pl\u00e1stico, Metal, Papel, Vidro, Longa Vida, \u00d3leo", "postal_code": "", "address": "Av. Jornalista Paulo Zingg, 1381"},
{"city": "Belo Horizonte\u00a0/\u00a0MG", "name": "ASSOCIRECICLE (Associa\u00e7\u00e3o dos Recicladores de Belo Horizonte)", "district": "Barro Preto", "material": "Pl\u00e1stico, Metal, Papel, Vidro, Longa Vida", "postal_code": "30190290", "address": "R. Araguari, 12"},
{"city": "Almirante Tamandar\u00e9\u00a0/\u00a0PR", "name": "ASSOL - Assoc. Solu\u00e7\u00e3o Ambiental de Catadores", "district": "Jd Roma", "material": "Pl\u00e1stico, Metal, Papel, Vidro, Longa Vida, Borracha", "postal_code": "", "address": "R. Aides Angelo de Oliveira, 183 - esq R. Quatro Barras"},
{"city": "Gua\u00e7ui\u00a0/\u00a0ES", "name": "Assosia\u00e7\u00e3o de Coletores do Capara\u00f3", "district": "ama norte", "material": "Pl\u00e1stico, Metal, Papel, Longa Vida", "postal_code": "259560000", "address": "rold\u00e3o de souza n 156"},
{"city": "Belo Horizonte\u00a0/\u00a0MG", "name": "ASTEMARP", "district": "", "material": "Pl\u00e1stico, Metal, Papel, Bateria, Vidro, Longa Vida", "postal_code": "31360-290", "address": "Rua Beira Mar, 418"},
{"city": "Santa Maria\u00a0/\u00a0DF", "name": "ASTRADASM", "district": "Ch\u00e1cara 2", "material": "Pl\u00e1stico, Metal, Pneu, Papel, Vidro", "postal_code": "71000-000", "address": "Av. Alagados, CL 114"},
{"city": "Ibirit\u00ea\u00a0/\u00a0MG", "name": "ASTRAPI - Associa\u00e7\u00e3o de Trabalhadores com Papel, Papel\u00e3o e Materiais R", "district": "Nova Esperan\u00e7a", "material": "Pl\u00e1stico, Metal, Papel, Bateria, Vidro, Madeira, Eletr\u00f4nicos", "postal_code": "32400000", "address": "Av. S\u00e3o Paulo, 590"},
{"city": "Nova Era\u00a0/\u00a0MG", "name": "ASTRINE - Associa\u00e7\u00e3o dos Triadores de Materiais Recicl\u00e1veis de Nova Er", "district": "Das Gra\u00e7as", "material": "Pl\u00e1stico, Metal, Papel, Vidro, Longa Vida", "postal_code": "35920000", "address": "Avenida Copacabana 1304"},
{"city": "Santana do Parna\u00edba\u00a0/\u00a0SP", "name": "AVEMARE - Associa\u00e7\u00e3o dos Catadores de Materiais Recicl\u00e1veis de Vila Es", "district": "", "material": "Pl\u00e1stico, Metal, Papel, Vidro, Longa Vida", "postal_code": "", "address": "Rua Jo\u00e3o Santana Leite,417"},
{"city": "Rio de Janeiro\u00a0/\u00a0RJ", "name": "BARRACOOP", "district": "Barra da Tijuca", "material": "Pl\u00e1stico, Metal, Papel, Vidro, Longa Vida", "postal_code": "22620110", "address": "Av. Ministro Ivan Lins s/n\u00ba"},
{"city": "Rio de Janeiro\u00a0/\u00a0RJ", "name": "BARRACOPE", "district": "Barra da Tijuca", "material": "Pl\u00e1stico, Metal, Papel, Vidro, Longa Vida", "postal_code": "22620-110", "address": "Av. Min. Ivan Lins, s/n"},
{"city": "S\u00e3o Paulo\u00a0/\u00a0SP", "name": "Boa Esperan\u00e7a", "district": "S\u00e3o Mateus", "material": "Pl\u00e1stico, Metal, Papel, Bateria, Vidro, Longa Vida", "postal_code": "05400-000", "address": "Rua Jo\u00e3o Cristiniano Soares, 20"},
{"city": "S\u00e3o Paulo\u00a0/\u00a0SP", "name": "Bortol\u00e2ndia", "district": "Bortol\u00e2ndia", "material": "Pl\u00e1stico, Metal, Papel, Bateria", "postal_code": "02352-140", "address": "Rua Vicente Luiz de Brito, 151"},
{"city": "Araguari\u00a0/\u00a0MG", "name": "ASCAMARA - Associa\u00e7\u00e3o do Catadores de Materiais Recicl\u00e1veis de Araguar", "district": "Independ\u00eancia", "material": "Pl\u00e1stico, Metal, Papel, Bateria, Longa Vida", "postal_code": "38445-900", "address": "Rua 17 n\u00b0 100"},
{"city": "Vit\u00f3ria\u00a0/\u00a0ES", "name": "ASCAMARE", "district": "Goiabeiras", "material": "Pl\u00e1stico, Metal, Papel", "postal_code": "29075120", "address": "Rua Pedro de Piant , 75"},
{"city": "Palmas\u00a0/\u00a0TO", "name": "ASCAMP", "district": "", "material": "Eletr\u00f4nicos", "postal_code": "", "address": "405 Norte, alameda 08, lote 02"},
{"city": "Par\u00e1 de Minas\u00a0/\u00a0MG", "name": "ASCAMP", "district": "", "material": "Pl\u00e1stico, Metal, Papel, Vidro, Longa Vida", "postal_code": "", "address": ""},
{"city": "Te\u00f3filo Otoni\u00a0/\u00a0MG", "name": "ASCANOVI", "district": "Olga Corr\u00eaa", "material": "Pl\u00e1stico, Metal, Papel, Vidro, \u00d3leo", "postal_code": "", "address": "R. Engenheiro Celso Murta, 249"},
{"city": "Nova Lima\u00a0/\u00a0MG", "name": "ASCAP", "district": "", "material": "Pl\u00e1stico, Metal, Papel, Bateria, Vidro, Longa Vida", "postal_code": "34000-000", "address": "Rua Joaquim Henrique, 130"},
{"city": "Betim\u00a0/\u00a0MG", "name": "ASCAPEL - Associa\u00e7\u00e3o dos Catadores de Papel, Papel\u00e3o e Materiais Reapr", "district": "Laranjeiras", "material": "Pl\u00e1stico, Metal, Papel, Bateria, Vidro, Longa Vida, Tubo Dental, Tinta, Tecido, Madeira, Eletr\u00f4nicos, Borracha", "postal_code": "", "address": "R. Panam\u00e1, 50"},
{"city": "Carlos Chagas\u00a0/\u00a0MG", "name": "ASCATA- Associa\u00e7\u00e3o de Materiais Reciclaveis da Carlos Chagas", "district": "Cruzeiro", "material": "Pl\u00e1stico, Metal, Papel, Bateria, Vidro, Longa Vida", "postal_code": "39864000", "address": "Pra\u00e7a S\u00e3o Jos\u00e9  s/n"},
{"city": "Brumadinho\u00a0/\u00a0MG", "name": "ASCAVAPE - Associa\u00e7\u00e3o dos Catadores de Brumadinho", "district": "Progresso 2", "material": "Pl\u00e1stico, Metal, Papel, Vidro, Longa Vida, Tubo Dental", "postal_code": "35460000", "address": "Avenida Inhotim, 641"},
{"city": "Vila Velha\u00a0/\u00a0ES", "name": "ASCAVIVE - Associa\u00e7\u00e3o de Catadores de Vilha Velha", "district": "Jardim Itapo\u00e3", "material": "Pl\u00e1stico, Metal, Papel, Vidro, Longa Vida, Tubo Dental", "postal_code": "29108360", "address": "Rua Amoreira, 07"},
{"city": "Salvador\u00a0/\u00a0BA", "name": "ASCOMPITA ASSOCIA\u00c7AO COMUNITARIA SOS MONT SERRAT DA PENINSULA ITAPAGIP", "district": "massaranduba", "material": "Pl\u00e1stico, Metal, Pneu, Papel, Pilha, Bateria, Vidro, Longa Vida, Tubo Dental, Tinta, L\u00e2mpadas, Tecido, \u00d3leo, Madeira, Mat\u00e9ria Org\u00e2nica, Eletr\u00f4nicos, Borracha", "postal_code": "40435570", "address": "DR MARIO AUGOSTO TEIXEIRA DE FEITAS N 4"},
{"city": "Parintins\u00a0/\u00a0AM", "name": "ASCORPIN (Assegura\u00e7\u00e3o dos Coletores de Res\u00edduos de Parintins", "district": "Centro", "material": "Pl\u00e1stico, Metal, Papel, Vidro, Longa Vida, Tubo Dental", "postal_code": "", "address": "Av. Na\u00e7\u00f5es Unidas, s/n"},
{"city": "Itapira\u00a0/\u00a0SP", "name": "Ascorsi - Associa\u00e7\u00e3o dos Coletores de Residuos Solidos de itapira", "district": "S\u00e3o Vicente", "material": "Pl\u00e1stico, Metal, Pneu, Papel, Pilha, Bateria, Vidro, Longa Vida, Tubo Dental, Tecido, \u00d3leo, Eletr\u00f4nicos", "postal_code": "13970000", "address": "Rua da Penha  , 840"},
{"city": "Contagem\u00a0/\u00a0MG", "name": "ASMAC - Associa\u00e7\u00e3o dos Catadores de Materiais Recicl\u00e1veis de Contagem", "district": "Presidente Kennedy", "material": "Pl\u00e1stico, Metal, Papel, Bateria, Vidro, Longa Vida, Eletr\u00f4nicos", "postal_code": "32145180", "address": "R. Tr\u00eas, 85/105"},
{"city": "Itapiranga\u00a0/\u00a0SC", "name": "ASMAR - Associa\u00e7\u00e3o de Selecionadores de Materiais Recicl\u00e1veis", "district": "Nossa Senhora de Lourdes", "material": "Pl\u00e1stico, Metal, Papel, Vidro, Longa Vida, Madeira", "postal_code": "97050320", "address": "Rua Israel Seligman, s/n"},
{"city": "Realeza\u00a0/\u00a0PR", "name": "APARA - Associa\u00e7\u00e3o de Apoio aos Agentes", "district": "Centro", "material": "Pl\u00e1stico, Metal, Papel, Vidro, Longa Vida", "postal_code": "85770-000", "address": "Av. Rubens Cesar Caselani , 2757"},
{"city": "Chapec\u00f3\u00a0/\u00a0SC", "name": "Aparas Chapec\u00f3", "district": "Pinheirinho", "material": "Pl\u00e1stico, Metal, Papel, Longa Vida", "postal_code": "89806700", "address": "Rua S\u00e3o Pedro23/50 - D"},
{"city": "Patos de Minas\u00a0/\u00a0MG", "name": "APARE-ASSOCIA\u00c7AO PATENSE DE RECICLAGEM", "district": "Santo Ant\u00f4nio", "material": "Pl\u00e1stico, Papel, Vidro, Longa Vida", "postal_code": "38700000", "address": "Rua Ouro Preto, 543"},
{"city": "Foz do Igua\u00e7u\u00a0/\u00a0PR", "name": "ARAFOZ - Associa\u00e7\u00e3o de Recicladores de Foz do Igua\u00e7u", "district": "Portal da Foz", "material": "Pl\u00e1stico, Metal, Papel, Longa Vida", "postal_code": "85859360", "address": "Rua Muaguari, 629"},
{"city": "Camaragibe\u00a0/\u00a0PE", "name": "ARATAC \u2013 Associa\u00e7\u00e3o de Reciclagem Ambiental do Timbi e Alberto Maia em", "district": "Alberto Maia", "material": "Pl\u00e1stico, Metal, Papel, Vidro", "postal_code": "54777190", "address": "Rua Nelson Rodrigues, 208"},
{"city": "Esteio\u00a0/\u00a0RS", "name": "ARCA - Associa\u00e7\u00e3o dos Recicladores e Catadores de Esteio", "district": "Tr\u00eas Marias", "material": "Pl\u00e1stico, Metal, Papel, Vidro", "postal_code": "93295010", "address": "R. Luis Pasteur, 72/75"},
{"city": "Cruzeiro do Oeste\u00a0/\u00a0PR", "name": "ARCO \u2013 ASSOCIA\u00c7\u00c3O DOS TRABALHADORES DE MATERIAIS RECICL\u00c1VEIS DE CRUZEI", "district": "SUL BRASILEIRA II", "material": "Pl\u00e1stico, Metal, Papel, Vidro", "postal_code": "87400000", "address": "RODOVIA PR 323, KM 131"},
{"city": "Florian\u00f3polis\u00a0/\u00a0SC", "name": "AREsp - Associa\u00e7\u00e3o de Recicladores Esperan\u00e7a", "district": "Monte Cristo", "material": "Pl\u00e1stico, Metal, Papel, Vidro, Longa Vida, Eletr\u00f4nicos", "postal_code": "88034900", "address": "Rodovia SC404, sn\u00ba"},
{"city": "PAULO AFONSO\u00a0/\u00a0BA", "name": "ARPA - ALTERNATIVA RECICLAGEM DE PAULO AFONSO", "district": ".", "material": "Pl\u00e1stico, Metal, Papel, Vidro", "postal_code": "", "address": "ESTRADA DO MATADOURO MUNICIPAL DE PAULO AFONSO"},
{"city": "Manaus\u00a0/\u00a0AM", "name": "ARPA \u2013 ASSOCIA\u00c7\u00c3O DE RECICLAGEM E PRESERVA\u00c7\u00c3O AMBIENTAL", "district": "Centro", "material": "Pl\u00e1stico, Metal, Papel", "postal_code": "", "address": "Rua das andradas , n.\u00ba 600-D"},
{"city": "Quitana\u00a0/\u00a0SP", "name": "ARQUI- Associa\u00e7\u00e3o da Reciclagem de Quitana", "district": "Sal\u00e3o Branco", "material": "Pl\u00e1stico, Metal, Pneu, Papel, Pilha, Bateria, Vidro, Longa Vida", "postal_code": "17670000", "address": "Av. Santa Helena s/n"},
{"city": "Divin\u00f3polis\u00a0/\u00a0MG", "name": "ASCADI - Associa\u00e7\u00e3o dos Catadores de Papel, Papel\u00e3o e Materiais Reapro", "district": "Centro", "material": "Pl\u00e1stico, Metal, Papel, Vidro, Longa Vida, Tubo Dental", "postal_code": "35500023", "address": "Av. do Contorno, 1166"},
{"city": "Lagoa da Prata\u00a0/\u00a0MG", "name": "ASCALP - Associa\u00e7\u00e3o de Catadores de Papel , Papel\u00e3o e Materiais Reapro", "district": "S\u00e3o Francisco", "material": "Pl\u00e1stico, Metal, Papel, Vidro, Longa Vida, Tubo Dental", "postal_code": "35590000", "address": "Rua Cear\u00e1 597"},
{"city": "Altin\u00f3polis\u00a0/\u00a0SP", "name": "Ascalt - Associa\u00e7\u00e3o dos Catadores de Materiais Recicl\u00e1veis de Altin\u00f3po", "district": "Distrito Industrial", "material": "Pl\u00e1stico, Metal, Papel, Bateria, Vidro, Longa Vida, \u00d3leo, Madeira, Eletr\u00f4nicos", "postal_code": "14350000", "address": "Alameda Altino Oz\u00f3rio de Oliveira, 530"},
{"city": "Sete Lagoas\u00a0/\u00a0MG", "name": "ACMR - Associa\u00e7\u00e3o dos Catadores de Materiais de Sete Lagoas", "district": "Henrique Nery", "material": "Pl\u00e1stico, Metal, Papel, Vidro, Longa Vida, Tubo Dental, Tecido", "postal_code": "35700332", "address": "Rua Alcides Fonseca s/n"},
{"city": "Para\u00edso do Norte\u00a0/\u00a0PR", "name": "Acomarp - Associa\u00e7\u00e3o dos Coletores de Materiais Recicl\u00e1veis de Para\u00edso", "district": "Centro", "material": "Pl\u00e1stico, Metal, Pneu, Papel, Vidro", "postal_code": "87780000", "address": "Avenida Tapejara, 1041"},
{"city": "Goi\u00e2nia\u00a0/\u00a0GO", "name": "ACOP (Assoc. de Catadores de Materiais Recicl\u00e1veis Ordem e Progresso)", "district": "Jd Am\u00e9rica", "material": "Pl\u00e1stico, Metal, Papel, Bateria, Vidro, Longa Vida, Tubo Dental, L\u00e2mpadas, \u00d3leo", "postal_code": "74653200", "address": "Rua C 121 Qd.213 Lt.14"},
{"city": "Ara\u00e7atuba\u00a0/\u00a0SP", "name": "ACREPOM- Associa\u00e7\u00e3o dos Catadores e Recicladores de Papel e Outros Mat", "district": "Centro", "material": "Pl\u00e1stico, Metal, Papel, Vidro, Longa Vida", "postal_code": "16050-270", "address": "Rua Rangel Pesta, 512"},
{"city": "Cachoeirinha\u00a0/\u00a0RS", "name": "ACRER - Associa\u00e7\u00e3o dos Classificadores de Res\u00edduos Recicl\u00e1veis", "district": "Distrito Industrial", "material": "Pl\u00e1stico, Metal, Papel, Pilha, Vidro, Longa Vida", "postal_code": "94930-510", "address": "Rua Travessa Greg\u00f3rio , 65"},
{"city": "Mossor\u00f3\u00a0/\u00a0RN", "name": "ACREVI- Associa\u00e7\u00e3o Comunit\u00e1ria Reciclando para Vida", "district": "", "material": "Pl\u00e1stico, Metal, Papel, Vidro, Longa Vida, Tubo Dental", "postal_code": "59600970", "address": "Rua Dalton Cunha, 478"},
{"city": "Natal\u00a0/\u00a0RN", "name": "ASCAMAR", "district": "", "material": "Pl\u00e1stico, Metal, Papel, Vidro", "postal_code": "59074410", "address": "Rua Bom Jesus, 54"},
{"city": "Londrina\u00a0/\u00a0PR", "name": "Alumipac", "district": "", "material": "Vidro", "postal_code": "86075140", "address": "Seimu Oguido 379"},
{"city": "Ibirub\u00e1\u00a0/\u00a0RS", "name": "AMA- Agentes do Meio Ambiente Cooperativa", "district": "", "material": "Pl\u00e1stico, Metal, Papel", "postal_code": "98200-000", "address": "Av. Brasil, 1599"},
{"city": "Vit\u00f3ria\u00a0/\u00a0ES", "name": "AMARIV", "district": "Bairro Itarar\u00e9", "material": "Pl\u00e1stico, Metal, Papel", "postal_code": "", "address": "R. Dr. Arlindo Sodr\u00e9, 686"},
{"city": "Ipatinga\u00a0/\u00a0MG", "name": "Amavale - Ass. dos Catadores de Mat. Recicl\u00e1vel do Vale do A\u00e7o", "district": "Veneza II", "material": "Pl\u00e1stico, Metal, Papel, Vidro, \u00d3leo", "postal_code": "35160000", "address": "Av. Londrina, 420"},
{"city": "Brasilia\u00a0/\u00a0DF", "name": "AMBIENTE-Associa\u00e7\u00e3o dos Ambientalistas da Vila Estrutural", "district": "Vila Estrutural", "material": "Pl\u00e1stico, Metal, Pneu, Papel, Vidro, L\u00e2mpadas, Madeira", "postal_code": "71095001", "address": "chacara 258  - Lix\u00e3o da Estrutural"},
{"city": "Americana\u00a0/\u00a0SP", "name": "Americlage", "district": "S\u00e3o Vito", "material": "Pl\u00e1stico, Metal, Papel, Vidro, Longa Vida", "postal_code": "", "address": "Rua Santa Joana dark, 249"},
{"city": "Pindamonhangaba\u00a0/\u00a0SP", "name": "APAE- Centro de Reciclagem Santa Cec\u00edlia", "district": "Santa Cec\u00edlia", "material": "Pl\u00e1stico, Metal, Papel, Pilha, Bateria, Vidro, Longa Vida", "postal_code": "12400-000", "address": "Av Manoel C\u00e9sar Ribeiro, 1305"},
{"city": "Xaxim\u00a0/\u00a0SC", "name": "APAE- Xaxim", "district": "", "material": "Pl\u00e1stico, Metal, Papel, Bateria, Vidro, Longa Vida", "postal_code": "89825-000", "address": "Rua Avelino Lenardi, 247"},
{"city": "Igarap\u00e9\u00a0/\u00a0MG", "name": "APAIG - Associa\u00e7\u00e3o dos Catadores de Materiais Recicl\u00e1veis de Igarap\u00e9", "district": "Padre Eust\u00e1quio", "material": "Pl\u00e1stico, Metal, Papel, Bateria, Vidro, Longa Vida, Tinta, \u00d3leo, Eletr\u00f4nicos", "postal_code": "", "address": "R. B, 55"},
{"city": "Maracaju\u00a0/\u00a0MS", "name": "Associa\u00e7\u00e3o dos Catadores de Materiais Recicl\u00e1veis de Maracaju", "district": "Centro", "material": "Pl\u00e1stico, Metal, Papel, Vidro, Tubo Dental", "postal_code": "79150000", "address": "Av"},
{"city": "Governador Valadares\u00a0/\u00a0MG", "name": "Associa\u00e7\u00e3o dos Catadores de Materiais Recicl\u00e1veis Natureza Viva - ASCA", "district": "Turmalina", "material": "Pl\u00e1stico, Metal, Papel, Vidro, Longa Vida, Eletr\u00f4nicos", "postal_code": "", "address": "Br 116, KM 415"},
{"city": "Curitiba\u00a0/\u00a0PR", "name": "Associa\u00e7\u00e3o dos Catadores de Materiais Recicl\u00e1veis VIDA NOVA", "district": "Cap\u00e3o Raso", "material": "Pl\u00e1stico, Metal, Papel, Vidro, Longa Vida", "postal_code": "81020590", "address": "R. Hellen Keller, 118"},
{"city": "CAMPOS SALES\u00a0/\u00a0CE", "name": "ASSOCIA\u00c7\u00c3O DOS CATADORES DE MATERIAL RECICL\u00c1VEL DE CAMPOS SALES.", "district": "CENTRO", "material": "Pl\u00e1stico, Metal, Papel, Borracha", "postal_code": "63150000", "address": "AVENIDA 07 DE SETEMBRO, s/n."},
{"city": "Jau\u00a0/\u00a0SP", "name": "AsSOCIA\u00c7\u00c3O DOS CATADORES DE PAPEL DE JA\u00da - ACAP", "district": "VILA HISLT", "material": "Pl\u00e1stico, Metal, Papel, Vidro, Longa Vida", "postal_code": "17207050", "address": "R"},
{"city": "Dois C\u00f3rregos\u00a0/\u00a0SP", "name": "Associa\u00e7\u00e3o dos Catadores de Recicl\u00e1veis", "district": "N\u00facleo Habitacional Eug\u00eanio Francisconi", "material": "Pl\u00e1stico, Metal, Papel", "postal_code": "17300000", "address": "Rua Jos\u00e9 Iraldi Violi, 795"},
{"city": "Barra do Cho\u00e7a\u00a0/\u00a0BA", "name": "Associa\u00e7\u00e3o dos catadores de residuos solidos - ACRESOL", "district": "", "material": "Pl\u00e1stico, Metal, Papel, Vidro", "postal_code": "45120000", "address": "Rua J\u00f5ao Antonio Amorim N\u00ba 175"},
{"city": "Volta Redonda\u00a0/\u00a0RJ", "name": "Associa\u00e7\u00e3o dos Catadores de R\u00e9siduos S\u00f3lidos de Volta Redonda", "district": "Vila Santa Cec\u00edlia", "material": "Pl\u00e1stico, Metal, Papel, Bateria, Vidro, Longa Vida", "postal_code": "27180000", "address": "Rua 35"},
{"city": "Teresina\u00a0/\u00a0PI", "name": "Associa\u00e7\u00e3o dos Catadores de Teresina", "district": "", "material": "Pl\u00e1stico, Metal, Papel, Vidro, Longa Vida, Tubo Dental, Mat\u00e9ria Org\u00e2nica", "postal_code": "64000000", "address": "Rua Gilbu\u00e9is , s/n"},
{"city": "Itajub\u00e1\u00a0/\u00a0MG", "name": "Associa\u00e7\u00e3o dos Catadores Itajubenses de Materiais Recicl\u00e1veis (ACIMAR)", "district": "S\u00e3o Sebasti\u00e3o", "material": "Pl\u00e1stico, Metal, Papel", "postal_code": "37502454", "address": "Av. Padre Louren\u00e7o, 3300"},
{"city": "Porto Xavier\u00a0/\u00a0RS", "name": "Associa\u00e7\u00e3o dos Catadores Recicladores de Porto Xavier", "district": "", "material": "Pl\u00e1stico, Metal, Papel, Vidro, Longa Vida, Tubo Dental", "postal_code": "98995000", "address": "Linha Divisa Porto Xavier"},
{"city": "Florian\u00f3polis\u00a0/\u00a0SC", "name": "Associa\u00e7\u00e3o dos Coletores de Materiais Recicl\u00e1veis", "district": "Centro", "material": "Pl\u00e1stico, Metal, Papel, Vidro, Longa Vida, Eletr\u00f4nicos", "postal_code": "88010280", "address": "Rua Antonio Pereira Oliveira Neto, s/n"},
{"city": "Pirapora do Bom Jesus\u00a0/\u00a0SP", "name": "Associa\u00e7\u00e3o dos Moradores da Barragem de Pirapora e Regi\u00e3o - AMBAPIR", "district": "Centro", "material": "Pl\u00e1stico, Metal, Papel, Vidro", "postal_code": "06550000", "address": "Estrada da Barragem, 759"},
{"city": "Alegrete\u00a0/\u00a0RS", "name": "Associa\u00e7\u00e3o dos Moradores do Bairro Assump\u00e7\u00e3o", "district": "Assun\u00e7\u00e3o", "material": "Mat\u00e9ria Org\u00e2nica", "postal_code": "97542900", "address": "Av Euripides Brasil Milano, 3060 Bloco 266B, apt 301"},
{"city": "Camaragibe\u00a0/\u00a0PE", "name": "Associa\u00e7\u00e3o dos Recicladores de Camaragibe", "district": "Santa Terezinha", "material": "Pl\u00e1stico, Metal, Papel, Vidro", "postal_code": "54771690", "address": "Av. Dr. Luiz Ign\u00e1cio de Andrade Lima, s/n"}
]
