[{"city": ["Araruama\u00a0/\u00a0RJ"], "name": ["ASPERGILUS"], "district": ["Centro"], "material": ["Papel"], "postal_code": ["28970-000"], "address": ["Av. Nilo Pe\u00e7anha, 384"]},
{"city": ["Porci\u00fancula\u00a0/\u00a0RJ"], "name": ["Associa\u00e7\u00e3o de Catadores de Materiais Recicl\u00e1veis de Porci\u00fancula"], "district": [""], "material": ["Pl\u00e1stico, Metal, Papel, Vidro"], "postal_code": [""], "address": ["Estrada da Barra, Km4"]},
{"city": ["Nova Friburgo\u00a0/\u00a0RJ"], "name": ["Associa\u00e7\u00e3o de Catadores de Nova Friburgo"], "district": ["Centro"], "material": ["Pl\u00e1stico, Metal, Papel, Vidro, Longa Vida"], "postal_code": ["28613-001"], "address": ["Av. Alberto Braune, 113"]},
{"city": ["S\u00e3o Jos\u00e9 do Vale do Rio Preto\u00a0/\u00a0RJ"], "name": ["Associa\u00e7\u00e3o dos Catadores das Pedras Brancas"], "district": ["Pedras Brancas"], "material": ["Pl\u00e1stico, Metal, Pneu, Papel, Pilha, Vidro, Longa Vida, L\u00e2mpadas, Mat\u00e9ria Org\u00e2nica, Borracha"], "postal_code": ["25780000"], "address": ["Rua Waldomiro de Souza, 27, Pedras brancas"]},
{"city": ["Volta Redonda\u00a0/\u00a0RJ"], "name": ["Associa\u00e7\u00e3o dos Catadores de R\u00e9siduos S\u00f3lidos de Volta Redonda"], "district": ["Vila Santa Cec\u00edlia"], "material": ["Pl\u00e1stico, Metal, Papel, Bateria, Vidro, Longa Vida"], "postal_code": ["27180000"], "address": ["Rua 35"]},
{"city": ["Mesquita\u00a0/\u00a0RJ"], "name": ["Associa\u00e7\u00e3o Esperan\u00e7a de Trabalhadores Coletores de Recicl\u00e1veis de Mesq"], "district": ["Santo Elias"], "material": ["Pl\u00e1stico, Metal, Papel, Longa Vida, \u00d3leo"], "postal_code": ["26560543"], "address": ["Rua Josefina 489"]},
{"city": ["Rio de Janeiro\u00a0/\u00a0RJ"], "name": ["BARRACOOP"], "district": ["Barra da Tijuca"], "material": ["Pl\u00e1stico, Metal, Papel, Vidro, Longa Vida"], "postal_code": ["22620110"], "address": ["Av. Ministro Ivan Lins s/n\u00ba"]},
{"city": ["Rio de Janeiro\u00a0/\u00a0RJ"], "name": ["BARRACOPE"], "district": ["Barra da Tijuca"], "material": ["Pl\u00e1stico, Metal, Papel, Vidro, Longa Vida"], "postal_code": ["22620-110"], "address": ["Av. Min. Ivan Lins, s/n"]},
{"city": ["Queimados\u00a0/\u00a0RJ"], "name": ["COARE-QM Cooperativa de Coleta Seletiva Aproveitamento de Residuos S\u00f3o"], "district": ["Vila Camarim"], "material": ["Pl\u00e1stico, Metal, Pneu, Papel, Vidro, Longa Vida, Tubo Dental, \u00d3leo, Madeira, Mat\u00e9ria Org\u00e2nica, Borracha"], "postal_code": ["26385020"], "address": ["Av. Plinio Giosa, n\u00ba 300"]},
{"city": ["Rio de janeiro\u00a0/\u00a0RJ"], "name": ["comitra"], "district": ["Bangu"], "material": ["Pl\u00e1stico, Papel, \u00d3leo"], "postal_code": ["21854002"], "address": ["Guandu do Sena 5540"]},
{"city": ["Rio de janeiro\u00a0/\u00a0RJ"], "name": ["Comitra"], "district": ["Bangu"], "material": ["Pl\u00e1stico, Metal, Pneu, Papel, Pilha, Bateria, Vidro, Longa Vida, Tubo Dental, Tinta, \u00d3leo, Madeira, Eletr\u00f4nicos, Borracha"], "postal_code": ["21854002"], "address": ["estrada guandu do sena,5540 casa 3"]},
{"city": ["Petr\u00f3polis\u00a0/\u00a0RJ"], "name": ["Comunidade Esperan\u00e7a Sociedade e Reciclagem"], "district": ["Centro"], "material": ["Pl\u00e1stico, Papel, Vidro, Longa Vida, Tubo Dental"], "postal_code": ["25615002"], "address": ["Rua Casimiro de Abreu, 272"]},
{"city": ["Mesquita\u00a0/\u00a0RJ"], "name": ["COOMUB - Cooperativa Popular de Reciclagem e Servi\u00e7os Mulheres da Baix"], "district": ["Rocha Sobrinho"], "material": ["Pl\u00e1stico, Metal, Papel, Vidro, Longa Vida"], "postal_code": ["26572481"], "address": ["R. Coelho da Rocha, 2500"]},
{"city": ["Rio de Janeiro\u00a0/\u00a0RJ"], "name": ["coop novo rio"], "district": ["parque tiete"], "material": ["Pl\u00e1stico, Metal, Pneu, Papel, Pilha, Bateria, Vidro, Longa Vida, Tubo Dental, \u00d3leo, Eletr\u00f4nicos, Borracha"], "postal_code": ["25581060"], "address": ["rua iguaba lote 10 quadra 02"]},
{"city": ["NITEROI\u00a0/\u00a0RJ"], "name": ["COOPCANIT (COOPERATIVA DE CATADORES DE NITEROI )"], "district": ["CENTRO"], "material": ["Pl\u00e1stico, Metal, Papel, Pilha, Bateria, Vidro, Longa Vida, \u00d3leo, Eletr\u00f4nicos"], "postal_code": ["24210050"], "address": ["RUA PADRE ANCHIETA N\u00b072"]},
{"city": ["Tr\u00eas Rios\u00a0/\u00a0RJ"], "name": ["Cooperativa Recicla Tres Rios"], "district": ["Centro"], "material": ["Pl\u00e1stico, Metal, Papel, Pilha, Bateria, Vidro, Longa Vida"], "postal_code": ["25803010"], "address": ["Rua Pref. Walter Franklin , 13 loja 1"]},
{"city": ["Rio de Janeiro\u00a0/\u00a0RJ"], "name": ["Cooperativa Recicladores Ambientais Transformando"], "district": ["Caju"], "material": ["Pl\u00e1stico, Papel, Vidro"], "postal_code": ["20930390"], "address": ["Rua Peter Lund 38 Bloco A Loja H"]},
{"city": ["Rio de Janeiro\u00a0/\u00a0RJ"], "name": ["Cooperativa Vale da Safira"], "district": ["Vila Alian\u00e7a"], "material": ["Pl\u00e1stico, Metal, Papel, Longa Vida"], "postal_code": ["21842-340"], "address": ["Av. do Corretor, 23"]},
{"city": ["Nova Igua\u00e7u\u00a0/\u00a0RJ"], "name": ["Cooperativa Vitoria dos coletores de materiais reaproveitaveis da cida"], "district": ["Centro"], "material": ["Pl\u00e1stico, Papel, Longa Vida, \u00d3leo"], "postal_code": ["26215200"], "address": ["R TELES BITTENCOURT   192"]},
{"city": ["Rio de Janeiro\u00a0/\u00a0RJ"], "name": ["COOPERGRAMACHO"], "district": ["Monte Castelo"], "material": ["Pl\u00e1stico, Metal, Papel, Pilha, Bateria, Vidro, Longa Vida"], "postal_code": ["21660-355"], "address": ["Av . Tocantins s/n"]},
{"city": ["Rio de Janeiro\u00a0/\u00a0RJ"], "name": ["Coopernorte - Sampaio"], "district": ["Sampaio"], "material": ["Pl\u00e1stico, Metal, Papel, Vidro, Longa Vida"], "postal_code": ["20950-004"], "address": ["Av. Marechal Rondon, 2204"]},
{"city": ["Rio de Janeiro\u00a0/\u00a0RJ"], "name": ["COOPERSUL - Humait\u00e1"], "district": ["Humait\u00e1"], "material": ["Pl\u00e1stico, Metal, Papel, Vidro, Longa Vida"], "postal_code": ["22471-330"], "address": ["Rua Frei Veloso, s/n"]},
{"city": ["Rio de Janeiro\u00a0/\u00a0RJ"], "name": ["COOPEVAPE - Iraj\u00e1"], "district": ["Iraj\u00e1"], "material": ["Pl\u00e1stico, Metal, Papel, Pilha, Bateria, Vidro, Longa Vida"], "postal_code": ["21235-110"], "address": ["Av. Monsenhor F\u00e9lix, 512"]},
{"city": ["Rio de Janeiro\u00a0/\u00a0RJ"], "name": ["Cooptramar\u00e9 Cooperativa dosTrabalhadores do Complexo da Mar\u00e9"], "district": ["Centro"], "material": ["Pl\u00e1stico, Metal, Papel, Vidro, Longa Vida"], "postal_code": [""], "address": ["Av. Rio Branco, 43 18\u00b0 andar"]},
{"city": ["Rio de Janeiro\u00a0/\u00a0RJ"], "name": ["COOTRACOM- Cooperativa de Trabalhos Comunit\u00e1rios do Rio de Janeiro"], "district": ["Mendanha"], "material": ["Pl\u00e1stico, Papel, Vidro, Longa Vida"], "postal_code": ["23097-200"], "address": ["Estrada do Guandu, 1122"]},
{"city": ["Duque de Caxias\u00a0/\u00a0RJ"], "name": ["Instituto Atitude Responsa de Educa\u00e7\u00e3o Ambiental - IAR"], "district": ["Dr. Laureano"], "material": ["\u00d3leo"], "postal_code": ["25000000"], "address": ["Rua Camurim, 1331"]},
{"city": ["Rio de Janeiro\u00a0/\u00a0RJ"], "name": ["PROJETO S\u00d3CIO - EDUCACIONAL E CULTURAL M\u00c3OS AMIGAS"], "district": ["RAMOS"], "material": ["Pl\u00e1stico, Metal, Papel, Longa Vida"], "postal_code": ["21040090"], "address": ["RUA SIRIEMA N. 23 -LJ -A"]},
{"city": ["Marica\u00a0/\u00a0RJ"], "name": ["RDSCOOP LTDA"], "district": ["PONTA NEGRA"], "material": ["Pl\u00e1stico, Metal, Pneu, Papel, Pilha, Bateria, Longa Vida, Tubo Dental, Tinta, L\u00e2mpadas, Tecido, \u00d3leo, Madeira, Mat\u00e9ria Org\u00e2nica, Eletr\u00f4nicos, Borracha"], "postal_code": ["24900000"], "address": ["RUA 125 L5 Q 173"]},
{"city": ["Paty do Alf\u00e9res\u00a0/\u00a0RJ"], "name": ["Re Viva Paty"], "district": ["Centro"], "material": ["Pl\u00e1stico, Metal, Pneu, Papel, Pilha, Bateria, Vidro, Longa Vida, Tubo Dental, Tinta, L\u00e2mpadas, \u00d3leo, Madeira, Mat\u00e9ria Org\u00e2nica, Eletr\u00f4nicos, Borracha"], "postal_code": ["26950000"], "address": ["R.Coronel Manoel Bernades n\u00b0 409"]},
{"city": ["Rio de Janeiro\u00a0/\u00a0RJ"], "name": ["RIOCOOP - COOPERATIVA DE COLETA SELETIVA E RECICLAGEM DE MATERIAIS"], "district": ["Bonsucesso"], "material": ["Pl\u00e1stico, Metal, Papel, Vidro, Longa Vida, Tubo Dental"], "postal_code": ["21402760"], "address": ["Rua Dezessete de Fevereiro, 408"]},
{"city": ["Mesquita\u00a0/\u00a0RJ"], "name": ["COOPCARMO - Reciclagem Comunit\u00e1ria Nossa Senhora do Carmo"], "district": ["Jacutinga"], "material": ["Pl\u00e1stico, Metal, Papel, Longa Vida"], "postal_code": ["26230180"], "address": ["Rua Guarani, 405"]},
{"city": ["Barra Mansa\u00a0/\u00a0RJ"], "name": ["COOPCAT - COOPERATIVA MISTA DOS CATADORES DE MATERIAIS RECICL\u00c1VEIS DE"], "district": ["Ano Bom"], "material": ["Pl\u00e1stico, Metal, Papel, Vidro, Longa Vida, Eletr\u00f4nicos"], "postal_code": ["27325002"], "address": ["Av. Presidente Kennedy - n\u00b0 3.050"]},
{"city": ["S\u00e3o Jo\u00e3o de Mereti\u00a0/\u00a0RJ"], "name": ["CooperAngel"], "district": ["Jd Metropoles"], "material": ["Pl\u00e1stico, Metal, Papel, Vidro, Longa Vida, \u00d3leo"], "postal_code": ["25575089"], "address": ["R. Telefonica, 100"]},
{"city": ["Rio de Janeiro\u00a0/\u00a0RJ"], "name": ["Cooperativa - COOPAMA"], "district": ["Maria da Gra\u00e7a"], "material": ["Pl\u00e1stico, Metal, Papel, Vidro, Longa Vida, Tubo Dental"], "postal_code": ["22471330"], "address": ["Rua Miguel Angelo, 385"]},
{"city": ["Barra Mansa\u00a0/\u00a0RJ"], "name": ["Cooperativa Ambiental"], "district": ["Saudade"], "material": ["Pl\u00e1stico, Metal, Papel, Vidro, Longa Vida, Tubo Dental"], "postal_code": ["25050510"], "address": ["Av. Homero Leite, 254"]},
{"city": ["Rio de Janeiro\u00a0/\u00a0RJ"], "name": ["Cooperativa Beija Flor"], "district": ["Penha Circular"], "material": ["Pl\u00e1stico, Metal, Papel, Vidro, Longa Vida, Tubo Dental"], "postal_code": ["21011020"], "address": ["Rua da Batata,  990"]},
{"city": ["Rio de Janeiro\u00a0/\u00a0RJ"], "name": ["Cooperativa Compromisso Ambiental"], "district": ["Barra da Tijuca"], "material": ["Pl\u00e1stico, Metal, Vidro, Longa Vida, Tubo Dental"], "postal_code": ["22280005"], "address": ["Rua Vitor Civita, 66"]},
{"city": ["Rio de Janeiro\u00a0/\u00a0RJ"], "name": ["Cooperativa COOPGuanabara"], "district": ["Bonsucesso"], "material": ["Pl\u00e1stico, Metal, Papel, Vidro, Longa Vida, Tubo Dental"], "postal_code": ["20931001"], "address": ["Rua Flavio Farnezio,168"]},
{"city": ["Nova Friburgo\u00a0/\u00a0RJ"], "name": ["Cooperativa de Catadores de Nova Friburgo"], "district": ["C\u00f3rrego Dantas"], "material": ["Pl\u00e1stico, Metal, Papel, Vidro"], "postal_code": ["28630230"], "address": ["RJ 130 KM 63"]},
{"city": ["Rio de Janeiro\u00a0/\u00a0RJ"], "name": ["COOPERATIVA DE RECICLADORES AMBIENTAIS TRANSFORMANDO"], "district": ["CAJU"], "material": ["Pl\u00e1stico, Metal, Papel, Vidro, Longa Vida"], "postal_code": ["20930390"], "address": ["RUA PETER LUND, 38 BLOCO"]},
{"city": ["Resende\u00a0/\u00a0RJ"], "name": ["Cooperativa de Reciclagem Rezende"], "district": ["Morada da Colina"], "material": ["Pl\u00e1stico, Metal, Papel, Vidro, Longa Vida, Tubo Dental"], "postal_code": ["27523000"], "address": ["Rua Prof. Darcy Ribeiro, s/n"]},
{"city": ["Rio de Janeiro\u00a0/\u00a0RJ"], "name": ["Cooperativa de Trabalho Comunit\u00e1rio - COOTRACOM"], "district": ["Campo Grande"], "material": ["Pl\u00e1stico, Metal, Papel, Vidro, Longa Vida, Tubo Dental"], "postal_code": ["23097200"], "address": ["Estrada do Guando,1122"]},
{"city": ["Nova Igua\u00e7u\u00a0/\u00a0RJ"], "name": ["Cooperativa Mista de Coleta Seletiva Aproveitamento de Res\u00edduos S\u00f3lido"], "district": ["Centro"], "material": ["Pl\u00e1stico, Metal, Papel"], "postal_code": ["26220030"], "address": ["Rua Coronel Francisco Soares, 872"]},
{"city": ["Rio de Janeiro\u00a0/\u00a0RJ"], "name": ["Cooperativa Popular Amigos do Meio Ambiente Ltda."], "district": ["Maria da Gra\u00e7a"], "material": ["Pl\u00e1stico, Metal, Pneu, Papel, Vidro, Longa Vida, Tubo Dental, \u00d3leo, Eletr\u00f4nicos"], "postal_code": ["20785220"], "address": ["Rua Miguel \u00c2ngelo, 385"]},
{"city": ["Rio de Janeiro\u00a0/\u00a0RJ"], "name": ["Cooperativa Projeto ATOS"], "district": ["Santissimo"], "material": ["Pl\u00e1stico, Metal, Papel, Vidro, Tubo Dental, Tecido"], "postal_code": ["23097200"], "address": ["Rua Ivan Pessoa, 341"]}]
